,ZIP,State,County,coastal_flood_events_96_19,State_abbrev,County_FIPS
0,501,NEW YORK,SUFFOLK,2,NY,36103
1,1504,MASSACHUSETTS,PLYMOUTH,6,MA,25021
2,1746,MASSACHUSETTS,PLYMOUTH,6,MA,25021
3,1756,MASSACHUSETTS,PLYMOUTH,6,MA,25021
4,1760,MASSACHUSETTS,PLYMOUTH,6,MA,25021
5,2018,MASSACHUSETTS,BARNSTABLE,25,MA,25023
6,2019,MASSACHUSETTS,PLYMOUTH,6,MA,25021
7,2020,MASSACHUSETTS,BARNSTABLE,25,MA,25023
8,2021,MASSACHUSETTS,PLYMOUTH,6,MA,25021
9,2025,MASSACHUSETTS,BARNSTABLE,25,MA,25023
10,2026,MASSACHUSETTS,PLYMOUTH,6,MA,25021
11,2027,MASSACHUSETTS,PLYMOUTH,6,MA,25021
12,2030,MASSACHUSETTS,PLYMOUTH,6,MA,25021
13,2032,MASSACHUSETTS,PLYMOUTH,6,MA,25021
14,2035,MASSACHUSETTS,PLYMOUTH,6,MA,25021
15,2038,MASSACHUSETTS,PLYMOUTH,6,MA,25021
16,2041,MASSACHUSETTS,BARNSTABLE,25,MA,25023
17,2043,MASSACHUSETTS,BARNSTABLE,25,MA,25023
18,2044,MASSACHUSETTS,BARNSTABLE,25,MA,25023
19,2045,MASSACHUSETTS,BARNSTABLE,25,MA,25023
20,2047,MASSACHUSETTS,BARNSTABLE,25,MA,25023
21,2048,MASSACHUSETTS,PLYMOUTH,6,MA,25021
22,2050,MASSACHUSETTS,BARNSTABLE,25,MA,25023
23,2051,MASSACHUSETTS,BARNSTABLE,25,MA,25023
24,2052,MASSACHUSETTS,PLYMOUTH,6,MA,25021
25,2053,MASSACHUSETTS,PLYMOUTH,6,MA,25021
26,2054,MASSACHUSETTS,PLYMOUTH,6,MA,25021
27,2056,MASSACHUSETTS,PLYMOUTH,6,MA,25021
28,2059,MASSACHUSETTS,BARNSTABLE,25,MA,25023
29,2060,MASSACHUSETTS,BARNSTABLE,25,MA,25023
30,2061,MASSACHUSETTS,BARNSTABLE,25,MA,25023
31,2062,MASSACHUSETTS,PLYMOUTH,6,MA,25021
32,2065,MASSACHUSETTS,BARNSTABLE,25,MA,25023
33,2066,MASSACHUSETTS,BARNSTABLE,25,MA,25023
34,2067,MASSACHUSETTS,PLYMOUTH,6,MA,25021
35,2070,MASSACHUSETTS,PLYMOUTH,6,MA,25021
36,2071,MASSACHUSETTS,PLYMOUTH,6,MA,25021
37,2072,MASSACHUSETTS,PLYMOUTH,6,MA,25021
38,2081,MASSACHUSETTS,PLYMOUTH,6,MA,25021
39,2090,MASSACHUSETTS,PLYMOUTH,6,MA,25021
40,2093,MASSACHUSETTS,PLYMOUTH,6,MA,25021
41,2130,MASSACHUSETTS,PLYMOUTH,6,MA,25021
42,2135,MASSACHUSETTS,PLYMOUTH,6,MA,25021
43,2136,MASSACHUSETTS,PLYMOUTH,6,MA,25021
44,2169,MASSACHUSETTS,PLYMOUTH,6,MA,25021
45,2170,MASSACHUSETTS,PLYMOUTH,6,MA,25021
46,2171,MASSACHUSETTS,PLYMOUTH,6,MA,25021
47,2184,MASSACHUSETTS,PLYMOUTH,6,MA,25021
48,2185,MASSACHUSETTS,PLYMOUTH,6,MA,25021
49,2186,MASSACHUSETTS,PLYMOUTH,6,MA,25021
50,2188,MASSACHUSETTS,PLYMOUTH,6,MA,25021
51,2189,MASSACHUSETTS,BARNSTABLE,25,MA,25023
52,2190,MASSACHUSETTS,PLYMOUTH,6,MA,25021
53,2191,MASSACHUSETTS,PLYMOUTH,6,MA,25021
54,2215,MASSACHUSETTS,PLYMOUTH,6,MA,25021
55,2269,MASSACHUSETTS,PLYMOUTH,6,MA,25021
56,2301,MASSACHUSETTS,BARNSTABLE,25,MA,25023
57,2302,MASSACHUSETTS,BARNSTABLE,25,MA,25023
58,2303,MASSACHUSETTS,BARNSTABLE,25,MA,25023
59,2304,MASSACHUSETTS,BARNSTABLE,25,MA,25023
60,2305,MASSACHUSETTS,BARNSTABLE,25,MA,25023
61,2322,MASSACHUSETTS,PLYMOUTH,6,MA,25021
62,2324,MASSACHUSETTS,BARNSTABLE,25,MA,25023
63,2325,MASSACHUSETTS,BARNSTABLE,25,MA,25023
64,2327,MASSACHUSETTS,BARNSTABLE,25,MA,25023
65,2330,MASSACHUSETTS,BARNSTABLE,25,MA,25023
66,2331,MASSACHUSETTS,BARNSTABLE,25,MA,25023
67,2332,MASSACHUSETTS,BARNSTABLE,25,MA,25023
68,2333,MASSACHUSETTS,BARNSTABLE,25,MA,25023
69,2337,MASSACHUSETTS,BARNSTABLE,25,MA,25023
70,2338,MASSACHUSETTS,BARNSTABLE,25,MA,25023
71,2339,MASSACHUSETTS,BARNSTABLE,25,MA,25023
72,2341,MASSACHUSETTS,BARNSTABLE,25,MA,25023
73,2343,MASSACHUSETTS,PLYMOUTH,6,MA,25021
74,2344,MASSACHUSETTS,BARNSTABLE,25,MA,25023
75,2345,MASSACHUSETTS,BARNSTABLE,25,MA,25023
76,2346,MASSACHUSETTS,BARNSTABLE,25,MA,25023
77,2347,MASSACHUSETTS,BARNSTABLE,25,MA,25023
78,2348,MASSACHUSETTS,BARNSTABLE,25,MA,25023
79,2349,MASSACHUSETTS,BARNSTABLE,25,MA,25023
80,2350,MASSACHUSETTS,BARNSTABLE,25,MA,25023
81,2351,MASSACHUSETTS,BARNSTABLE,25,MA,25023
82,2355,MASSACHUSETTS,BARNSTABLE,25,MA,25023
83,2356,MASSACHUSETTS,PLYMOUTH,6,MA,25021
84,2358,MASSACHUSETTS,BARNSTABLE,25,MA,25023
85,2359,MASSACHUSETTS,BARNSTABLE,25,MA,25023
86,2360,MASSACHUSETTS,BARNSTABLE,25,MA,25023
87,2361,MASSACHUSETTS,BARNSTABLE,25,MA,25023
88,2362,MASSACHUSETTS,BARNSTABLE,25,MA,25023
89,2364,MASSACHUSETTS,BARNSTABLE,25,MA,25023
90,2366,MASSACHUSETTS,BARNSTABLE,25,MA,25023
91,2367,MASSACHUSETTS,BARNSTABLE,25,MA,25023
92,2368,MASSACHUSETTS,PLYMOUTH,6,MA,25021
93,2370,MASSACHUSETTS,BARNSTABLE,25,MA,25023
94,2375,MASSACHUSETTS,BARNSTABLE,25,MA,25023
95,2379,MASSACHUSETTS,BARNSTABLE,25,MA,25023
96,2381,MASSACHUSETTS,BARNSTABLE,25,MA,25023
97,2382,MASSACHUSETTS,BARNSTABLE,25,MA,25023
98,2445,MASSACHUSETTS,PLYMOUTH,6,MA,25021
99,2446,MASSACHUSETTS,PLYMOUTH,6,MA,25021
100,2447,MASSACHUSETTS,PLYMOUTH,6,MA,25021
101,2467,MASSACHUSETTS,PLYMOUTH,6,MA,25021
102,2481,MASSACHUSETTS,PLYMOUTH,6,MA,25021
103,2482,MASSACHUSETTS,PLYMOUTH,6,MA,25021
104,2492,MASSACHUSETTS,PLYMOUTH,6,MA,25021
105,2494,MASSACHUSETTS,PLYMOUTH,6,MA,25021
106,2532,MASSACHUSETTS,BARNSTABLE,25,MA,25023
107,2535,MASSACHUSETTS,ESSEX,33,MA,25007
108,2538,MASSACHUSETTS,BARNSTABLE,25,MA,25023
109,2539,MASSACHUSETTS,ESSEX,33,MA,25007
110,2552,MASSACHUSETTS,ESSEX,33,MA,25007
111,2554,MASSACHUSETTS,PLYMOUTH,41,MA,25019
112,2557,MASSACHUSETTS,ESSEX,33,MA,25007
113,2558,MASSACHUSETTS,BARNSTABLE,25,MA,25023
114,2564,MASSACHUSETTS,PLYMOUTH,41,MA,25019
115,2568,MASSACHUSETTS,ESSEX,33,MA,25007
116,2571,MASSACHUSETTS,BARNSTABLE,25,MA,25023
117,2575,MASSACHUSETTS,ESSEX,33,MA,25007
118,2576,MASSACHUSETTS,BARNSTABLE,25,MA,25023
119,2584,MASSACHUSETTS,PLYMOUTH,41,MA,25019
120,2713,MASSACHUSETTS,ESSEX,33,MA,25007
121,2738,MASSACHUSETTS,BARNSTABLE,25,MA,25023
122,2739,MASSACHUSETTS,BARNSTABLE,25,MA,25023
123,2762,MASSACHUSETTS,PLYMOUTH,6,MA,25021
124,2767,MASSACHUSETTS,BARNSTABLE,25,MA,25023
125,2770,MASSACHUSETTS,BARNSTABLE,25,MA,25023
126,2779,MASSACHUSETTS,BARNSTABLE,25,MA,25023
127,3034,NEW HAMPSHIRE,ROCKINGHAM,1,NH,33013
128,3045,NEW HAMPSHIRE,ROCKINGHAM,1,NH,33013
129,3046,NEW HAMPSHIRE,ROCKINGHAM,1,NH,33013
130,3102,NEW HAMPSHIRE,ROCKINGHAM,1,NH,33013
131,3104,NEW HAMPSHIRE,ROCKINGHAM,1,NH,33013
132,3106,NEW HAMPSHIRE,ROCKINGHAM,1,NH,33013
133,3216,NEW HAMPSHIRE,ROCKINGHAM,1,NH,33013
134,3220,NEW HAMPSHIRE,ROCKINGHAM,1,NH,33013
135,3221,NEW HAMPSHIRE,ROCKINGHAM,1,NH,33013
136,3224,NEW HAMPSHIRE,ROCKINGHAM,1,NH,33013
137,3229,NEW HAMPSHIRE,ROCKINGHAM,1,NH,33013
138,3230,NEW HAMPSHIRE,ROCKINGHAM,1,NH,33013
139,3231,NEW HAMPSHIRE,ROCKINGHAM,1,NH,33013
140,3233,NEW HAMPSHIRE,ROCKINGHAM,1,NH,33013
141,3234,NEW HAMPSHIRE,ROCKINGHAM,1,NH,33013
142,3235,NEW HAMPSHIRE,ROCKINGHAM,1,NH,33013
143,3237,NEW HAMPSHIRE,ROCKINGHAM,1,NH,33013
144,3242,NEW HAMPSHIRE,ROCKINGHAM,1,NH,33013
145,3243,NEW HAMPSHIRE,ROCKINGHAM,1,NH,33013
146,3255,NEW HAMPSHIRE,ROCKINGHAM,1,NH,33013
147,3257,NEW HAMPSHIRE,ROCKINGHAM,1,NH,33013
148,3258,NEW HAMPSHIRE,ROCKINGHAM,1,NH,33013
149,3260,NEW HAMPSHIRE,ROCKINGHAM,1,NH,33013
150,3263,NEW HAMPSHIRE,ROCKINGHAM,1,NH,33013
151,3268,NEW HAMPSHIRE,ROCKINGHAM,1,NH,33013
152,3272,NEW HAMPSHIRE,ROCKINGHAM,1,NH,33013
153,3273,NEW HAMPSHIRE,ROCKINGHAM,1,NH,33013
154,3275,NEW HAMPSHIRE,ROCKINGHAM,1,NH,33013
155,3276,NEW HAMPSHIRE,ROCKINGHAM,1,NH,33013
156,3278,NEW HAMPSHIRE,ROCKINGHAM,1,NH,33013
157,3280,NEW HAMPSHIRE,ROCKINGHAM,1,NH,33013
158,3281,NEW HAMPSHIRE,ROCKINGHAM,1,NH,33013
159,3287,NEW HAMPSHIRE,ROCKINGHAM,1,NH,33013
160,3301,NEW HAMPSHIRE,ROCKINGHAM,1,NH,33013
161,3302,NEW HAMPSHIRE,ROCKINGHAM,1,NH,33013
162,3303,NEW HAMPSHIRE,ROCKINGHAM,1,NH,33013
163,3304,NEW HAMPSHIRE,ROCKINGHAM,1,NH,33013
164,3305,NEW HAMPSHIRE,ROCKINGHAM,1,NH,33013
165,3307,NEW HAMPSHIRE,ROCKINGHAM,1,NH,33013
166,3782,NEW HAMPSHIRE,ROCKINGHAM,1,NH,33013
167,3804,MAINE,YORK,1,ME,23031
168,3901,MAINE,YORK,1,ME,23031
169,3902,MAINE,YORK,1,ME,23031
170,3903,MAINE,YORK,1,ME,23031
171,3904,MAINE,YORK,1,ME,23031
172,3905,MAINE,YORK,1,ME,23031
173,3906,MAINE,YORK,1,ME,23031
174,3907,MAINE,YORK,1,ME,23031
175,3908,MAINE,YORK,1,ME,23031
176,3909,MAINE,YORK,1,ME,23031
177,3910,MAINE,YORK,1,ME,23031
178,3911,MAINE,YORK,1,ME,23031
179,4001,MAINE,YORK,1,ME,23031
180,4002,MAINE,YORK,1,ME,23031
181,4004,MAINE,YORK,1,ME,23031
182,4005,MAINE,YORK,1,ME,23031
183,4006,MAINE,YORK,1,ME,23031
184,4008,MAINE,YORK,53,ME,23023
185,4009,MAINE,CENTRAL WASHINGTON,1,ME,23017
186,4010,MAINE,CENTRAL WASHINGTON,1,ME,23017
187,4014,MAINE,YORK,1,ME,23031
188,4016,MAINE,CENTRAL WASHINGTON,1,ME,23017
189,4020,MAINE,YORK,1,ME,23031
190,4022,MAINE,CENTRAL WASHINGTON,1,ME,23017
191,4027,MAINE,YORK,1,ME,23031
192,4028,MAINE,YORK,1,ME,23031
193,4030,MAINE,YORK,1,ME,23031
194,4037,MAINE,CENTRAL WASHINGTON,1,ME,23017
195,4038,MAINE,YORK,1,ME,23031
196,4040,MAINE,CENTRAL WASHINGTON,1,ME,23017
197,4041,MAINE,CENTRAL WASHINGTON,1,ME,23017
198,4042,MAINE,YORK,1,ME,23031
199,4043,MAINE,YORK,1,ME,23031
200,4046,MAINE,YORK,1,ME,23031
201,4047,MAINE,YORK,1,ME,23031
202,4048,MAINE,YORK,1,ME,23031
203,4049,MAINE,YORK,1,ME,23031
204,4051,MAINE,CENTRAL WASHINGTON,1,ME,23017
205,4054,MAINE,YORK,1,ME,23031
206,4056,MAINE,YORK,1,ME,23031
207,4061,MAINE,YORK,1,ME,23031
208,4063,MAINE,YORK,1,ME,23031
209,4064,MAINE,YORK,1,ME,23031
210,4068,MAINE,CENTRAL WASHINGTON,1,ME,23017
211,4072,MAINE,YORK,1,ME,23031
212,4073,MAINE,YORK,1,ME,23031
213,4076,MAINE,YORK,1,ME,23031
214,4083,MAINE,YORK,1,ME,23031
215,4084,MAINE,YORK,1,ME,23031
216,4086,MAINE,YORK,53,ME,23023
217,4087,MAINE,YORK,1,ME,23031
218,4088,MAINE,CENTRAL WASHINGTON,1,ME,23017
219,4090,MAINE,YORK,1,ME,23031
220,4093,MAINE,YORK,1,ME,23031
221,4094,MAINE,YORK,1,ME,23031
222,4095,MAINE,YORK,1,ME,23031
223,4216,MAINE,CENTRAL WASHINGTON,1,ME,23017
224,4217,MAINE,CENTRAL WASHINGTON,1,ME,23017
225,4219,MAINE,CENTRAL WASHINGTON,1,ME,23017
226,4220,MAINE,CENTRAL WASHINGTON,1,ME,23017
227,4221,MAINE,CENTRAL WASHINGTON,1,ME,23017
228,4224,MAINE,CENTRAL WASHINGTON,1,ME,23017
229,4226,MAINE,CENTRAL WASHINGTON,1,ME,23017
230,4231,MAINE,CENTRAL WASHINGTON,1,ME,23017
231,4237,MAINE,CENTRAL WASHINGTON,1,ME,23017
232,4238,MAINE,CENTRAL WASHINGTON,1,ME,23017
233,4239,MAINE,CENTRAL WASHINGTON,1,ME,23017
234,4252,MAINE,YORK,53,ME,23023
235,4255,MAINE,CENTRAL WASHINGTON,1,ME,23017
236,4257,MAINE,CENTRAL WASHINGTON,1,ME,23017
237,4261,MAINE,CENTRAL WASHINGTON,1,ME,23017
238,4267,MAINE,CENTRAL WASHINGTON,1,ME,23017
239,4268,MAINE,CENTRAL WASHINGTON,1,ME,23017
240,4270,MAINE,CENTRAL WASHINGTON,1,ME,23017
241,4271,MAINE,CENTRAL WASHINGTON,1,ME,23017
242,4275,MAINE,CENTRAL WASHINGTON,1,ME,23017
243,4276,MAINE,CENTRAL WASHINGTON,1,ME,23017
244,4281,MAINE,CENTRAL WASHINGTON,1,ME,23017
245,4286,MAINE,CENTRAL WASHINGTON,1,ME,23017
246,4287,MAINE,YORK,53,ME,23023
247,4289,MAINE,CENTRAL WASHINGTON,1,ME,23017
248,4290,MAINE,CENTRAL WASHINGTON,1,ME,23017
249,4292,MAINE,CENTRAL WASHINGTON,1,ME,23017
250,4345,MAINE,YORK,53,ME,23023
251,4357,MAINE,YORK,53,ME,23023
252,4401,MAINE,CUMBERLAND,1,ME,23019
253,4402,MAINE,CUMBERLAND,1,ME,23019
254,4410,MAINE,CUMBERLAND,1,ME,23019
255,4411,MAINE,CUMBERLAND,1,ME,23019
256,4412,MAINE,CUMBERLAND,1,ME,23019
257,4413,MAINE,COASTAL HANCOCK,15,ME,23029
258,4417,MAINE,CUMBERLAND,1,ME,23019
259,4418,MAINE,CUMBERLAND,1,ME,23019
260,4419,MAINE,CUMBERLAND,1,ME,23019
261,4422,MAINE,CUMBERLAND,1,ME,23019
262,4424,MAINE,COASTAL HANCOCK,15,ME,23029
263,4427,MAINE,CUMBERLAND,1,ME,23019
264,4428,MAINE,CUMBERLAND,1,ME,23019
265,4429,MAINE,CUMBERLAND,1,ME,23019
266,4430,MAINE,CUMBERLAND,1,ME,23019
267,4434,MAINE,CUMBERLAND,1,ME,23019
268,4435,MAINE,CUMBERLAND,1,ME,23019
269,4444,MAINE,CUMBERLAND,1,ME,23019
270,4448,MAINE,CUMBERLAND,1,ME,23019
271,4449,MAINE,CUMBERLAND,1,ME,23019
272,4450,MAINE,CUMBERLAND,1,ME,23019
273,4451,MAINE,CUMBERLAND,1,ME,23019
274,4453,MAINE,CUMBERLAND,1,ME,23019
275,4454,MAINE,COASTAL HANCOCK,15,ME,23029
276,4455,MAINE,CUMBERLAND,1,ME,23019
277,4456,MAINE,CUMBERLAND,1,ME,23019
278,4457,MAINE,CUMBERLAND,1,ME,23019
279,4459,MAINE,CUMBERLAND,1,ME,23019
280,4460,MAINE,CUMBERLAND,1,ME,23019
281,4461,MAINE,CUMBERLAND,1,ME,23019
282,4462,MAINE,CUMBERLAND,1,ME,23019
283,4468,MAINE,CUMBERLAND,1,ME,23019
284,4469,MAINE,CUMBERLAND,1,ME,23019
285,4473,MAINE,CUMBERLAND,1,ME,23019
286,4474,MAINE,CUMBERLAND,1,ME,23019
287,4475,MAINE,CUMBERLAND,1,ME,23019
288,4487,MAINE,CUMBERLAND,1,ME,23019
289,4488,MAINE,CUMBERLAND,1,ME,23019
290,4489,MAINE,CUMBERLAND,1,ME,23019
291,4490,MAINE,COASTAL HANCOCK,15,ME,23029
292,4491,MAINE,COASTAL HANCOCK,15,ME,23029
293,4492,MAINE,COASTAL HANCOCK,15,ME,23029
294,4493,MAINE,CUMBERLAND,1,ME,23019
295,4495,MAINE,CUMBERLAND,1,ME,23019
296,4497,MAINE,CUMBERLAND,1,ME,23019
297,4530,MAINE,YORK,53,ME,23023
298,4548,MAINE,YORK,53,ME,23023
299,4562,MAINE,YORK,53,ME,23023
300,4565,MAINE,YORK,53,ME,23023
301,4579,MAINE,YORK,53,ME,23023
302,4606,MAINE,COASTAL HANCOCK,15,ME,23029
303,4611,MAINE,COASTAL HANCOCK,15,ME,23029
304,4619,MAINE,COASTAL HANCOCK,15,ME,23029
305,4622,MAINE,COASTAL HANCOCK,15,ME,23029
306,4623,MAINE,COASTAL HANCOCK,15,ME,23029
307,4626,MAINE,COASTAL HANCOCK,15,ME,23029
308,4628,MAINE,COASTAL HANCOCK,15,ME,23029
309,4630,MAINE,COASTAL HANCOCK,15,ME,23029
310,4631,MAINE,COASTAL HANCOCK,15,ME,23029
311,4637,MAINE,COASTAL HANCOCK,15,ME,23029
312,4643,MAINE,COASTAL HANCOCK,15,ME,23029
313,4648,MAINE,COASTAL HANCOCK,15,ME,23029
314,4649,MAINE,COASTAL HANCOCK,15,ME,23029
315,4652,MAINE,COASTAL HANCOCK,15,ME,23029
316,4654,MAINE,COASTAL HANCOCK,15,ME,23029
317,4655,MAINE,COASTAL HANCOCK,15,ME,23029
318,4657,MAINE,COASTAL HANCOCK,15,ME,23029
319,4658,MAINE,COASTAL HANCOCK,15,ME,23029
320,4666,MAINE,COASTAL HANCOCK,15,ME,23029
321,4667,MAINE,COASTAL HANCOCK,15,ME,23029
322,4668,MAINE,COASTAL HANCOCK,15,ME,23029
323,4671,MAINE,COASTAL HANCOCK,15,ME,23029
324,4680,MAINE,COASTAL HANCOCK,15,ME,23029
325,4686,MAINE,COASTAL HANCOCK,15,ME,23029
326,4691,MAINE,COASTAL HANCOCK,15,ME,23029
327,4694,MAINE,COASTAL HANCOCK,15,ME,23029
328,4733,MAINE,CUMBERLAND,1,ME,23019
329,4765,MAINE,CUMBERLAND,1,ME,23019
330,4777,MAINE,CUMBERLAND,1,ME,23019
331,4921,MAINE,CUMBERLAND,1,ME,23019
332,4928,MAINE,CUMBERLAND,1,ME,23019
333,4930,MAINE,CUMBERLAND,1,ME,23019
334,4932,MAINE,CUMBERLAND,1,ME,23019
335,4933,MAINE,CUMBERLAND,1,ME,23019
336,4939,MAINE,CUMBERLAND,1,ME,23019
337,4953,MAINE,CUMBERLAND,1,ME,23019
338,4969,MAINE,CUMBERLAND,1,ME,23019
339,6010,CONNECTICUT,FAIRFIELD,1,CT,9005
340,6018,CONNECTICUT,FAIRFIELD,1,CT,9005
341,6021,CONNECTICUT,FAIRFIELD,1,CT,9005
342,6023,CONNECTICUT,FAIRFIELD,2,CT,9007
343,6024,CONNECTICUT,FAIRFIELD,1,CT,9005
344,6031,CONNECTICUT,FAIRFIELD,1,CT,9005
345,6037,CONNECTICUT,FAIRFIELD,22,CT,9009
346,6039,CONNECTICUT,FAIRFIELD,1,CT,9005
347,6057,CONNECTICUT,FAIRFIELD,1,CT,9005
348,6058,CONNECTICUT,FAIRFIELD,1,CT,9005
349,6059,CONNECTICUT,FAIRFIELD,1,CT,9005
350,6061,CONNECTICUT,FAIRFIELD,1,CT,9005
351,6063,CONNECTICUT,FAIRFIELD,1,CT,9005
352,6065,CONNECTICUT,FAIRFIELD,1,CT,9005
353,6068,CONNECTICUT,FAIRFIELD,1,CT,9005
354,6069,CONNECTICUT,FAIRFIELD,1,CT,9005
355,6073,CONNECTICUT,FAIRFIELD,2,CT,9007
356,6079,CONNECTICUT,FAIRFIELD,1,CT,9005
357,6098,CONNECTICUT,FAIRFIELD,1,CT,9005
358,6231,CONNECTICUT,MIDDLESEX,6,CT,9011
359,6249,CONNECTICUT,MIDDLESEX,6,CT,9011
360,6254,CONNECTICUT,MIDDLESEX,6,CT,9011
361,6320,CONNECTICUT,MIDDLESEX,6,CT,9011
362,6330,CONNECTICUT,MIDDLESEX,6,CT,9011
363,6333,CONNECTICUT,MIDDLESEX,6,CT,9011
364,6334,CONNECTICUT,MIDDLESEX,6,CT,9011
365,6335,CONNECTICUT,MIDDLESEX,6,CT,9011
366,6336,CONNECTICUT,MIDDLESEX,6,CT,9011
367,6338,CONNECTICUT,MIDDLESEX,6,CT,9011
368,6339,CONNECTICUT,MIDDLESEX,6,CT,9011
369,6340,CONNECTICUT,MIDDLESEX,6,CT,9011
370,6349,CONNECTICUT,MIDDLESEX,6,CT,9011
371,6350,CONNECTICUT,MIDDLESEX,6,CT,9011
372,6351,CONNECTICUT,MIDDLESEX,6,CT,9011
373,6353,CONNECTICUT,MIDDLESEX,6,CT,9011
374,6355,CONNECTICUT,MIDDLESEX,6,CT,9011
375,6357,CONNECTICUT,MIDDLESEX,6,CT,9011
376,6359,CONNECTICUT,MIDDLESEX,6,CT,9011
377,6360,CONNECTICUT,MIDDLESEX,6,CT,9011
378,6365,CONNECTICUT,MIDDLESEX,6,CT,9011
379,6370,CONNECTICUT,MIDDLESEX,6,CT,9011
380,6371,CONNECTICUT,MIDDLESEX,6,CT,9011
381,6372,CONNECTICUT,MIDDLESEX,6,CT,9011
382,6374,CONNECTICUT,MIDDLESEX,6,CT,9011
383,6375,CONNECTICUT,MIDDLESEX,6,CT,9011
384,6376,CONNECTICUT,MIDDLESEX,6,CT,9011
385,6378,CONNECTICUT,MIDDLESEX,6,CT,9011
386,6379,CONNECTICUT,MIDDLESEX,6,CT,9011
387,6380,CONNECTICUT,MIDDLESEX,6,CT,9011
388,6382,CONNECTICUT,MIDDLESEX,6,CT,9011
389,6383,CONNECTICUT,MIDDLESEX,6,CT,9011
390,6384,CONNECTICUT,MIDDLESEX,6,CT,9011
391,6385,CONNECTICUT,MIDDLESEX,6,CT,9011
392,6388,CONNECTICUT,MIDDLESEX,6,CT,9011
393,6389,CONNECTICUT,MIDDLESEX,6,CT,9011
394,6390,NEW YORK,SUFFOLK,2,NY,36103
395,6401,CONNECTICUT,FAIRFIELD,22,CT,9009
396,6403,CONNECTICUT,FAIRFIELD,22,CT,9009
397,6405,CONNECTICUT,FAIRFIELD,22,CT,9009
398,6408,CONNECTICUT,FAIRFIELD,22,CT,9009
399,6409,CONNECTICUT,FAIRFIELD,2,CT,9007
400,6410,CONNECTICUT,FAIRFIELD,22,CT,9009
401,6411,CONNECTICUT,FAIRFIELD,22,CT,9009
402,6412,CONNECTICUT,FAIRFIELD,2,CT,9007
403,6413,CONNECTICUT,FAIRFIELD,2,CT,9007
404,6414,CONNECTICUT,FAIRFIELD,2,CT,9007
405,6415,CONNECTICUT,MIDDLESEX,6,CT,9011
406,6416,CONNECTICUT,FAIRFIELD,2,CT,9007
407,6417,CONNECTICUT,FAIRFIELD,2,CT,9007
408,6418,CONNECTICUT,FAIRFIELD,22,CT,9009
409,6419,CONNECTICUT,FAIRFIELD,2,CT,9007
410,6420,CONNECTICUT,FAIRFIELD,2,CT,9007
411,6422,CONNECTICUT,FAIRFIELD,22,CT,9009
412,6423,CONNECTICUT,FAIRFIELD,2,CT,9007
413,6424,CONNECTICUT,FAIRFIELD,2,CT,9007
414,6426,CONNECTICUT,FAIRFIELD,2,CT,9007
415,6437,CONNECTICUT,FAIRFIELD,22,CT,9009
416,6438,CONNECTICUT,FAIRFIELD,2,CT,9007
417,6439,CONNECTICUT,MIDDLESEX,6,CT,9011
418,6441,CONNECTICUT,FAIRFIELD,2,CT,9007
419,6442,CONNECTICUT,FAIRFIELD,2,CT,9007
420,6443,CONNECTICUT,FAIRFIELD,22,CT,9009
421,6450,CONNECTICUT,FAIRFIELD,22,CT,9009
422,6451,CONNECTICUT,FAIRFIELD,22,CT,9009
423,6455,CONNECTICUT,FAIRFIELD,2,CT,9007
424,6456,CONNECTICUT,FAIRFIELD,2,CT,9007
425,6457,CONNECTICUT,FAIRFIELD,2,CT,9007
426,6459,CONNECTICUT,FAIRFIELD,2,CT,9007
427,6460,CONNECTICUT,FAIRFIELD,22,CT,9009
428,6461,CONNECTICUT,FAIRFIELD,22,CT,9009
429,6469,CONNECTICUT,FAIRFIELD,2,CT,9007
430,6471,CONNECTICUT,FAIRFIELD,22,CT,9009
431,6472,CONNECTICUT,FAIRFIELD,22,CT,9009
432,6473,CONNECTICUT,FAIRFIELD,22,CT,9009
433,6475,CONNECTICUT,FAIRFIELD,2,CT,9007
434,6477,CONNECTICUT,FAIRFIELD,22,CT,9009
435,6478,CONNECTICUT,FAIRFIELD,22,CT,9009
436,6479,CONNECTICUT,FAIRFIELD,22,CT,9009
437,6480,CONNECTICUT,FAIRFIELD,2,CT,9007
438,6481,CONNECTICUT,FAIRFIELD,2,CT,9007
439,6483,CONNECTICUT,FAIRFIELD,22,CT,9009
440,6487,CONNECTICUT,FAIRFIELD,22,CT,9009
441,6488,CONNECTICUT,FAIRFIELD,22,CT,9009
442,6489,CONNECTICUT,FAIRFIELD,22,CT,9009
443,6492,CONNECTICUT,FAIRFIELD,22,CT,9009
444,6493,CONNECTICUT,FAIRFIELD,22,CT,9009
445,6494,CONNECTICUT,FAIRFIELD,22,CT,9009
446,6495,CONNECTICUT,FAIRFIELD,22,CT,9009
447,6498,CONNECTICUT,FAIRFIELD,2,CT,9007
448,6501,CONNECTICUT,FAIRFIELD,22,CT,9009
449,6502,CONNECTICUT,FAIRFIELD,22,CT,9009
450,6503,CONNECTICUT,FAIRFIELD,22,CT,9009
451,6504,CONNECTICUT,FAIRFIELD,22,CT,9009
452,6505,CONNECTICUT,FAIRFIELD,22,CT,9009
453,6506,CONNECTICUT,FAIRFIELD,22,CT,9009
454,6507,CONNECTICUT,FAIRFIELD,22,CT,9009
455,6508,CONNECTICUT,FAIRFIELD,22,CT,9009
456,6509,CONNECTICUT,FAIRFIELD,22,CT,9009
457,6510,CONNECTICUT,FAIRFIELD,22,CT,9009
458,6511,CONNECTICUT,FAIRFIELD,22,CT,9009
459,6512,CONNECTICUT,FAIRFIELD,22,CT,9009
460,6513,CONNECTICUT,FAIRFIELD,22,CT,9009
461,6514,CONNECTICUT,FAIRFIELD,22,CT,9009
462,6515,CONNECTICUT,FAIRFIELD,22,CT,9009
463,6516,CONNECTICUT,FAIRFIELD,22,CT,9009
464,6517,CONNECTICUT,FAIRFIELD,22,CT,9009
465,6518,CONNECTICUT,FAIRFIELD,22,CT,9009
466,6519,CONNECTICUT,FAIRFIELD,22,CT,9009
467,6520,CONNECTICUT,FAIRFIELD,22,CT,9009
468,6521,CONNECTICUT,FAIRFIELD,22,CT,9009
469,6524,CONNECTICUT,FAIRFIELD,22,CT,9009
470,6525,CONNECTICUT,FAIRFIELD,22,CT,9009
471,6530,CONNECTICUT,FAIRFIELD,22,CT,9009
472,6531,CONNECTICUT,FAIRFIELD,22,CT,9009
473,6532,CONNECTICUT,FAIRFIELD,22,CT,9009
474,6533,CONNECTICUT,FAIRFIELD,22,CT,9009
475,6534,CONNECTICUT,FAIRFIELD,22,CT,9009
476,6535,CONNECTICUT,FAIRFIELD,22,CT,9009
477,6536,CONNECTICUT,FAIRFIELD,22,CT,9009
478,6537,CONNECTICUT,FAIRFIELD,22,CT,9009
479,6538,CONNECTICUT,FAIRFIELD,22,CT,9009
480,6540,CONNECTICUT,FAIRFIELD,22,CT,9009
481,6701,CONNECTICUT,FAIRFIELD,22,CT,9009
482,6702,CONNECTICUT,FAIRFIELD,22,CT,9009
483,6703,CONNECTICUT,FAIRFIELD,22,CT,9009
484,6704,CONNECTICUT,FAIRFIELD,22,CT,9009
485,6705,CONNECTICUT,FAIRFIELD,22,CT,9009
486,6706,CONNECTICUT,FAIRFIELD,22,CT,9009
487,6708,CONNECTICUT,FAIRFIELD,22,CT,9009
488,6710,CONNECTICUT,FAIRFIELD,22,CT,9009
489,6712,CONNECTICUT,FAIRFIELD,22,CT,9009
490,6716,CONNECTICUT,FAIRFIELD,22,CT,9009
491,6720,CONNECTICUT,FAIRFIELD,22,CT,9009
492,6721,CONNECTICUT,FAIRFIELD,22,CT,9009
493,6722,CONNECTICUT,FAIRFIELD,22,CT,9009
494,6723,CONNECTICUT,FAIRFIELD,22,CT,9009
495,6724,CONNECTICUT,FAIRFIELD,22,CT,9009
496,6749,CONNECTICUT,FAIRFIELD,22,CT,9009
497,6750,CONNECTICUT,FAIRFIELD,1,CT,9005
498,6751,CONNECTICUT,FAIRFIELD,1,CT,9005
499,6752,CONNECTICUT,FAIRFIELD,1,CT,9005
500,6753,CONNECTICUT,FAIRFIELD,1,CT,9005
501,6754,CONNECTICUT,FAIRFIELD,1,CT,9005
502,6755,CONNECTICUT,FAIRFIELD,1,CT,9005
503,6756,CONNECTICUT,FAIRFIELD,1,CT,9005
504,6757,CONNECTICUT,FAIRFIELD,1,CT,9005
505,6758,CONNECTICUT,FAIRFIELD,1,CT,9005
506,6759,CONNECTICUT,FAIRFIELD,1,CT,9005
507,6762,CONNECTICUT,FAIRFIELD,22,CT,9009
508,6763,CONNECTICUT,FAIRFIELD,1,CT,9005
509,6770,CONNECTICUT,FAIRFIELD,22,CT,9009
510,6776,CONNECTICUT,FAIRFIELD,1,CT,9005
511,6777,CONNECTICUT,FAIRFIELD,1,CT,9005
512,6778,CONNECTICUT,FAIRFIELD,1,CT,9005
513,6779,CONNECTICUT,FAIRFIELD,22,CT,9009
514,6781,CONNECTICUT,FAIRFIELD,1,CT,9005
515,6782,CONNECTICUT,FAIRFIELD,1,CT,9005
516,6783,CONNECTICUT,FAIRFIELD,1,CT,9005
517,6784,CONNECTICUT,FAIRFIELD,1,CT,9005
518,6785,CONNECTICUT,FAIRFIELD,1,CT,9005
519,6786,CONNECTICUT,FAIRFIELD,1,CT,9005
520,6787,CONNECTICUT,FAIRFIELD,1,CT,9005
521,6790,CONNECTICUT,FAIRFIELD,1,CT,9005
522,6791,CONNECTICUT,FAIRFIELD,1,CT,9005
523,6792,CONNECTICUT,FAIRFIELD,1,CT,9005
524,6793,CONNECTICUT,FAIRFIELD,1,CT,9005
525,6794,CONNECTICUT,FAIRFIELD,1,CT,9005
526,6795,CONNECTICUT,FAIRFIELD,1,CT,9005
527,6796,CONNECTICUT,FAIRFIELD,1,CT,9005
528,6798,CONNECTICUT,FAIRFIELD,1,CT,9005
529,6804,CONNECTICUT,FAIRFIELD,1,CT,9005
530,7001,NEW JERSEY,CAPE MAY,56,NJ,34023
531,7003,NEW JERSEY,MONMOUTH,53,NJ,34013
532,7004,NEW JERSEY,MONMOUTH,53,NJ,34013
533,7005,NEW JERSEY,BURLINGTON,17,NJ,34027
534,7006,NEW JERSEY,MONMOUTH,53,NJ,34013
535,7007,NEW JERSEY,MONMOUTH,53,NJ,34013
536,7008,NEW JERSEY,CAPE MAY,56,NJ,34023
537,7009,NEW JERSEY,MONMOUTH,53,NJ,34013
538,7017,NEW JERSEY,MONMOUTH,53,NJ,34013
539,7018,NEW JERSEY,MONMOUTH,53,NJ,34013
540,7019,NEW JERSEY,MONMOUTH,53,NJ,34013
541,7021,NEW JERSEY,MONMOUTH,53,NJ,34013
542,7028,NEW JERSEY,MONMOUTH,53,NJ,34013
543,7034,NEW JERSEY,BURLINGTON,17,NJ,34027
544,7035,NEW JERSEY,BURLINGTON,17,NJ,34027
545,7039,NEW JERSEY,MONMOUTH,53,NJ,34013
546,7040,NEW JERSEY,MONMOUTH,53,NJ,34013
547,7041,NEW JERSEY,MONMOUTH,53,NJ,34013
548,7042,NEW JERSEY,MONMOUTH,53,NJ,34013
549,7043,NEW JERSEY,MONMOUTH,53,NJ,34013
550,7044,NEW JERSEY,MONMOUTH,53,NJ,34013
551,7045,NEW JERSEY,BURLINGTON,17,NJ,34027
552,7046,NEW JERSEY,BURLINGTON,17,NJ,34027
553,7050,NEW JERSEY,MONMOUTH,53,NJ,34013
554,7051,NEW JERSEY,MONMOUTH,53,NJ,34013
555,7052,NEW JERSEY,MONMOUTH,53,NJ,34013
556,7054,NEW JERSEY,BURLINGTON,17,NJ,34027
557,7058,NEW JERSEY,BURLINGTON,17,NJ,34027
558,7059,NEW JERSEY,MIDDLESEX,40,NJ,34035
559,7060,NEW JERSEY,MIDDLESEX,40,NJ,34035
560,7062,NEW JERSEY,MIDDLESEX,40,NJ,34035
561,7063,NEW JERSEY,MIDDLESEX,40,NJ,34035
562,7064,NEW JERSEY,CAPE MAY,56,NJ,34023
563,7065,NEW JERSEY,CAPE MAY,56,NJ,34023
564,7067,NEW JERSEY,CAPE MAY,56,NJ,34023
565,7068,NEW JERSEY,MONMOUTH,53,NJ,34013
566,7069,NEW JERSEY,MIDDLESEX,40,NJ,34035
567,7076,NEW JERSEY,MIDDLESEX,40,NJ,34035
568,7077,NEW JERSEY,CAPE MAY,56,NJ,34023
569,7078,NEW JERSEY,MONMOUTH,53,NJ,34013
570,7079,NEW JERSEY,MONMOUTH,53,NJ,34013
571,7080,NEW JERSEY,CAPE MAY,56,NJ,34023
572,7082,NEW JERSEY,BURLINGTON,17,NJ,34027
573,7083,NEW JERSEY,MONMOUTH,53,NJ,34013
574,7088,NEW JERSEY,MONMOUTH,53,NJ,34013
575,7095,NEW JERSEY,CAPE MAY,56,NJ,34023
576,7101,NEW JERSEY,MONMOUTH,53,NJ,34013
577,7102,NEW JERSEY,MONMOUTH,53,NJ,34013
578,7103,NEW JERSEY,MONMOUTH,53,NJ,34013
579,7104,NEW JERSEY,MONMOUTH,53,NJ,34013
580,7105,NEW JERSEY,MONMOUTH,53,NJ,34013
581,7106,NEW JERSEY,MONMOUTH,53,NJ,34013
582,7107,NEW JERSEY,MONMOUTH,53,NJ,34013
583,7108,NEW JERSEY,MONMOUTH,53,NJ,34013
584,7109,NEW JERSEY,MONMOUTH,53,NJ,34013
585,7110,NEW JERSEY,MONMOUTH,53,NJ,34013
586,7111,NEW JERSEY,MONMOUTH,53,NJ,34013
587,7112,NEW JERSEY,MONMOUTH,53,NJ,34013
588,7114,NEW JERSEY,MONMOUTH,53,NJ,34013
589,7175,NEW JERSEY,MONMOUTH,53,NJ,34013
590,7201,NEW JERSEY,MONMOUTH,53,NJ,34013
591,7205,NEW JERSEY,MONMOUTH,53,NJ,34013
592,7403,NEW JERSEY,BURLINGTON,17,NJ,34027
593,7405,NEW JERSEY,BURLINGTON,17,NJ,34027
594,7435,NEW JERSEY,BURLINGTON,17,NJ,34027
595,7438,NEW JERSEY,BURLINGTON,17,NJ,34027
596,7440,NEW JERSEY,BURLINGTON,17,NJ,34027
597,7444,NEW JERSEY,BURLINGTON,17,NJ,34027
598,7457,NEW JERSEY,BURLINGTON,17,NJ,34027
599,7460,NEW JERSEY,BURLINGTON,17,NJ,34027
600,7701,NEW JERSEY,ATLANTIC,102,NJ,34025
601,7702,NEW JERSEY,ATLANTIC,102,NJ,34025
602,7703,NEW JERSEY,ATLANTIC,102,NJ,34025
603,7704,NEW JERSEY,ATLANTIC,102,NJ,34025
604,7710,NEW JERSEY,ATLANTIC,102,NJ,34025
605,7711,NEW JERSEY,ATLANTIC,102,NJ,34025
606,7712,NEW JERSEY,ATLANTIC,102,NJ,34025
607,7716,NEW JERSEY,ATLANTIC,102,NJ,34025
608,7717,NEW JERSEY,ATLANTIC,102,NJ,34025
609,7718,NEW JERSEY,ATLANTIC,102,NJ,34025
610,7719,NEW JERSEY,ATLANTIC,102,NJ,34025
611,7720,NEW JERSEY,ATLANTIC,102,NJ,34025
612,7721,NEW JERSEY,ATLANTIC,102,NJ,34025
613,7722,NEW JERSEY,ATLANTIC,102,NJ,34025
614,7723,NEW JERSEY,ATLANTIC,102,NJ,34025
615,7724,NEW JERSEY,ATLANTIC,102,NJ,34025
616,7726,NEW JERSEY,ATLANTIC,102,NJ,34025
617,7727,NEW JERSEY,ATLANTIC,102,NJ,34025
618,7728,NEW JERSEY,ATLANTIC,102,NJ,34025
619,7730,NEW JERSEY,ATLANTIC,102,NJ,34025
620,7731,NEW JERSEY,ATLANTIC,102,NJ,34025
621,7732,NEW JERSEY,ATLANTIC,102,NJ,34025
622,7733,NEW JERSEY,ATLANTIC,102,NJ,34025
623,7734,NEW JERSEY,ATLANTIC,102,NJ,34025
624,7735,NEW JERSEY,ATLANTIC,102,NJ,34025
625,7737,NEW JERSEY,ATLANTIC,102,NJ,34025
626,7738,NEW JERSEY,ATLANTIC,102,NJ,34025
627,7739,NEW JERSEY,ATLANTIC,102,NJ,34025
628,7740,NEW JERSEY,ATLANTIC,102,NJ,34025
629,7746,NEW JERSEY,ATLANTIC,102,NJ,34025
630,7747,NEW JERSEY,ATLANTIC,102,NJ,34025
631,7748,NEW JERSEY,ATLANTIC,102,NJ,34025
632,7750,NEW JERSEY,ATLANTIC,102,NJ,34025
633,7751,NEW JERSEY,ATLANTIC,102,NJ,34025
634,7752,NEW JERSEY,ATLANTIC,102,NJ,34025
635,7753,NEW JERSEY,ATLANTIC,102,NJ,34025
636,7754,NEW JERSEY,ATLANTIC,102,NJ,34025
637,7755,NEW JERSEY,ATLANTIC,102,NJ,34025
638,7756,NEW JERSEY,ATLANTIC,102,NJ,34025
639,7757,NEW JERSEY,ATLANTIC,102,NJ,34025
640,7758,NEW JERSEY,ATLANTIC,102,NJ,34025
641,7760,NEW JERSEY,ATLANTIC,102,NJ,34025
642,7762,NEW JERSEY,ATLANTIC,102,NJ,34025
643,7763,NEW JERSEY,ATLANTIC,102,NJ,34025
644,7764,NEW JERSEY,ATLANTIC,102,NJ,34025
645,7765,NEW JERSEY,ATLANTIC,102,NJ,34025
646,7799,NEW JERSEY,ATLANTIC,102,NJ,34025
647,7801,NEW JERSEY,BURLINGTON,17,NJ,34027
648,7802,NEW JERSEY,BURLINGTON,17,NJ,34027
649,7803,NEW JERSEY,BURLINGTON,17,NJ,34027
650,7806,NEW JERSEY,BURLINGTON,17,NJ,34027
651,7828,NEW JERSEY,BURLINGTON,17,NJ,34027
652,7830,NEW JERSEY,BURLINGTON,25,NJ,34019
653,7831,NEW JERSEY,BURLINGTON,25,NJ,34019
654,7834,NEW JERSEY,BURLINGTON,17,NJ,34027
655,7836,NEW JERSEY,BURLINGTON,17,NJ,34027
656,7840,NEW JERSEY,BURLINGTON,17,NJ,34027
657,7842,NEW JERSEY,BURLINGTON,17,NJ,34027
658,7845,NEW JERSEY,BURLINGTON,17,NJ,34027
659,7847,NEW JERSEY,BURLINGTON,17,NJ,34027
660,7849,NEW JERSEY,BURLINGTON,17,NJ,34027
661,7850,NEW JERSEY,BURLINGTON,17,NJ,34027
662,7852,NEW JERSEY,BURLINGTON,17,NJ,34027
663,7853,NEW JERSEY,BURLINGTON,17,NJ,34027
664,7856,NEW JERSEY,BURLINGTON,17,NJ,34027
665,7857,NEW JERSEY,BURLINGTON,17,NJ,34027
666,7865,NEW JERSEY,BURLINGTON,25,NJ,34019
667,7866,NEW JERSEY,BURLINGTON,17,NJ,34027
668,7869,NEW JERSEY,BURLINGTON,17,NJ,34027
669,7870,NEW JERSEY,BURLINGTON,17,NJ,34027
670,7876,NEW JERSEY,BURLINGTON,17,NJ,34027
671,7878,NEW JERSEY,BURLINGTON,17,NJ,34027
672,7882,NEW JERSEY,BURLINGTON,25,NJ,34019
673,7885,NEW JERSEY,BURLINGTON,17,NJ,34027
674,7920,NEW JERSEY,MIDDLESEX,40,NJ,34035
675,7921,NEW JERSEY,MIDDLESEX,40,NJ,34035
676,7922,NEW JERSEY,MIDDLESEX,40,NJ,34035
677,7924,NEW JERSEY,MIDDLESEX,40,NJ,34035
678,7926,NEW JERSEY,BURLINGTON,17,NJ,34027
679,7927,NEW JERSEY,BURLINGTON,17,NJ,34027
680,7928,NEW JERSEY,BURLINGTON,17,NJ,34027
681,7930,NEW JERSEY,BURLINGTON,17,NJ,34027
682,7931,NEW JERSEY,MIDDLESEX,40,NJ,34035
683,7932,NEW JERSEY,BURLINGTON,17,NJ,34027
684,7933,NEW JERSEY,BURLINGTON,17,NJ,34027
685,7934,NEW JERSEY,MIDDLESEX,40,NJ,34035
686,7935,NEW JERSEY,BURLINGTON,17,NJ,34027
687,7936,NEW JERSEY,BURLINGTON,17,NJ,34027
688,7938,NEW JERSEY,MIDDLESEX,40,NJ,34035
689,7939,NEW JERSEY,MIDDLESEX,40,NJ,34035
690,7940,NEW JERSEY,BURLINGTON,17,NJ,34027
691,7945,NEW JERSEY,BURLINGTON,17,NJ,34027
692,7946,NEW JERSEY,BURLINGTON,17,NJ,34027
693,7950,NEW JERSEY,BURLINGTON,17,NJ,34027
694,7960,NEW JERSEY,BURLINGTON,17,NJ,34027
695,7961,NEW JERSEY,BURLINGTON,17,NJ,34027
696,7962,NEW JERSEY,BURLINGTON,17,NJ,34027
697,7963,NEW JERSEY,BURLINGTON,17,NJ,34027
698,7970,NEW JERSEY,BURLINGTON,17,NJ,34027
699,7976,NEW JERSEY,BURLINGTON,17,NJ,34027
700,7977,NEW JERSEY,MIDDLESEX,40,NJ,34035
701,7978,NEW JERSEY,MIDDLESEX,40,NJ,34035
702,7979,NEW JERSEY,BURLINGTON,25,NJ,34019
703,7980,NEW JERSEY,BURLINGTON,17,NJ,34027
704,7981,NEW JERSEY,BURLINGTON,17,NJ,34027
705,8004,NEW JERSEY,BURLINGTON,4,NJ,34005
706,8010,NEW JERSEY,BURLINGTON,4,NJ,34005
707,8011,NEW JERSEY,BURLINGTON,4,NJ,34005
708,8015,NEW JERSEY,BURLINGTON,4,NJ,34005
709,8016,NEW JERSEY,BURLINGTON,4,NJ,34005
710,8019,NEW JERSEY,BURLINGTON,4,NJ,34005
711,8022,NEW JERSEY,BURLINGTON,4,NJ,34005
712,8036,NEW JERSEY,BURLINGTON,4,NJ,34005
713,8041,NEW JERSEY,BURLINGTON,4,NJ,34005
714,8042,NEW JERSEY,BURLINGTON,4,NJ,34005
715,8043,NEW JERSEY,BURLINGTON,4,NJ,34005
716,8046,NEW JERSEY,BURLINGTON,4,NJ,34005
717,8048,NEW JERSEY,BURLINGTON,4,NJ,34005
718,8052,NEW JERSEY,BURLINGTON,4,NJ,34005
719,8053,NEW JERSEY,BURLINGTON,4,NJ,34005
720,8054,NEW JERSEY,BURLINGTON,4,NJ,34005
721,8055,NEW JERSEY,BURLINGTON,4,NJ,34005
722,8057,NEW JERSEY,BURLINGTON,4,NJ,34005
723,8060,NEW JERSEY,BURLINGTON,4,NJ,34005
724,8064,NEW JERSEY,BURLINGTON,4,NJ,34005
725,8065,NEW JERSEY,BURLINGTON,4,NJ,34005
726,8068,NEW JERSEY,BURLINGTON,4,NJ,34005
727,8073,NEW JERSEY,BURLINGTON,4,NJ,34005
728,8075,NEW JERSEY,BURLINGTON,4,NJ,34005
729,8077,NEW JERSEY,BURLINGTON,4,NJ,34005
730,8087,NEW JERSEY,BURLINGTON,4,NJ,34005
731,8088,NEW JERSEY,BURLINGTON,4,NJ,34005
732,8091,NEW JERSEY,BURLINGTON,4,NJ,34005
733,8110,NEW JERSEY,BURLINGTON,4,NJ,34005
734,8215,NEW JERSEY,BURLINGTON,4,NJ,34005
735,8224,NEW JERSEY,BURLINGTON,4,NJ,34005
736,8501,NEW JERSEY,ATLANTIC,102,NJ,34025
737,8502,NEW JERSEY,MIDDLESEX,40,NJ,34035
738,8504,NEW JERSEY,MIDDLESEX,40,NJ,34035
739,8505,NEW JERSEY,BURLINGTON,4,NJ,34005
740,8510,NEW JERSEY,ATLANTIC,102,NJ,34025
741,8511,NEW JERSEY,BURLINGTON,4,NJ,34005
742,8512,NEW JERSEY,CAPE MAY,56,NJ,34023
743,8514,NEW JERSEY,ATLANTIC,102,NJ,34025
744,8515,NEW JERSEY,BURLINGTON,4,NJ,34005
745,8518,NEW JERSEY,BURLINGTON,4,NJ,34005
746,8520,NEW JERSEY,ATLANTIC,102,NJ,34025
747,8525,NEW JERSEY,MIDDLESEX,40,NJ,34035
748,8527,NEW JERSEY,ATLANTIC,102,NJ,34025
749,8528,NEW JERSEY,CAPE MAY,56,NJ,34023
750,8530,NEW JERSEY,BURLINGTON,25,NJ,34019
751,8535,NEW JERSEY,ATLANTIC,102,NJ,34025
752,8536,NEW JERSEY,CAPE MAY,56,NJ,34023
753,8540,NEW JERSEY,CAPE MAY,56,NJ,34023
754,8551,NEW JERSEY,BURLINGTON,25,NJ,34019
755,8553,NEW JERSEY,MIDDLESEX,40,NJ,34035
756,8554,NEW JERSEY,BURLINGTON,4,NJ,34005
757,8555,NEW JERSEY,ATLANTIC,102,NJ,34025
758,8556,NEW JERSEY,BURLINGTON,25,NJ,34019
759,8557,NEW JERSEY,BURLINGTON,25,NJ,34019
760,8558,NEW JERSEY,BURLINGTON,25,NJ,34019
761,8559,NEW JERSEY,BURLINGTON,25,NJ,34019
762,8560,NEW JERSEY,BURLINGTON,25,NJ,34019
763,8562,NEW JERSEY,ATLANTIC,102,NJ,34025
764,8620,NEW JERSEY,ATLANTIC,102,NJ,34025
765,8640,NEW JERSEY,BURLINGTON,4,NJ,34005
766,8641,NEW JERSEY,BURLINGTON,4,NJ,34005
767,8691,NEW JERSEY,ATLANTIC,102,NJ,34025
768,8720,NEW JERSEY,ATLANTIC,102,NJ,34025
769,8724,NEW JERSEY,ATLANTIC,102,NJ,34025
770,8730,NEW JERSEY,ATLANTIC,102,NJ,34025
771,8736,NEW JERSEY,ATLANTIC,102,NJ,34025
772,8750,NEW JERSEY,ATLANTIC,102,NJ,34025
773,8801,NEW JERSEY,BURLINGTON,25,NJ,34019
774,8802,NEW JERSEY,BURLINGTON,25,NJ,34019
775,8803,NEW JERSEY,BURLINGTON,25,NJ,34019
776,8804,NEW JERSEY,BURLINGTON,25,NJ,34019
777,8805,NEW JERSEY,CAPE MAY,56,NJ,34023
778,8807,NEW JERSEY,MIDDLESEX,40,NJ,34035
779,8809,NEW JERSEY,BURLINGTON,25,NJ,34019
780,8810,NEW JERSEY,CAPE MAY,56,NJ,34023
781,8812,NEW JERSEY,CAPE MAY,56,NJ,34023
782,8816,NEW JERSEY,CAPE MAY,56,NJ,34023
783,8817,NEW JERSEY,CAPE MAY,56,NJ,34023
784,8818,NEW JERSEY,CAPE MAY,56,NJ,34023
785,8820,NEW JERSEY,CAPE MAY,56,NJ,34023
786,8821,NEW JERSEY,MIDDLESEX,40,NJ,34035
787,8822,NEW JERSEY,MIDDLESEX,40,NJ,34035
788,8823,NEW JERSEY,CAPE MAY,56,NJ,34023
789,8824,NEW JERSEY,CAPE MAY,56,NJ,34023
790,8825,NEW JERSEY,BURLINGTON,25,NJ,34019
791,8826,NEW JERSEY,BURLINGTON,25,NJ,34019
792,8827,NEW JERSEY,BURLINGTON,25,NJ,34019
793,8828,NEW JERSEY,CAPE MAY,56,NJ,34023
794,8829,NEW JERSEY,BURLINGTON,25,NJ,34019
795,8830,NEW JERSEY,CAPE MAY,56,NJ,34023
796,8831,NEW JERSEY,CAPE MAY,56,NJ,34023
797,8832,NEW JERSEY,CAPE MAY,56,NJ,34023
798,8833,NEW JERSEY,BURLINGTON,25,NJ,34019
799,8835,NEW JERSEY,MIDDLESEX,40,NJ,34035
800,8836,NEW JERSEY,MIDDLESEX,40,NJ,34035
801,8837,NEW JERSEY,CAPE MAY,56,NJ,34023
802,8840,NEW JERSEY,CAPE MAY,56,NJ,34023
803,8844,NEW JERSEY,MIDDLESEX,40,NJ,34035
804,8846,NEW JERSEY,CAPE MAY,56,NJ,34023
805,8848,NEW JERSEY,BURLINGTON,25,NJ,34019
806,8850,NEW JERSEY,CAPE MAY,56,NJ,34023
807,8852,NEW JERSEY,CAPE MAY,56,NJ,34023
808,8853,NEW JERSEY,MIDDLESEX,40,NJ,34035
809,8854,NEW JERSEY,CAPE MAY,56,NJ,34023
810,8855,NEW JERSEY,CAPE MAY,56,NJ,34023
811,8857,NEW JERSEY,CAPE MAY,56,NJ,34023
812,8858,NEW JERSEY,BURLINGTON,25,NJ,34019
813,8859,NEW JERSEY,CAPE MAY,56,NJ,34023
814,8861,NEW JERSEY,CAPE MAY,56,NJ,34023
815,8862,NEW JERSEY,CAPE MAY,56,NJ,34023
816,8863,NEW JERSEY,CAPE MAY,56,NJ,34023
817,8867,NEW JERSEY,BURLINGTON,25,NJ,34019
818,8868,NEW JERSEY,BURLINGTON,25,NJ,34019
819,8869,NEW JERSEY,MIDDLESEX,40,NJ,34035
820,8870,NEW JERSEY,BURLINGTON,25,NJ,34019
821,8872,NEW JERSEY,CAPE MAY,56,NJ,34023
822,8873,NEW JERSEY,MIDDLESEX,40,NJ,34035
823,8875,NEW JERSEY,MIDDLESEX,40,NJ,34035
824,8876,NEW JERSEY,MIDDLESEX,40,NJ,34035
825,8879,NEW JERSEY,CAPE MAY,56,NJ,34023
826,8880,NEW JERSEY,MIDDLESEX,40,NJ,34035
827,8882,NEW JERSEY,CAPE MAY,56,NJ,34023
828,8884,NEW JERSEY,CAPE MAY,56,NJ,34023
829,8885,NEW JERSEY,BURLINGTON,25,NJ,34019
830,8887,NEW JERSEY,BURLINGTON,25,NJ,34019
831,8888,NEW JERSEY,BURLINGTON,25,NJ,34019
832,8889,NEW JERSEY,MIDDLESEX,40,NJ,34035
833,8899,NEW JERSEY,CAPE MAY,56,NJ,34023
834,8901,NEW JERSEY,MIDDLESEX,40,NJ,34035
835,8902,NEW JERSEY,CAPE MAY,56,NJ,34023
836,8903,NEW JERSEY,CAPE MAY,56,NJ,34023
837,8904,NEW JERSEY,CAPE MAY,56,NJ,34023
838,8906,NEW JERSEY,CAPE MAY,56,NJ,34023
839,8933,NEW JERSEY,CAPE MAY,56,NJ,34023
840,10451,NEW YORK,CAYUGA,7,NY,36005
841,10452,NEW YORK,CAYUGA,7,NY,36005
842,10453,NEW YORK,CAYUGA,7,NY,36005
843,10454,NEW YORK,CAYUGA,7,NY,36005
844,10455,NEW YORK,CAYUGA,7,NY,36005
845,10456,NEW YORK,CAYUGA,7,NY,36005
846,10457,NEW YORK,CAYUGA,7,NY,36005
847,10458,NEW YORK,CAYUGA,7,NY,36005
848,10459,NEW YORK,CAYUGA,7,NY,36005
849,10460,NEW YORK,CAYUGA,7,NY,36005
850,10461,NEW YORK,CAYUGA,7,NY,36005
851,10462,NEW YORK,CAYUGA,7,NY,36005
852,10463,NEW YORK,CAYUGA,7,NY,36005
853,10464,NEW YORK,CAYUGA,7,NY,36005
854,10465,NEW YORK,CAYUGA,7,NY,36005
855,10466,NEW YORK,CAYUGA,7,NY,36005
856,10467,NEW YORK,CAYUGA,7,NY,36005
857,10468,NEW YORK,CAYUGA,7,NY,36005
858,10469,NEW YORK,CAYUGA,7,NY,36005
859,10470,NEW YORK,CAYUGA,7,NY,36005
860,10471,NEW YORK,CAYUGA,7,NY,36005
861,10472,NEW YORK,CAYUGA,7,NY,36005
862,10473,NEW YORK,CAYUGA,7,NY,36005
863,10474,NEW YORK,CAYUGA,7,NY,36005
864,10475,NEW YORK,CAYUGA,7,NY,36005
865,10505,NEW YORK,SUFFOLK,19,NY,36079
866,10509,NEW YORK,SUFFOLK,19,NY,36079
867,10512,NEW YORK,SUFFOLK,19,NY,36079
868,10516,NEW YORK,SUFFOLK,19,NY,36079
869,10524,NEW YORK,SUFFOLK,19,NY,36079
870,10537,NEW YORK,SUFFOLK,19,NY,36079
871,10541,NEW YORK,SUFFOLK,19,NY,36079
872,10542,NEW YORK,SUFFOLK,19,NY,36079
873,10550,NEW YORK,CAYUGA,7,NY,36005
874,10567,NEW YORK,SUFFOLK,19,NY,36079
875,10579,NEW YORK,SUFFOLK,19,NY,36079
876,10588,NEW YORK,SUFFOLK,19,NY,36079
877,10704,NEW YORK,CAYUGA,7,NY,36005
878,10705,NEW YORK,CAYUGA,7,NY,36005
879,10803,NEW YORK,CAYUGA,7,NY,36005
880,10910,NEW YORK,WESTCHESTER,15,NY,36071
881,10912,NEW YORK,WESTCHESTER,15,NY,36071
882,10914,NEW YORK,WESTCHESTER,15,NY,36071
883,10915,NEW YORK,WESTCHESTER,15,NY,36071
884,10916,NEW YORK,WESTCHESTER,15,NY,36071
885,10917,NEW YORK,WESTCHESTER,15,NY,36071
886,10918,NEW YORK,WESTCHESTER,15,NY,36071
887,10919,NEW YORK,WESTCHESTER,15,NY,36071
888,10921,NEW YORK,WESTCHESTER,15,NY,36071
889,10922,NEW YORK,WESTCHESTER,15,NY,36071
890,10924,NEW YORK,WESTCHESTER,15,NY,36071
891,10925,NEW YORK,WESTCHESTER,15,NY,36071
892,10926,NEW YORK,WESTCHESTER,15,NY,36071
893,10928,NEW YORK,WESTCHESTER,15,NY,36071
894,10930,NEW YORK,WESTCHESTER,15,NY,36071
895,10932,NEW YORK,WESTCHESTER,15,NY,36071
896,10933,NEW YORK,WESTCHESTER,15,NY,36071
897,10940,NEW YORK,WESTCHESTER,15,NY,36071
898,10941,NEW YORK,WESTCHESTER,15,NY,36071
899,10949,NEW YORK,WESTCHESTER,15,NY,36071
900,10950,NEW YORK,WESTCHESTER,15,NY,36071
901,10953,NEW YORK,WESTCHESTER,15,NY,36071
902,10958,NEW YORK,WESTCHESTER,15,NY,36071
903,10959,NEW YORK,WESTCHESTER,15,NY,36071
904,10963,NEW YORK,WESTCHESTER,15,NY,36071
905,10969,NEW YORK,WESTCHESTER,15,NY,36071
906,10973,NEW YORK,WESTCHESTER,15,NY,36071
907,10975,NEW YORK,WESTCHESTER,15,NY,36071
908,10979,NEW YORK,WESTCHESTER,15,NY,36071
909,10981,NEW YORK,WESTCHESTER,15,NY,36071
910,10985,NEW YORK,WESTCHESTER,15,NY,36071
911,10987,NEW YORK,WESTCHESTER,15,NY,36071
912,10988,NEW YORK,WESTCHESTER,15,NY,36071
913,10990,NEW YORK,WESTCHESTER,15,NY,36071
914,10992,NEW YORK,WESTCHESTER,15,NY,36071
915,10996,NEW YORK,WESTCHESTER,15,NY,36071
916,10998,NEW YORK,WESTCHESTER,15,NY,36071
917,11001,NEW YORK,SUFFOLK,35,NY,36081
918,11004,NEW YORK,SUFFOLK,35,NY,36081
919,11005,NEW YORK,SUFFOLK,35,NY,36081
920,11020,NEW YORK,SUFFOLK,35,NY,36081
921,11040,NEW YORK,SUFFOLK,35,NY,36081
922,11101,NEW YORK,SUFFOLK,35,NY,36081
923,11102,NEW YORK,SUFFOLK,35,NY,36081
924,11103,NEW YORK,SUFFOLK,35,NY,36081
925,11104,NEW YORK,SUFFOLK,35,NY,36081
926,11105,NEW YORK,SUFFOLK,35,NY,36081
927,11106,NEW YORK,SUFFOLK,35,NY,36081
928,11109,NEW YORK,SUFFOLK,35,NY,36081
929,11208,NEW YORK,SUFFOLK,35,NY,36081
930,11237,NEW YORK,SUFFOLK,35,NY,36081
931,11351,NEW YORK,SUFFOLK,35,NY,36081
932,11352,NEW YORK,SUFFOLK,35,NY,36081
933,11354,NEW YORK,SUFFOLK,35,NY,36081
934,11355,NEW YORK,SUFFOLK,35,NY,36081
935,11356,NEW YORK,SUFFOLK,35,NY,36081
936,11357,NEW YORK,SUFFOLK,35,NY,36081
937,11358,NEW YORK,SUFFOLK,35,NY,36081
938,11359,NEW YORK,SUFFOLK,35,NY,36081
939,11360,NEW YORK,SUFFOLK,35,NY,36081
940,11361,NEW YORK,SUFFOLK,35,NY,36081
941,11362,NEW YORK,SUFFOLK,35,NY,36081
942,11363,NEW YORK,SUFFOLK,35,NY,36081
943,11364,NEW YORK,SUFFOLK,35,NY,36081
944,11365,NEW YORK,SUFFOLK,35,NY,36081
945,11366,NEW YORK,SUFFOLK,35,NY,36081
946,11367,NEW YORK,SUFFOLK,35,NY,36081
947,11368,NEW YORK,SUFFOLK,35,NY,36081
948,11369,NEW YORK,SUFFOLK,35,NY,36081
949,11370,NEW YORK,SUFFOLK,35,NY,36081
950,11371,NEW YORK,SUFFOLK,35,NY,36081
951,11372,NEW YORK,SUFFOLK,35,NY,36081
952,11373,NEW YORK,SUFFOLK,35,NY,36081
953,11374,NEW YORK,SUFFOLK,35,NY,36081
954,11375,NEW YORK,SUFFOLK,35,NY,36081
955,11377,NEW YORK,SUFFOLK,35,NY,36081
956,11378,NEW YORK,SUFFOLK,35,NY,36081
957,11379,NEW YORK,SUFFOLK,35,NY,36081
958,11380,NEW YORK,SUFFOLK,35,NY,36081
959,11381,NEW YORK,SUFFOLK,35,NY,36081
960,11385,NEW YORK,SUFFOLK,35,NY,36081
961,11386,NEW YORK,SUFFOLK,35,NY,36081
962,11405,NEW YORK,SUFFOLK,35,NY,36081
963,11411,NEW YORK,SUFFOLK,35,NY,36081
964,11412,NEW YORK,SUFFOLK,35,NY,36081
965,11413,NEW YORK,SUFFOLK,35,NY,36081
966,11414,NEW YORK,SUFFOLK,35,NY,36081
967,11415,NEW YORK,SUFFOLK,35,NY,36081
968,11416,NEW YORK,SUFFOLK,35,NY,36081
969,11417,NEW YORK,SUFFOLK,35,NY,36081
970,11418,NEW YORK,SUFFOLK,35,NY,36081
971,11419,NEW YORK,SUFFOLK,35,NY,36081
972,11420,NEW YORK,SUFFOLK,35,NY,36081
973,11421,NEW YORK,SUFFOLK,35,NY,36081
974,11422,NEW YORK,SUFFOLK,35,NY,36081
975,11423,NEW YORK,SUFFOLK,35,NY,36081
976,11424,NEW YORK,SUFFOLK,35,NY,36081
977,11425,NEW YORK,SUFFOLK,35,NY,36081
978,11426,NEW YORK,SUFFOLK,35,NY,36081
979,11427,NEW YORK,SUFFOLK,35,NY,36081
980,11428,NEW YORK,SUFFOLK,35,NY,36081
981,11429,NEW YORK,SUFFOLK,35,NY,36081
982,11430,NEW YORK,SUFFOLK,35,NY,36081
983,11431,NEW YORK,SUFFOLK,35,NY,36081
984,11432,NEW YORK,SUFFOLK,35,NY,36081
985,11433,NEW YORK,SUFFOLK,35,NY,36081
986,11434,NEW YORK,SUFFOLK,35,NY,36081
987,11435,NEW YORK,SUFFOLK,35,NY,36081
988,11436,NEW YORK,SUFFOLK,35,NY,36081
989,11439,NEW YORK,SUFFOLK,35,NY,36081
990,11451,NEW YORK,SUFFOLK,35,NY,36081
991,11499,NEW YORK,SUFFOLK,35,NY,36081
992,11559,NEW YORK,SUFFOLK,35,NY,36081
993,11580,NEW YORK,SUFFOLK,35,NY,36081
994,11691,NEW YORK,SUFFOLK,35,NY,36081
995,11692,NEW YORK,SUFFOLK,35,NY,36081
996,11693,NEW YORK,SUFFOLK,35,NY,36081
997,11694,NEW YORK,SUFFOLK,35,NY,36081
998,11697,NEW YORK,SUFFOLK,35,NY,36081
999,11701,NEW YORK,SUFFOLK,2,NY,36103
1000,11702,NEW YORK,SUFFOLK,2,NY,36103
1001,11703,NEW YORK,SUFFOLK,2,NY,36103
1002,11704,NEW YORK,SUFFOLK,2,NY,36103
1003,11705,NEW YORK,SUFFOLK,2,NY,36103
1004,11706,NEW YORK,SUFFOLK,2,NY,36103
1005,11713,NEW YORK,SUFFOLK,2,NY,36103
1006,11715,NEW YORK,SUFFOLK,2,NY,36103
1007,11716,NEW YORK,SUFFOLK,2,NY,36103
1008,11717,NEW YORK,SUFFOLK,2,NY,36103
1009,11718,NEW YORK,SUFFOLK,2,NY,36103
1010,11719,NEW YORK,SUFFOLK,2,NY,36103
1011,11720,NEW YORK,SUFFOLK,2,NY,36103
1012,11721,NEW YORK,SUFFOLK,2,NY,36103
1013,11722,NEW YORK,SUFFOLK,2,NY,36103
1014,11724,NEW YORK,SUFFOLK,2,NY,36103
1015,11725,NEW YORK,SUFFOLK,2,NY,36103
1016,11726,NEW YORK,SUFFOLK,2,NY,36103
1017,11727,NEW YORK,SUFFOLK,2,NY,36103
1018,11729,NEW YORK,SUFFOLK,2,NY,36103
1019,11730,NEW YORK,SUFFOLK,2,NY,36103
1020,11731,NEW YORK,SUFFOLK,2,NY,36103
1021,11733,NEW YORK,SUFFOLK,2,NY,36103
1022,11735,NEW YORK,SUFFOLK,2,NY,36103
1023,11738,NEW YORK,SUFFOLK,2,NY,36103
1024,11739,NEW YORK,SUFFOLK,2,NY,36103
1025,11740,NEW YORK,SUFFOLK,2,NY,36103
1026,11741,NEW YORK,SUFFOLK,2,NY,36103
1027,11742,NEW YORK,SUFFOLK,2,NY,36103
1028,11743,NEW YORK,SUFFOLK,2,NY,36103
1029,11746,NEW YORK,SUFFOLK,2,NY,36103
1030,11747,NEW YORK,SUFFOLK,2,NY,36103
1031,11749,NEW YORK,SUFFOLK,2,NY,36103
1032,11751,NEW YORK,SUFFOLK,2,NY,36103
1033,11752,NEW YORK,SUFFOLK,2,NY,36103
1034,11754,NEW YORK,SUFFOLK,2,NY,36103
1035,11755,NEW YORK,SUFFOLK,2,NY,36103
1036,11757,NEW YORK,SUFFOLK,2,NY,36103
1037,11758,NEW YORK,SUFFOLK,2,NY,36103
1038,11763,NEW YORK,SUFFOLK,2,NY,36103
1039,11764,NEW YORK,SUFFOLK,2,NY,36103
1040,11766,NEW YORK,SUFFOLK,2,NY,36103
1041,11767,NEW YORK,SUFFOLK,2,NY,36103
1042,11768,NEW YORK,SUFFOLK,2,NY,36103
1043,11769,NEW YORK,SUFFOLK,2,NY,36103
1044,11770,NEW YORK,SUFFOLK,2,NY,36103
1045,11772,NEW YORK,SUFFOLK,2,NY,36103
1046,11776,NEW YORK,SUFFOLK,2,NY,36103
1047,11777,NEW YORK,SUFFOLK,2,NY,36103
1048,11778,NEW YORK,SUFFOLK,2,NY,36103
1049,11779,NEW YORK,SUFFOLK,2,NY,36103
1050,11780,NEW YORK,SUFFOLK,2,NY,36103
1051,11782,NEW YORK,SUFFOLK,2,NY,36103
1052,11784,NEW YORK,SUFFOLK,2,NY,36103
1053,11786,NEW YORK,SUFFOLK,2,NY,36103
1054,11787,NEW YORK,SUFFOLK,2,NY,36103
1055,11788,NEW YORK,SUFFOLK,2,NY,36103
1056,11789,NEW YORK,SUFFOLK,2,NY,36103
1057,11790,NEW YORK,SUFFOLK,2,NY,36103
1058,11792,NEW YORK,SUFFOLK,2,NY,36103
1059,11794,NEW YORK,SUFFOLK,2,NY,36103
1060,11795,NEW YORK,SUFFOLK,2,NY,36103
1061,11796,NEW YORK,SUFFOLK,2,NY,36103
1062,11798,NEW YORK,SUFFOLK,2,NY,36103
1063,11901,NEW YORK,SUFFOLK,2,NY,36103
1064,11930,NEW YORK,SUFFOLK,2,NY,36103
1065,11931,NEW YORK,SUFFOLK,2,NY,36103
1066,11932,NEW YORK,SUFFOLK,2,NY,36103
1067,11933,NEW YORK,SUFFOLK,2,NY,36103
1068,11934,NEW YORK,SUFFOLK,2,NY,36103
1069,11935,NEW YORK,SUFFOLK,2,NY,36103
1070,11937,NEW YORK,SUFFOLK,2,NY,36103
1071,11939,NEW YORK,SUFFOLK,2,NY,36103
1072,11940,NEW YORK,SUFFOLK,2,NY,36103
1073,11941,NEW YORK,SUFFOLK,2,NY,36103
1074,11942,NEW YORK,SUFFOLK,2,NY,36103
1075,11944,NEW YORK,SUFFOLK,2,NY,36103
1076,11946,NEW YORK,SUFFOLK,2,NY,36103
1077,11947,NEW YORK,SUFFOLK,2,NY,36103
1078,11948,NEW YORK,SUFFOLK,2,NY,36103
1079,11949,NEW YORK,SUFFOLK,2,NY,36103
1080,11950,NEW YORK,SUFFOLK,2,NY,36103
1081,11951,NEW YORK,SUFFOLK,2,NY,36103
1082,11952,NEW YORK,SUFFOLK,2,NY,36103
1083,11953,NEW YORK,SUFFOLK,2,NY,36103
1084,11954,NEW YORK,SUFFOLK,2,NY,36103
1085,11955,NEW YORK,SUFFOLK,2,NY,36103
1086,11956,NEW YORK,SUFFOLK,2,NY,36103
1087,11957,NEW YORK,SUFFOLK,2,NY,36103
1088,11958,NEW YORK,SUFFOLK,2,NY,36103
1089,11959,NEW YORK,SUFFOLK,2,NY,36103
1090,11960,NEW YORK,SUFFOLK,2,NY,36103
1091,11961,NEW YORK,SUFFOLK,2,NY,36103
1092,11962,NEW YORK,SUFFOLK,2,NY,36103
1093,11963,NEW YORK,SUFFOLK,2,NY,36103
1094,11964,NEW YORK,SUFFOLK,2,NY,36103
1095,11965,NEW YORK,SUFFOLK,2,NY,36103
1096,11967,NEW YORK,SUFFOLK,2,NY,36103
1097,11968,NEW YORK,SUFFOLK,2,NY,36103
1098,11969,NEW YORK,SUFFOLK,2,NY,36103
1099,11970,NEW YORK,SUFFOLK,2,NY,36103
1100,11971,NEW YORK,SUFFOLK,2,NY,36103
1101,11972,NEW YORK,SUFFOLK,2,NY,36103
1102,11973,NEW YORK,SUFFOLK,2,NY,36103
1103,11975,NEW YORK,SUFFOLK,2,NY,36103
1104,11976,NEW YORK,SUFFOLK,2,NY,36103
1105,11977,NEW YORK,SUFFOLK,2,NY,36103
1106,11978,NEW YORK,SUFFOLK,2,NY,36103
1107,11980,NEW YORK,SUFFOLK,2,NY,36103
1108,12518,NEW YORK,WESTCHESTER,15,NY,36071
1109,12520,NEW YORK,WESTCHESTER,15,NY,36071
1110,12524,NEW YORK,SUFFOLK,19,NY,36079
1111,12531,NEW YORK,SUFFOLK,19,NY,36079
1112,12533,NEW YORK,SUFFOLK,19,NY,36079
1113,12542,NEW YORK,WESTCHESTER,15,NY,36071
1114,12543,NEW YORK,WESTCHESTER,15,NY,36071
1115,12549,NEW YORK,WESTCHESTER,15,NY,36071
1116,12550,NEW YORK,WESTCHESTER,15,NY,36071
1117,12551,NEW YORK,WESTCHESTER,15,NY,36071
1118,12552,NEW YORK,WESTCHESTER,15,NY,36071
1119,12553,NEW YORK,WESTCHESTER,15,NY,36071
1120,12555,NEW YORK,WESTCHESTER,15,NY,36071
1121,12563,NEW YORK,SUFFOLK,19,NY,36079
1122,12564,NEW YORK,SUFFOLK,19,NY,36079
1123,12566,NEW YORK,WESTCHESTER,15,NY,36071
1124,12575,NEW YORK,WESTCHESTER,15,NY,36071
1125,12577,NEW YORK,WESTCHESTER,15,NY,36071
1126,12582,NEW YORK,SUFFOLK,19,NY,36079
1127,12584,NEW YORK,WESTCHESTER,15,NY,36071
1128,12586,NEW YORK,WESTCHESTER,15,NY,36071
1129,12589,NEW YORK,WESTCHESTER,15,NY,36071
1130,12721,NEW YORK,WESTCHESTER,15,NY,36071
1131,12729,NEW YORK,WESTCHESTER,15,NY,36071
1132,12746,NEW YORK,WESTCHESTER,15,NY,36071
1133,12754,NEW YORK,WESTCHESTER,15,NY,36071
1134,12771,NEW YORK,WESTCHESTER,15,NY,36071
1135,12780,NEW YORK,WESTCHESTER,15,NY,36071
1136,12785,NEW YORK,WESTCHESTER,15,NY,36071
1137,13028,NEW YORK,KINGS,19,NY,36075
1138,13033,NEW YORK,KINGS,19,NY,36075
1139,13036,NEW YORK,KINGS,19,NY,36075
1140,13042,NEW YORK,KINGS,19,NY,36075
1141,13044,NEW YORK,KINGS,19,NY,36075
1142,13069,NEW YORK,KINGS,19,NY,36075
1143,13074,NEW YORK,KINGS,19,NY,36075
1144,13076,NEW YORK,KINGS,19,NY,36075
1145,13083,NEW YORK,KINGS,19,NY,36075
1146,13093,NEW YORK,KINGS,19,NY,36075
1147,13103,NEW YORK,KINGS,19,NY,36075
1148,13111,NEW YORK,KINGS,19,NY,36075
1149,13114,NEW YORK,KINGS,19,NY,36075
1150,13115,NEW YORK,KINGS,19,NY,36075
1151,13121,NEW YORK,KINGS,19,NY,36075
1152,13126,NEW YORK,KINGS,19,NY,36075
1153,13131,NEW YORK,KINGS,19,NY,36075
1154,13132,NEW YORK,KINGS,19,NY,36075
1155,13135,NEW YORK,KINGS,19,NY,36075
1156,13142,NEW YORK,KINGS,19,NY,36075
1157,13144,NEW YORK,KINGS,19,NY,36075
1158,13145,NEW YORK,KINGS,19,NY,36075
1159,13156,NEW YORK,KINGS,19,NY,36075
1160,13167,NEW YORK,KINGS,19,NY,36075
1161,13302,NEW YORK,KINGS,19,NY,36075
1162,13316,NEW YORK,KINGS,19,NY,36075
1163,13426,NEW YORK,KINGS,19,NY,36075
1164,13437,NEW YORK,KINGS,19,NY,36075
1165,13483,NEW YORK,KINGS,19,NY,36075
1166,13493,NEW YORK,KINGS,19,NY,36075
1167,13661,NEW YORK,KINGS,19,NY,36075
1168,14004,NEW YORK,WAYNE,7,NY,36121
1169,14009,NEW YORK,WAYNE,7,NY,36121
1170,14011,NEW YORK,WAYNE,7,NY,36121
1171,14024,NEW YORK,WAYNE,7,NY,36121
1172,14030,NEW YORK,WAYNE,7,NY,36121
1173,14037,NEW YORK,WAYNE,7,NY,36121
1174,14039,NEW YORK,WAYNE,7,NY,36121
1175,14040,NEW YORK,WAYNE,7,NY,36121
1176,14054,NEW YORK,WAYNE,7,NY,36121
1177,14066,NEW YORK,WAYNE,7,NY,36121
1178,14082,NEW YORK,WAYNE,7,NY,36121
1179,14083,NEW YORK,WAYNE,7,NY,36121
1180,14113,NEW YORK,WAYNE,7,NY,36121
1181,14130,NEW YORK,WAYNE,7,NY,36121
1182,14145,NEW YORK,WAYNE,7,NY,36121
1183,14167,NEW YORK,WAYNE,7,NY,36121
1184,14427,NEW YORK,WAYNE,7,NY,36121
1185,14481,NEW YORK,WAYNE,7,NY,36121
1186,14525,NEW YORK,WAYNE,7,NY,36121
1187,14530,NEW YORK,WAYNE,7,NY,36121
1188,14533,NEW YORK,WAYNE,7,NY,36121
1189,14536,NEW YORK,WAYNE,7,NY,36121
1190,14549,NEW YORK,WAYNE,7,NY,36121
1191,14550,NEW YORK,WAYNE,7,NY,36121
1192,14569,NEW YORK,WAYNE,7,NY,36121
1193,14591,NEW YORK,WAYNE,7,NY,36121
1194,14735,NEW YORK,WAYNE,7,NY,36121
1195,18407,PENNSYLVANIA,DELAWARE,29,PA,42115
1196,18413,PENNSYLVANIA,DELAWARE,29,PA,42115
1197,18419,PENNSYLVANIA,DELAWARE,29,PA,42115
1198,18421,PENNSYLVANIA,DELAWARE,29,PA,42115
1199,18430,PENNSYLVANIA,DELAWARE,29,PA,42115
1200,18441,PENNSYLVANIA,DELAWARE,29,PA,42115
1201,18446,PENNSYLVANIA,DELAWARE,29,PA,42115
1202,18462,PENNSYLVANIA,DELAWARE,29,PA,42115
1203,18465,PENNSYLVANIA,DELAWARE,29,PA,42115
1204,18470,PENNSYLVANIA,DELAWARE,29,PA,42115
1205,18623,PENNSYLVANIA,DELAWARE,29,PA,42115
1206,18630,PENNSYLVANIA,DELAWARE,29,PA,42115
1207,18801,PENNSYLVANIA,DELAWARE,29,PA,42115
1208,18812,PENNSYLVANIA,DELAWARE,29,PA,42115
1209,18813,PENNSYLVANIA,DELAWARE,29,PA,42115
1210,18816,PENNSYLVANIA,DELAWARE,29,PA,42115
1211,18818,PENNSYLVANIA,DELAWARE,29,PA,42115
1212,18820,PENNSYLVANIA,DELAWARE,29,PA,42115
1213,18821,PENNSYLVANIA,DELAWARE,29,PA,42115
1214,18822,PENNSYLVANIA,DELAWARE,29,PA,42115
1215,18823,PENNSYLVANIA,DELAWARE,29,PA,42115
1216,18824,PENNSYLVANIA,DELAWARE,29,PA,42115
1217,18825,PENNSYLVANIA,DELAWARE,29,PA,42115
1218,18826,PENNSYLVANIA,DELAWARE,29,PA,42115
1219,18827,PENNSYLVANIA,DELAWARE,29,PA,42115
1220,18828,PENNSYLVANIA,DELAWARE,29,PA,42115
1221,18829,PENNSYLVANIA,DELAWARE,29,PA,42115
1222,18830,PENNSYLVANIA,DELAWARE,29,PA,42115
1223,18834,PENNSYLVANIA,DELAWARE,29,PA,42115
1224,18842,PENNSYLVANIA,DELAWARE,29,PA,42115
1225,18843,PENNSYLVANIA,DELAWARE,29,PA,42115
1226,18844,PENNSYLVANIA,DELAWARE,29,PA,42115
1227,18847,PENNSYLVANIA,DELAWARE,29,PA,42115
1228,20058,MARYLAND,CAROLINE,4,MD,24031
1229,20106,VIRGINIA,GLOUCESTER,8,VA,51157
1230,20207,MARYLAND,CAROLINE,4,MD,24031
1231,20233,MARYLAND,CHARLES,6,MD,24033
1232,20389,MARYLAND,CHARLES,6,MD,24033
1233,20395,MARYLAND,CHARLES,6,MD,24033
1234,20588,MARYLAND,CHARLES,6,MD,24033
1235,20598,VIRGINIA,ALEXANDRIA CITY,2,VA,51510
1236,20599,MARYLAND,CHARLES,6,MD,24033
1237,20601,MARYLAND,ANNE ARUNDEL,47,MD,24017
1238,20602,MARYLAND,ANNE ARUNDEL,47,MD,24017
1239,20603,MARYLAND,ANNE ARUNDEL,47,MD,24017
1240,20604,MARYLAND,ANNE ARUNDEL,47,MD,24017
1241,20607,MARYLAND,ANNE ARUNDEL,47,MD,24017
1242,20608,MARYLAND,CHARLES,6,MD,24033
1243,20611,MARYLAND,ANNE ARUNDEL,47,MD,24017
1244,20612,MARYLAND,ANNE ARUNDEL,47,MD,24017
1245,20613,MARYLAND,ANNE ARUNDEL,47,MD,24017
1246,20616,MARYLAND,ANNE ARUNDEL,47,MD,24017
1247,20617,MARYLAND,ANNE ARUNDEL,47,MD,24017
1248,20622,MARYLAND,ANNE ARUNDEL,47,MD,24017
1249,20623,MARYLAND,CHARLES,6,MD,24033
1250,20625,MARYLAND,ANNE ARUNDEL,47,MD,24017
1251,20632,MARYLAND,ANNE ARUNDEL,47,MD,24017
1252,20637,MARYLAND,ANNE ARUNDEL,47,MD,24017
1253,20640,MARYLAND,ANNE ARUNDEL,47,MD,24017
1254,20643,MARYLAND,ANNE ARUNDEL,47,MD,24017
1255,20645,MARYLAND,ANNE ARUNDEL,47,MD,24017
1256,20646,MARYLAND,ANNE ARUNDEL,47,MD,24017
1257,20658,MARYLAND,ANNE ARUNDEL,47,MD,24017
1258,20659,MARYLAND,ANNE ARUNDEL,47,MD,24017
1259,20661,MARYLAND,ANNE ARUNDEL,47,MD,24017
1260,20662,MARYLAND,ANNE ARUNDEL,47,MD,24017
1261,20664,MARYLAND,ANNE ARUNDEL,47,MD,24017
1262,20675,MARYLAND,ANNE ARUNDEL,47,MD,24017
1263,20677,MARYLAND,ANNE ARUNDEL,47,MD,24017
1264,20693,MARYLAND,ANNE ARUNDEL,47,MD,24017
1265,20695,MARYLAND,ANNE ARUNDEL,47,MD,24017
1266,20701,MARYLAND,CALVERT,10,MD,24027
1267,20703,MARYLAND,CHARLES,6,MD,24033
1268,20704,MARYLAND,CHARLES,6,MD,24033
1269,20705,MARYLAND,CHARLES,6,MD,24033
1270,20706,MARYLAND,CHARLES,6,MD,24033
1271,20707,MARYLAND,CAROLINE,4,MD,24031
1272,20708,MARYLAND,CHARLES,6,MD,24033
1273,20709,MARYLAND,CHARLES,6,MD,24033
1274,20710,MARYLAND,CHARLES,6,MD,24033
1275,20712,MARYLAND,CHARLES,6,MD,24033
1276,20715,MARYLAND,CHARLES,6,MD,24033
1277,20716,MARYLAND,CHARLES,6,MD,24033
1278,20717,MARYLAND,CHARLES,6,MD,24033
1279,20718,MARYLAND,CHARLES,6,MD,24033
1280,20720,MARYLAND,CHARLES,6,MD,24033
1281,20721,MARYLAND,CHARLES,6,MD,24033
1282,20722,MARYLAND,CHARLES,6,MD,24033
1283,20723,MARYLAND,CALVERT,10,MD,24027
1284,20724,MARYLAND,CHARLES,6,MD,24033
1285,20725,MARYLAND,CHARLES,6,MD,24033
1286,20726,MARYLAND,CHARLES,6,MD,24033
1287,20731,MARYLAND,CHARLES,6,MD,24033
1288,20735,MARYLAND,CHARLES,6,MD,24033
1289,20737,MARYLAND,CHARLES,6,MD,24033
1290,20738,MARYLAND,CHARLES,6,MD,24033
1291,20740,MARYLAND,CHARLES,6,MD,24033
1292,20741,MARYLAND,CHARLES,6,MD,24033
1293,20742,MARYLAND,CHARLES,6,MD,24033
1294,20743,MARYLAND,CHARLES,6,MD,24033
1295,20744,MARYLAND,CHARLES,6,MD,24033
1296,20745,MARYLAND,CHARLES,6,MD,24033
1297,20746,MARYLAND,CHARLES,6,MD,24033
1298,20747,MARYLAND,CHARLES,6,MD,24033
1299,20748,MARYLAND,CHARLES,6,MD,24033
1300,20749,MARYLAND,CHARLES,6,MD,24033
1301,20750,MARYLAND,CHARLES,6,MD,24033
1302,20752,MARYLAND,CHARLES,6,MD,24033
1303,20753,MARYLAND,CHARLES,6,MD,24033
1304,20757,MARYLAND,CHARLES,6,MD,24033
1305,20759,MARYLAND,CALVERT,10,MD,24027
1306,20762,MARYLAND,CHARLES,6,MD,24033
1307,20763,MARYLAND,CALVERT,10,MD,24027
1308,20768,MARYLAND,CHARLES,6,MD,24033
1309,20769,MARYLAND,CHARLES,6,MD,24033
1310,20770,MARYLAND,CHARLES,6,MD,24033
1311,20771,MARYLAND,CHARLES,6,MD,24033
1312,20772,MARYLAND,CHARLES,6,MD,24033
1313,20773,MARYLAND,CHARLES,6,MD,24033
1314,20774,MARYLAND,CHARLES,6,MD,24033
1315,20775,MARYLAND,CHARLES,6,MD,24033
1316,20777,MARYLAND,CALVERT,10,MD,24027
1317,20781,MARYLAND,CHARLES,6,MD,24033
1318,20782,MARYLAND,CHARLES,6,MD,24033
1319,20783,MARYLAND,CAROLINE,4,MD,24031
1320,20784,MARYLAND,CHARLES,6,MD,24033
1321,20785,MARYLAND,CHARLES,6,MD,24033
1322,20787,MARYLAND,CAROLINE,4,MD,24031
1323,20790,MARYLAND,CHARLES,6,MD,24033
1324,20791,MARYLAND,CHARLES,6,MD,24033
1325,20792,MARYLAND,CHARLES,6,MD,24033
1326,20794,MARYLAND,CALVERT,10,MD,24027
1327,20799,MARYLAND,CHARLES,6,MD,24033
1328,20810,MARYLAND,CAROLINE,4,MD,24031
1329,20811,MARYLAND,CAROLINE,4,MD,24031
1330,20812,MARYLAND,CAROLINE,4,MD,24031
1331,20814,MARYLAND,CAROLINE,4,MD,24031
1332,20815,MARYLAND,CAROLINE,4,MD,24031
1333,20816,MARYLAND,CAROLINE,4,MD,24031
1334,20817,MARYLAND,CAROLINE,4,MD,24031
1335,20818,MARYLAND,CAROLINE,4,MD,24031
1336,20824,MARYLAND,CAROLINE,4,MD,24031
1337,20825,MARYLAND,CAROLINE,4,MD,24031
1338,20827,MARYLAND,CAROLINE,4,MD,24031
1339,20830,MARYLAND,CAROLINE,4,MD,24031
1340,20832,MARYLAND,CAROLINE,4,MD,24031
1341,20833,MARYLAND,CALVERT,10,MD,24027
1342,20837,MARYLAND,CAROLINE,4,MD,24031
1343,20838,MARYLAND,CAROLINE,4,MD,24031
1344,20839,MARYLAND,CAROLINE,4,MD,24031
1345,20841,MARYLAND,CAROLINE,4,MD,24031
1346,20842,MARYLAND,CAROLINE,4,MD,24031
1347,20847,MARYLAND,CAROLINE,4,MD,24031
1348,20848,MARYLAND,CAROLINE,4,MD,24031
1349,20849,MARYLAND,CAROLINE,4,MD,24031
1350,20850,MARYLAND,CAROLINE,4,MD,24031
1351,20851,MARYLAND,CAROLINE,4,MD,24031
1352,20852,MARYLAND,CAROLINE,4,MD,24031
1353,20853,MARYLAND,CAROLINE,4,MD,24031
1354,20854,MARYLAND,CAROLINE,4,MD,24031
1355,20855,MARYLAND,CAROLINE,4,MD,24031
1356,20857,MARYLAND,CAROLINE,4,MD,24031
1357,20859,MARYLAND,CAROLINE,4,MD,24031
1358,20860,MARYLAND,CAROLINE,4,MD,24031
1359,20861,MARYLAND,CAROLINE,4,MD,24031
1360,20862,MARYLAND,CAROLINE,4,MD,24031
1361,20866,MARYLAND,CHARLES,6,MD,24033
1362,20868,MARYLAND,CAROLINE,4,MD,24031
1363,20871,MARYLAND,CAROLINE,4,MD,24031
1364,20872,MARYLAND,CAROLINE,4,MD,24031
1365,20874,MARYLAND,CAROLINE,4,MD,24031
1366,20875,MARYLAND,CAROLINE,4,MD,24031
1367,20876,MARYLAND,CAROLINE,4,MD,24031
1368,20877,MARYLAND,CAROLINE,4,MD,24031
1369,20878,MARYLAND,CAROLINE,4,MD,24031
1370,20879,MARYLAND,CAROLINE,4,MD,24031
1371,20880,MARYLAND,CAROLINE,4,MD,24031
1372,20882,MARYLAND,CAROLINE,4,MD,24031
1373,20883,MARYLAND,CAROLINE,4,MD,24031
1374,20884,MARYLAND,CAROLINE,4,MD,24031
1375,20885,MARYLAND,CAROLINE,4,MD,24031
1376,20886,MARYLAND,CAROLINE,4,MD,24031
1377,20889,MARYLAND,CAROLINE,4,MD,24031
1378,20891,MARYLAND,CAROLINE,4,MD,24031
1379,20892,MARYLAND,CAROLINE,4,MD,24031
1380,20894,MARYLAND,CAROLINE,4,MD,24031
1381,20895,MARYLAND,CAROLINE,4,MD,24031
1382,20896,MARYLAND,CAROLINE,4,MD,24031
1383,20898,MARYLAND,CAROLINE,4,MD,24031
1384,20899,MARYLAND,CAROLINE,4,MD,24031
1385,20901,MARYLAND,CAROLINE,4,MD,24031
1386,20902,MARYLAND,CAROLINE,4,MD,24031
1387,20903,MARYLAND,CHARLES,6,MD,24033
1388,20904,MARYLAND,CHARLES,6,MD,24033
1389,20905,MARYLAND,CAROLINE,4,MD,24031
1390,20906,MARYLAND,CAROLINE,4,MD,24031
1391,20907,MARYLAND,CAROLINE,4,MD,24031
1392,20910,MARYLAND,CAROLINE,4,MD,24031
1393,20911,MARYLAND,CAROLINE,4,MD,24031
1394,20912,MARYLAND,CHARLES,6,MD,24033
1395,20913,MARYLAND,CAROLINE,4,MD,24031
1396,20914,MARYLAND,CAROLINE,4,MD,24031
1397,20915,MARYLAND,CAROLINE,4,MD,24031
1398,20916,MARYLAND,CAROLINE,4,MD,24031
1399,20918,MARYLAND,CAROLINE,4,MD,24031
1400,20993,MARYLAND,CAROLINE,4,MD,24031
1401,21001,MARYLAND,MARYLAND BEACHES,6,MD,24025
1402,21005,MARYLAND,MARYLAND BEACHES,6,MD,24025
1403,21009,MARYLAND,MARYLAND BEACHES,6,MD,24025
1404,21010,MARYLAND,MARYLAND BEACHES,6,MD,24025
1405,21013,MARYLAND,MARYLAND BEACHES,6,MD,24025
1406,21014,MARYLAND,MARYLAND BEACHES,6,MD,24025
1407,21015,MARYLAND,MARYLAND BEACHES,6,MD,24025
1408,21017,MARYLAND,MARYLAND BEACHES,6,MD,24025
1409,21018,MARYLAND,MARYLAND BEACHES,6,MD,24025
1410,21028,MARYLAND,MARYLAND BEACHES,6,MD,24025
1411,21029,MARYLAND,CALVERT,10,MD,24027
1412,21034,MARYLAND,MARYLAND BEACHES,6,MD,24025
1413,21036,MARYLAND,CALVERT,10,MD,24027
1414,21040,MARYLAND,MARYLAND BEACHES,6,MD,24025
1415,21041,MARYLAND,CALVERT,10,MD,24027
1416,21042,MARYLAND,CALVERT,10,MD,24027
1417,21043,MARYLAND,CALVERT,10,MD,24027
1418,21044,MARYLAND,CALVERT,10,MD,24027
1419,21045,MARYLAND,CALVERT,10,MD,24027
1420,21046,MARYLAND,CALVERT,10,MD,24027
1421,21047,MARYLAND,MARYLAND BEACHES,6,MD,24025
1422,21050,MARYLAND,MARYLAND BEACHES,6,MD,24025
1423,21075,MARYLAND,CALVERT,10,MD,24027
1424,21076,MARYLAND,CALVERT,10,MD,24027
1425,21078,MARYLAND,MARYLAND BEACHES,6,MD,24025
1426,21082,MARYLAND,MARYLAND BEACHES,6,MD,24025
1427,21084,MARYLAND,MARYLAND BEACHES,6,MD,24025
1428,21085,MARYLAND,MARYLAND BEACHES,6,MD,24025
1429,21087,MARYLAND,MARYLAND BEACHES,6,MD,24025
1430,21104,MARYLAND,CALVERT,10,MD,24027
1431,21111,MARYLAND,MARYLAND BEACHES,6,MD,24025
1432,21130,MARYLAND,MARYLAND BEACHES,6,MD,24025
1433,21132,MARYLAND,MARYLAND BEACHES,6,MD,24025
1434,21150,MARYLAND,CALVERT,10,MD,24027
1435,21154,MARYLAND,MARYLAND BEACHES,6,MD,24025
1436,21160,MARYLAND,MARYLAND BEACHES,6,MD,24025
1437,21161,MARYLAND,MARYLAND BEACHES,6,MD,24025
1438,21163,MARYLAND,CALVERT,10,MD,24027
1439,21520,MARYLAND,CECIL,2,MD,24023
1440,21521,MARYLAND,CECIL,2,MD,24023
1441,21522,MARYLAND,CECIL,2,MD,24023
1442,21523,MARYLAND,CECIL,2,MD,24023
1443,21531,MARYLAND,CECIL,2,MD,24023
1444,21532,MARYLAND,CECIL,2,MD,24023
1445,21536,MARYLAND,CECIL,2,MD,24023
1446,21538,MARYLAND,CECIL,2,MD,24023
1447,21539,MARYLAND,CECIL,2,MD,24023
1448,21541,MARYLAND,CECIL,2,MD,24023
1449,21550,MARYLAND,CECIL,2,MD,24023
1450,21561,MARYLAND,CECIL,2,MD,24023
1451,21562,MARYLAND,CECIL,2,MD,24023
1452,21601,MARYLAND,KENT,6,MD,24041
1453,21607,MARYLAND,BALTIMORE,11,MD,24011
1454,21609,MARYLAND,BALTIMORE,11,MD,24011
1455,21612,MARYLAND,KENT,6,MD,24041
1456,21624,MARYLAND,KENT,6,MD,24041
1457,21625,MARYLAND,KENT,6,MD,24041
1458,21629,MARYLAND,BALTIMORE,11,MD,24011
1459,21632,MARYLAND,BALTIMORE,11,MD,24011
1460,21636,MARYLAND,BALTIMORE,11,MD,24011
1461,21639,MARYLAND,BALTIMORE,11,MD,24011
1462,21640,MARYLAND,BALTIMORE,11,MD,24011
1463,21641,MARYLAND,BALTIMORE,11,MD,24011
1464,21643,MARYLAND,BALTIMORE,11,MD,24011
1465,21647,MARYLAND,KENT,6,MD,24041
1466,21649,MARYLAND,BALTIMORE,11,MD,24011
1467,21652,MARYLAND,KENT,6,MD,24041
1468,21653,MARYLAND,KENT,6,MD,24041
1469,21654,MARYLAND,KENT,6,MD,24041
1470,21655,MARYLAND,BALTIMORE,11,MD,24011
1471,21657,MARYLAND,BALTIMORE,11,MD,24011
1472,21660,MARYLAND,BALTIMORE,11,MD,24011
1473,21662,MARYLAND,KENT,6,MD,24041
1474,21663,MARYLAND,KENT,6,MD,24041
1475,21665,MARYLAND,KENT,6,MD,24041
1476,21671,MARYLAND,KENT,6,MD,24041
1477,21673,MARYLAND,KENT,6,MD,24041
1478,21676,MARYLAND,KENT,6,MD,24041
1479,21679,MARYLAND,KENT,6,MD,24041
1480,21723,MARYLAND,CALVERT,10,MD,24027
1481,21737,MARYLAND,CALVERT,10,MD,24027
1482,21738,MARYLAND,CALVERT,10,MD,24027
1483,21765,MARYLAND,CALVERT,10,MD,24027
1484,21771,MARYLAND,CALVERT,10,MD,24027
1485,21784,MARYLAND,CALVERT,10,MD,24027
1486,21794,MARYLAND,CALVERT,10,MD,24027
1487,21797,MARYLAND,CALVERT,10,MD,24027
1488,21901,MARYLAND,QUEEN ANNES,7,MD,24015
1489,21902,MARYLAND,QUEEN ANNES,7,MD,24015
1490,21903,MARYLAND,QUEEN ANNES,7,MD,24015
1491,21904,MARYLAND,QUEEN ANNES,7,MD,24015
1492,21911,MARYLAND,QUEEN ANNES,7,MD,24015
1493,21912,MARYLAND,QUEEN ANNES,7,MD,24015
1494,21913,MARYLAND,QUEEN ANNES,7,MD,24015
1495,21914,MARYLAND,QUEEN ANNES,7,MD,24015
1496,21915,MARYLAND,QUEEN ANNES,7,MD,24015
1497,21916,MARYLAND,QUEEN ANNES,7,MD,24015
1498,21917,MARYLAND,QUEEN ANNES,7,MD,24015
1499,21918,MARYLAND,QUEEN ANNES,7,MD,24015
1500,21919,MARYLAND,QUEEN ANNES,7,MD,24015
1501,21920,MARYLAND,QUEEN ANNES,7,MD,24015
1502,21921,MARYLAND,QUEEN ANNES,7,MD,24015
1503,21922,MARYLAND,QUEEN ANNES,7,MD,24015
1504,21930,MARYLAND,QUEEN ANNES,7,MD,24015
1505,22206,VIRGINIA,ALEXANDRIA CITY,2,VA,51510
1506,22301,VIRGINIA,ALEXANDRIA CITY,2,VA,51510
1507,22302,VIRGINIA,ALEXANDRIA CITY,2,VA,51510
1508,22304,VIRGINIA,ALEXANDRIA CITY,2,VA,51510
1509,22305,VIRGINIA,ALEXANDRIA CITY,2,VA,51510
1510,22311,VIRGINIA,ALEXANDRIA CITY,2,VA,51510
1511,22312,VIRGINIA,ALEXANDRIA CITY,2,VA,51510
1512,22313,VIRGINIA,ALEXANDRIA CITY,2,VA,51510
1513,22314,VIRGINIA,ALEXANDRIA CITY,2,VA,51510
1514,22320,VIRGINIA,ALEXANDRIA CITY,2,VA,51510
1515,22332,VIRGINIA,ALEXANDRIA CITY,2,VA,51510
1516,22333,VIRGINIA,ALEXANDRIA CITY,2,VA,51510
1517,22350,VIRGINIA,ALEXANDRIA CITY,2,VA,51510
1518,22437,VIRGINIA,CHESAPEAKE,6,VA,51097
1519,22514,VIRGINIA,CHESAPEAKE,6,VA,51097
1520,22560,VIRGINIA,CHESAPEAKE,6,VA,51097
1521,22623,VIRGINIA,GLOUCESTER,8,VA,51157
1522,22627,VIRGINIA,GLOUCESTER,8,VA,51157
1523,22630,VIRGINIA,GLOUCESTER,8,VA,51157
1524,22640,VIRGINIA,GLOUCESTER,8,VA,51157
1525,22713,VIRGINIA,GLOUCESTER,8,VA,51157
1526,22716,VIRGINIA,GLOUCESTER,8,VA,51157
1527,22740,VIRGINIA,GLOUCESTER,8,VA,51157
1528,22747,VIRGINIA,GLOUCESTER,8,VA,51157
1529,22749,VIRGINIA,GLOUCESTER,8,VA,51157
1530,23023,VIRGINIA,CHESAPEAKE,6,VA,51097
1531,23085,VIRGINIA,CHESAPEAKE,6,VA,51097
1532,23091,VIRGINIA,CHESAPEAKE,6,VA,51097
1533,23108,VIRGINIA,CHESAPEAKE,6,VA,51097
1534,23110,VIRGINIA,CHESAPEAKE,6,VA,51097
1535,23126,VIRGINIA,CHESAPEAKE,6,VA,51097
1536,23148,VIRGINIA,CHESAPEAKE,6,VA,51097
1537,23149,VIRGINIA,CHESAPEAKE,6,VA,51097
1538,23156,VIRGINIA,CHESAPEAKE,6,VA,51097
1539,23161,VIRGINIA,CHESAPEAKE,6,VA,51097
1540,23177,VIRGINIA,CHESAPEAKE,6,VA,51097
1541,23181,VIRGINIA,CHESAPEAKE,6,VA,51097
1542,23307,VIRGINIA,ESSEX,3,VA,51131
1543,23310,VIRGINIA,ESSEX,3,VA,51131
1544,23313,VIRGINIA,ESSEX,3,VA,51131
1545,23316,VIRGINIA,ESSEX,3,VA,51131
1546,23347,VIRGINIA,ESSEX,3,VA,51131
1547,23350,VIRGINIA,ESSEX,3,VA,51131
1548,23354,VIRGINIA,ESSEX,3,VA,51131
1549,23398,VIRGINIA,ESSEX,3,VA,51131
1550,23405,VIRGINIA,ESSEX,3,VA,51131
1551,23408,VIRGINIA,ESSEX,3,VA,51131
1552,23413,VIRGINIA,ESSEX,3,VA,51131
1553,23429,VIRGINIA,ESSEX,3,VA,51131
1554,23443,VIRGINIA,ESSEX,3,VA,51131
1555,23486,VIRGINIA,ESSEX,3,VA,51131
1556,23662,VIRGINIA,POQUOSON,2,VA,51735
1557,24014,VIRGINIA,ARLINGTON,17,VA,51067
1558,24055,VIRGINIA,ARLINGTON,17,VA,51067
1559,24059,VIRGINIA,ARLINGTON,17,VA,51067
1560,24065,VIRGINIA,ARLINGTON,17,VA,51067
1561,24067,VIRGINIA,ARLINGTON,17,VA,51067
1562,24079,VIRGINIA,ARLINGTON,17,VA,51067
1563,24088,VIRGINIA,ARLINGTON,17,VA,51067
1564,24091,VIRGINIA,ARLINGTON,17,VA,51067
1565,24092,VIRGINIA,ARLINGTON,17,VA,51067
1566,24101,VIRGINIA,ARLINGTON,17,VA,51067
1567,24102,VIRGINIA,ARLINGTON,17,VA,51067
1568,24112,VIRGINIA,ARLINGTON,17,VA,51067
1569,24121,VIRGINIA,ARLINGTON,17,VA,51067
1570,24137,VIRGINIA,ARLINGTON,17,VA,51067
1571,24146,VIRGINIA,ARLINGTON,17,VA,51067
1572,24151,VIRGINIA,ARLINGTON,17,VA,51067
1573,24176,VIRGINIA,ARLINGTON,17,VA,51067
1574,24184,VIRGINIA,ARLINGTON,17,VA,51067
1575,24236,VIRGINIA,KING WILLIAM,1,VA,51173
1576,24311,VIRGINIA,KING WILLIAM,1,VA,51173
1577,24316,VIRGINIA,KING WILLIAM,1,VA,51173
1578,24318,VIRGINIA,KING WILLIAM,1,VA,51173
1579,24319,VIRGINIA,KING WILLIAM,1,VA,51173
1580,24340,VIRGINIA,KING WILLIAM,1,VA,51173
1581,24354,VIRGINIA,KING WILLIAM,1,VA,51173
1582,24368,VIRGINIA,KING WILLIAM,1,VA,51173
1583,24370,VIRGINIA,KING WILLIAM,1,VA,51173
1584,24374,VIRGINIA,KING WILLIAM,1,VA,51173
1585,24375,VIRGINIA,KING WILLIAM,1,VA,51173
1586,24378,VIRGINIA,KING WILLIAM,1,VA,51173
1587,24651,VIRGINIA,KING WILLIAM,1,VA,51173
1588,27214,NORTH CAROLINA,WESTERN HYDE,1,NC,37081
1589,27215,NORTH CAROLINA,WESTERN HYDE,1,NC,37081
1590,27233,NORTH CAROLINA,WESTERN HYDE,1,NC,37081
1591,27235,NORTH CAROLINA,WESTERN HYDE,1,NC,37081
1592,27244,NORTH CAROLINA,WESTERN HYDE,1,NC,37081
1593,27249,NORTH CAROLINA,WESTERN HYDE,1,NC,37081
1594,27260,NORTH CAROLINA,WESTERN HYDE,1,NC,37081
1595,27261,NORTH CAROLINA,WESTERN HYDE,1,NC,37081
1596,27262,NORTH CAROLINA,WESTERN HYDE,1,NC,37081
1597,27263,NORTH CAROLINA,WESTERN HYDE,1,NC,37081
1598,27265,NORTH CAROLINA,WESTERN HYDE,1,NC,37081
1599,27268,NORTH CAROLINA,WESTERN HYDE,1,NC,37081
1600,27282,NORTH CAROLINA,WESTERN HYDE,1,NC,37081
1601,27283,NORTH CAROLINA,WESTERN HYDE,1,NC,37081
1602,27284,NORTH CAROLINA,WESTERN HYDE,1,NC,37081
1603,27298,NORTH CAROLINA,WESTERN HYDE,1,NC,37081
1604,27301,NORTH CAROLINA,WESTERN HYDE,1,NC,37081
1605,27310,NORTH CAROLINA,WESTERN HYDE,1,NC,37081
1606,27313,NORTH CAROLINA,WESTERN HYDE,1,NC,37081
1607,27317,NORTH CAROLINA,WESTERN HYDE,1,NC,37081
1608,27320,NORTH CAROLINA,WESTERN HYDE,1,NC,37081
1609,27342,NORTH CAROLINA,WESTERN HYDE,1,NC,37081
1610,27357,NORTH CAROLINA,WESTERN HYDE,1,NC,37081
1611,27358,NORTH CAROLINA,WESTERN HYDE,1,NC,37081
1612,27377,NORTH CAROLINA,WESTERN HYDE,1,NC,37081
1613,27401,NORTH CAROLINA,WESTERN HYDE,1,NC,37081
1614,27402,NORTH CAROLINA,WESTERN HYDE,1,NC,37081
1615,27403,NORTH CAROLINA,WESTERN HYDE,1,NC,37081
1616,27404,NORTH CAROLINA,WESTERN HYDE,1,NC,37081
1617,27405,NORTH CAROLINA,WESTERN HYDE,1,NC,37081
1618,27406,NORTH CAROLINA,WESTERN HYDE,1,NC,37081
1619,27407,NORTH CAROLINA,WESTERN HYDE,1,NC,37081
1620,27408,NORTH CAROLINA,WESTERN HYDE,1,NC,37081
1621,27409,NORTH CAROLINA,WESTERN HYDE,1,NC,37081
1622,27410,NORTH CAROLINA,WESTERN HYDE,1,NC,37081
1623,27411,NORTH CAROLINA,WESTERN HYDE,1,NC,37081
1624,27412,NORTH CAROLINA,WESTERN HYDE,1,NC,37081
1625,27413,NORTH CAROLINA,WESTERN HYDE,1,NC,37081
1626,27415,NORTH CAROLINA,WESTERN HYDE,1,NC,37081
1627,27416,NORTH CAROLINA,WESTERN HYDE,1,NC,37081
1628,27417,NORTH CAROLINA,WESTERN HYDE,1,NC,37081
1629,27419,NORTH CAROLINA,WESTERN HYDE,1,NC,37081
1630,27420,NORTH CAROLINA,WESTERN HYDE,1,NC,37081
1631,27425,NORTH CAROLINA,WESTERN HYDE,1,NC,37081
1632,27429,NORTH CAROLINA,WESTERN HYDE,1,NC,37081
1633,27435,NORTH CAROLINA,WESTERN HYDE,1,NC,37081
1634,27438,NORTH CAROLINA,WESTERN HYDE,1,NC,37081
1635,27455,NORTH CAROLINA,WESTERN HYDE,1,NC,37081
1636,27495,NORTH CAROLINA,WESTERN HYDE,1,NC,37081
1637,27497,NORTH CAROLINA,WESTERN HYDE,1,NC,37081
1638,27498,NORTH CAROLINA,WESTERN HYDE,1,NC,37081
1639,27499,NORTH CAROLINA,WESTERN HYDE,1,NC,37081
1640,28017,NORTH CAROLINA,CAMDEN,1,NC,37045
1641,28020,NORTH CAROLINA,CAMDEN,1,NC,37045
1642,28021,NORTH CAROLINA,CAMDEN,1,NC,37045
1643,28038,NORTH CAROLINA,CAMDEN,1,NC,37045
1644,28040,NORTH CAROLINA,CAMDEN,1,NC,37045
1645,28042,NORTH CAROLINA,CAMDEN,1,NC,37045
1646,28073,NORTH CAROLINA,CAMDEN,1,NC,37045
1647,28086,NORTH CAROLINA,CAMDEN,1,NC,37045
1648,28089,NORTH CAROLINA,CAMDEN,1,NC,37045
1649,28090,NORTH CAROLINA,CAMDEN,1,NC,37045
1650,28114,NORTH CAROLINA,CAMDEN,1,NC,37045
1651,28136,NORTH CAROLINA,CAMDEN,1,NC,37045
1652,28150,NORTH CAROLINA,CAMDEN,1,NC,37045
1653,28151,NORTH CAROLINA,CAMDEN,1,NC,37045
1654,28152,NORTH CAROLINA,CAMDEN,1,NC,37045
1655,28168,NORTH CAROLINA,CAMDEN,1,NC,37045
1656,28169,NORTH CAROLINA,CAMDEN,1,NC,37045
1657,28304,NORTH CAROLINA,BEAUFORT,2,NC,37093
1658,28306,NORTH CAROLINA,BEAUFORT,2,NC,37093
1659,28312,NORTH CAROLINA,CURRITUCK,3,NC,37017
1660,28315,NORTH CAROLINA,BEAUFORT,2,NC,37093
1661,28320,NORTH CAROLINA,CURRITUCK,3,NC,37017
1662,28332,NORTH CAROLINA,CURRITUCK,3,NC,37017
1663,28337,NORTH CAROLINA,CURRITUCK,3,NC,37017
1664,28357,NORTH CAROLINA,BEAUFORT,2,NC,37093
1665,28364,NORTH CAROLINA,BEAUFORT,2,NC,37093
1666,28371,NORTH CAROLINA,BEAUFORT,2,NC,37093
1667,28376,NORTH CAROLINA,BEAUFORT,2,NC,37093
1668,28377,NORTH CAROLINA,BEAUFORT,2,NC,37093
1669,28382,NORTH CAROLINA,CURRITUCK,3,NC,37017
1670,28384,NORTH CAROLINA,CURRITUCK,3,NC,37017
1671,28386,NORTH CAROLINA,BEAUFORT,2,NC,37093
1672,28392,NORTH CAROLINA,CURRITUCK,3,NC,37017
1673,28399,NORTH CAROLINA,CURRITUCK,3,NC,37017
1674,28423,NORTH CAROLINA,CURRITUCK,3,NC,37017
1675,28433,NORTH CAROLINA,CURRITUCK,3,NC,37017
1676,28434,NORTH CAROLINA,CURRITUCK,3,NC,37017
1677,28435,NORTH CAROLINA,CURRITUCK,3,NC,37017
1678,28438,NORTH CAROLINA,CURRITUCK,3,NC,37017
1679,28441,NORTH CAROLINA,CURRITUCK,3,NC,37017
1680,28444,NORTH CAROLINA,CURRITUCK,3,NC,37017
1681,28447,NORTH CAROLINA,CURRITUCK,3,NC,37017
1682,28448,NORTH CAROLINA,CURRITUCK,3,NC,37017
1683,28456,NORTH CAROLINA,CURRITUCK,3,NC,37017
1684,28501,NORTH CAROLINA,DARE,19,NC,37103
1685,28504,NORTH CAROLINA,DARE,19,NC,37103
1686,28522,NORTH CAROLINA,DARE,19,NC,37103
1687,28525,NORTH CAROLINA,NEW HANOVER,1,NC,37107
1688,28526,NORTH CAROLINA,DARE,19,NC,37103
1689,28530,NORTH CAROLINA,NEW HANOVER,1,NC,37107
1690,28538,NORTH CAROLINA,NEW HANOVER,1,NC,37107
1691,28551,NORTH CAROLINA,NEW HANOVER,1,NC,37107
1692,28555,NORTH CAROLINA,DARE,19,NC,37103
1693,28562,NORTH CAROLINA,DARE,19,NC,37103
1694,28572,NORTH CAROLINA,DARE,19,NC,37103
1695,28573,NORTH CAROLINA,DARE,19,NC,37103
1696,28574,NORTH CAROLINA,DARE,19,NC,37103
1697,28578,NORTH CAROLINA,NEW HANOVER,1,NC,37107
1698,28580,NORTH CAROLINA,NEW HANOVER,1,NC,37107
1699,28585,NORTH CAROLINA,DARE,19,NC,37103
1700,28612,NORTH CAROLINA,CAMDEN,1,NC,37045
1701,28708,NORTH CAROLINA,PERQUIMANS,1,NC,37175
1702,28712,NORTH CAROLINA,PERQUIMANS,1,NC,37175
1703,28718,NORTH CAROLINA,PERQUIMANS,1,NC,37175
1704,28739,NORTH CAROLINA,PERQUIMANS,1,NC,37175
1705,28742,NORTH CAROLINA,PERQUIMANS,1,NC,37175
1706,28747,NORTH CAROLINA,PERQUIMANS,1,NC,37175
1707,28759,NORTH CAROLINA,PERQUIMANS,1,NC,37175
1708,28766,NORTH CAROLINA,PERQUIMANS,1,NC,37175
1709,28768,NORTH CAROLINA,PERQUIMANS,1,NC,37175
1710,28772,NORTH CAROLINA,PERQUIMANS,1,NC,37175
1711,28774,NORTH CAROLINA,PERQUIMANS,1,NC,37175
1712,28783,NORTH CAROLINA,PERQUIMANS,1,NC,37175
1713,29001,SOUTH CAROLINA,HORRY,2,SC,45085
1714,29009,SOUTH CAROLINA,BEAUFORT,29,SC,45061
1715,29010,SOUTH CAROLINA,BEAUFORT,29,SC,45061
1716,29020,SOUTH CAROLINA,BEAUFORT,29,SC,45061
1717,29032,SOUTH CAROLINA,BEAUFORT,29,SC,45061
1718,29040,SOUTH CAROLINA,BEAUFORT,29,SC,45061
1719,29046,SOUTH CAROLINA,BEAUFORT,29,SC,45061
1720,29051,SOUTH CAROLINA,HORRY,2,SC,45085
1721,29062,SOUTH CAROLINA,HORRY,2,SC,45085
1722,29069,SOUTH CAROLINA,BEAUFORT,29,SC,45061
1723,29080,SOUTH CAROLINA,BEAUFORT,29,SC,45061
1724,29102,SOUTH CAROLINA,HORRY,2,SC,45085
1725,29104,SOUTH CAROLINA,BEAUFORT,29,SC,45061
1726,29114,SOUTH CAROLINA,HORRY,2,SC,45085
1727,29125,SOUTH CAROLINA,HORRY,2,SC,45085
1728,29128,SOUTH CAROLINA,BEAUFORT,29,SC,45061
1729,29150,SOUTH CAROLINA,HORRY,2,SC,45085
1730,29151,SOUTH CAROLINA,HORRY,2,SC,45085
1731,29152,SOUTH CAROLINA,HORRY,2,SC,45085
1732,29153,SOUTH CAROLINA,BEAUFORT,29,SC,45061
1733,29154,SOUTH CAROLINA,HORRY,2,SC,45085
1734,29162,SOUTH CAROLINA,HORRY,2,SC,45085
1735,29168,SOUTH CAROLINA,HORRY,2,SC,45085
1736,29512,SOUTH CAROLINA,CHARLESTON,130,SC,45069
1737,29516,SOUTH CAROLINA,CHARLESTON,130,SC,45069
1738,29525,SOUTH CAROLINA,CHARLESTON,130,SC,45069
1739,29550,SOUTH CAROLINA,BEAUFORT,29,SC,45061
1740,29565,SOUTH CAROLINA,CHARLESTON,130,SC,45069
1741,29570,SOUTH CAROLINA,CHARLESTON,130,SC,45069
1742,29594,SOUTH CAROLINA,CHARLESTON,130,SC,45069
1743,29596,SOUTH CAROLINA,CHARLESTON,130,SC,45069
1744,29827,SOUTH CAROLINA,SOUTHERN COLLETON,11,SC,45049
1745,29911,SOUTH CAROLINA,SOUTHERN COLLETON,11,SC,45049
1746,29916,SOUTH CAROLINA,SOUTHERN COLLETON,11,SC,45049
1747,29918,SOUTH CAROLINA,SOUTHERN COLLETON,11,SC,45049
1748,29921,SOUTH CAROLINA,SOUTHERN COLLETON,11,SC,45049
1749,29922,SOUTH CAROLINA,SOUTHERN COLLETON,11,SC,45049
1750,29923,SOUTH CAROLINA,SOUTHERN COLLETON,11,SC,45049
1751,29924,SOUTH CAROLINA,SOUTHERN COLLETON,11,SC,45049
1752,29932,SOUTH CAROLINA,SOUTHERN COLLETON,11,SC,45049
1753,29933,SOUTH CAROLINA,SOUTHERN COLLETON,11,SC,45049
1754,29934,SOUTH CAROLINA,SOUTHERN COLLETON,11,SC,45049
1755,29939,SOUTH CAROLINA,SOUTHERN COLLETON,11,SC,45049
1756,29944,SOUTH CAROLINA,SOUTHERN COLLETON,11,SC,45049
1757,29945,SOUTH CAROLINA,SOUTHERN COLLETON,11,SC,45049
1758,30501,GEORGIA,LIBERTY,2,GA,13139
1759,30502,GEORGIA,LIBERTY,2,GA,13139
1760,30503,GEORGIA,LIBERTY,2,GA,13139
1761,30504,GEORGIA,LIBERTY,2,GA,13139
1762,30506,GEORGIA,LIBERTY,2,GA,13139
1763,30507,GEORGIA,LIBERTY,2,GA,13139
1764,30510,GEORGIA,LIBERTY,2,GA,13139
1765,30516,GEORGIA,CHATHAM,43,GA,13119
1766,30517,GEORGIA,LIBERTY,2,GA,13139
1767,30518,GEORGIA,LIBERTY,2,GA,13139
1768,30519,GEORGIA,LIBERTY,2,GA,13139
1769,30520,GEORGIA,CHATHAM,43,GA,13119
1770,30521,GEORGIA,CHATHAM,43,GA,13119
1771,30527,GEORGIA,LIBERTY,2,GA,13139
1772,30528,GEORGIA,LIBERTY,2,GA,13139
1773,30530,GEORGIA,CHATHAM,43,GA,13119
1774,30531,GEORGIA,LIBERTY,2,GA,13139
1775,30533,GEORGIA,LIBERTY,2,GA,13139
1776,30538,GEORGIA,CHATHAM,43,GA,13119
1777,30542,GEORGIA,LIBERTY,2,GA,13139
1778,30543,GEORGIA,LIBERTY,2,GA,13139
1779,30548,GEORGIA,LIBERTY,2,GA,13139
1780,30553,GEORGIA,CHATHAM,43,GA,13119
1781,30554,GEORGIA,LIBERTY,2,GA,13139
1782,30557,GEORGIA,CHATHAM,43,GA,13119
1783,30564,GEORGIA,LIBERTY,2,GA,13139
1784,30566,GEORGIA,LIBERTY,2,GA,13139
1785,30567,GEORGIA,LIBERTY,2,GA,13139
1786,30575,GEORGIA,LIBERTY,2,GA,13139
1787,30577,GEORGIA,CHATHAM,43,GA,13119
1788,30633,GEORGIA,CHATHAM,43,GA,13119
1789,30639,GEORGIA,CHATHAM,43,GA,13119
1790,30662,GEORGIA,CHATHAM,43,GA,13119
1791,30678,GEORGIA,COASTAL MCINTOSH,9,GA,13141
1792,30820,GEORGIA,COASTAL MCINTOSH,9,GA,13141
1793,31045,GEORGIA,COASTAL MCINTOSH,9,GA,13141
1794,31061,GEORGIA,COASTAL MCINTOSH,9,GA,13141
1795,31087,GEORGIA,COASTAL MCINTOSH,9,GA,13141
1796,32102,FLORIDA,COLLIER,8,FL,12069
1797,32134,FLORIDA,COLLIER,8,FL,12069
1798,32158,FLORIDA,COLLIER,8,FL,12069
1799,32159,FLORIDA,COLLIER,8,FL,12069
1800,32162,FLORIDA,COLLIER,8,FL,12069
1801,32163,FLORIDA,COLLIER,8,FL,12069
1802,32195,FLORIDA,COLLIER,8,FL,12069
1803,32301,FLORIDA,FLAGLER,13,FL,12073
1804,32302,FLORIDA,FLAGLER,13,FL,12073
1805,32303,FLORIDA,FLAGLER,13,FL,12073
1806,32304,FLORIDA,FLAGLER,13,FL,12073
1807,32305,FLORIDA,FLAGLER,13,FL,12073
1808,32306,FLORIDA,FLAGLER,13,FL,12073
1809,32307,FLORIDA,FLAGLER,13,FL,12073
1810,32308,FLORIDA,FLAGLER,13,FL,12073
1811,32309,FLORIDA,FLAGLER,13,FL,12073
1812,32310,FLORIDA,FLAGLER,13,FL,12073
1813,32311,FLORIDA,FLAGLER,13,FL,12073
1814,32312,FLORIDA,FLAGLER,13,FL,12073
1815,32313,FLORIDA,FLAGLER,13,FL,12073
1816,32314,FLORIDA,FLAGLER,13,FL,12073
1817,32315,FLORIDA,FLAGLER,13,FL,12073
1818,32316,FLORIDA,FLAGLER,13,FL,12073
1819,32317,FLORIDA,FLAGLER,13,FL,12073
1820,32318,FLORIDA,FLAGLER,13,FL,12073
1821,32321,FLORIDA,MONROE,1,FL,12077
1822,32327,FLORIDA,FLAGLER,13,FL,12073
1823,32334,FLORIDA,MONROE,1,FL,12077
1824,32351,FLORIDA,MONROE,1,FL,12077
1825,32360,FLORIDA,MONROE,1,FL,12077
1826,32362,FLORIDA,FLAGLER,13,FL,12073
1827,32395,FLORIDA,FLAGLER,13,FL,12073
1828,32399,FLORIDA,FLAGLER,13,FL,12073
1829,32425,FLORIDA,GULF,4,FL,12059
1830,32440,FLORIDA,GULF,4,FL,12059
1831,32455,FLORIDA,GULF,4,FL,12059
1832,32464,FLORIDA,GULF,4,FL,12059
1833,32501,FLORIDA,ESCAMBIA,2,FL,12033
1834,32502,FLORIDA,ESCAMBIA,2,FL,12033
1835,32503,FLORIDA,ESCAMBIA,2,FL,12033
1836,32504,FLORIDA,ESCAMBIA,2,FL,12033
1837,32505,FLORIDA,ESCAMBIA,2,FL,12033
1838,32506,FLORIDA,ESCAMBIA,2,FL,12033
1839,32507,FLORIDA,ESCAMBIA,2,FL,12033
1840,32508,FLORIDA,ESCAMBIA,2,FL,12033
1841,32509,FLORIDA,ESCAMBIA,2,FL,12033
1842,32511,FLORIDA,ESCAMBIA,2,FL,12033
1843,32512,FLORIDA,ESCAMBIA,2,FL,12033
1844,32513,FLORIDA,ESCAMBIA,2,FL,12033
1845,32514,FLORIDA,ESCAMBIA,2,FL,12033
1846,32516,FLORIDA,ESCAMBIA,2,FL,12033
1847,32520,FLORIDA,ESCAMBIA,2,FL,12033
1848,32522,FLORIDA,ESCAMBIA,2,FL,12033
1849,32523,FLORIDA,ESCAMBIA,2,FL,12033
1850,32524,FLORIDA,ESCAMBIA,2,FL,12033
1851,32526,FLORIDA,ESCAMBIA,2,FL,12033
1852,32530,FLORIDA,NASSAU,11,FL,12113
1853,32531,FLORIDA,NASSAU,11,FL,12113
1854,32533,FLORIDA,ESCAMBIA,2,FL,12033
1855,32534,FLORIDA,ESCAMBIA,2,FL,12033
1856,32535,FLORIDA,ESCAMBIA,2,FL,12033
1857,32536,FLORIDA,OKALOOSA,1,FL,12091
1858,32539,FLORIDA,OKALOOSA,1,FL,12091
1859,32540,FLORIDA,OKALOOSA,1,FL,12091
1860,32541,FLORIDA,OKALOOSA,1,FL,12091
1861,32542,FLORIDA,OKALOOSA,1,FL,12091
1862,32544,FLORIDA,OKALOOSA,1,FL,12091
1863,32547,FLORIDA,OKALOOSA,1,FL,12091
1864,32548,FLORIDA,OKALOOSA,1,FL,12091
1865,32549,FLORIDA,OKALOOSA,1,FL,12091
1866,32559,FLORIDA,ESCAMBIA,2,FL,12033
1867,32560,FLORIDA,ESCAMBIA,2,FL,12033
1868,32561,FLORIDA,NASSAU,11,FL,12113
1869,32562,FLORIDA,NASSAU,11,FL,12113
1870,32563,FLORIDA,NASSAU,11,FL,12113
1871,32564,FLORIDA,NASSAU,11,FL,12113
1872,32565,FLORIDA,NASSAU,11,FL,12113
1873,32566,FLORIDA,NASSAU,11,FL,12113
1874,32567,FLORIDA,OKALOOSA,1,FL,12091
1875,32568,FLORIDA,ESCAMBIA,2,FL,12033
1876,32569,FLORIDA,NASSAU,11,FL,12113
1877,32570,FLORIDA,NASSAU,11,FL,12113
1878,32571,FLORIDA,NASSAU,11,FL,12113
1879,32572,FLORIDA,NASSAU,11,FL,12113
1880,32577,FLORIDA,ESCAMBIA,2,FL,12033
1881,32578,FLORIDA,OKALOOSA,1,FL,12091
1882,32579,FLORIDA,OKALOOSA,1,FL,12091
1883,32580,FLORIDA,OKALOOSA,1,FL,12091
1884,32583,FLORIDA,NASSAU,11,FL,12113
1885,32588,FLORIDA,OKALOOSA,1,FL,12091
1886,32591,FLORIDA,ESCAMBIA,2,FL,12033
1887,32702,FLORIDA,COLLIER,8,FL,12069
1888,32720,FLORIDA,COLLIER,8,FL,12069
1889,32726,FLORIDA,COLLIER,8,FL,12069
1890,32727,FLORIDA,COLLIER,8,FL,12069
1891,32735,FLORIDA,COLLIER,8,FL,12069
1892,32736,FLORIDA,COLLIER,8,FL,12069
1893,32756,FLORIDA,COLLIER,8,FL,12069
1894,32757,FLORIDA,COLLIER,8,FL,12069
1895,32767,FLORIDA,COLLIER,8,FL,12069
1896,32776,FLORIDA,COLLIER,8,FL,12069
1897,32778,FLORIDA,COLLIER,8,FL,12069
1898,32784,FLORIDA,COLLIER,8,FL,12069
1899,33002,FLORIDA,MIAMI-DADE,10,FL,12086
1900,33004,FLORIDA,BROWARD,5,FL,12011
1901,33008,FLORIDA,BROWARD,5,FL,12011
1902,33009,FLORIDA,BROWARD,5,FL,12011
1903,33010,FLORIDA,MIAMI-DADE,10,FL,12086
1904,33011,FLORIDA,MIAMI-DADE,10,FL,12086
1905,33012,FLORIDA,MIAMI-DADE,10,FL,12086
1906,33013,FLORIDA,MIAMI-DADE,10,FL,12086
1907,33014,FLORIDA,MIAMI-DADE,10,FL,12086
1908,33015,FLORIDA,MIAMI-DADE,10,FL,12086
1909,33016,FLORIDA,MIAMI-DADE,10,FL,12086
1910,33017,FLORIDA,MIAMI-DADE,10,FL,12086
1911,33018,FLORIDA,MIAMI-DADE,10,FL,12086
1912,33019,FLORIDA,BROWARD,5,FL,12011
1913,33020,FLORIDA,BROWARD,5,FL,12011
1914,33021,FLORIDA,BROWARD,5,FL,12011
1915,33022,FLORIDA,BROWARD,5,FL,12011
1916,33023,FLORIDA,MIAMI-DADE,10,FL,12086
1917,33024,FLORIDA,BROWARD,5,FL,12011
1918,33025,FLORIDA,BROWARD,5,FL,12011
1919,33026,FLORIDA,BROWARD,5,FL,12011
1920,33027,FLORIDA,MIAMI-DADE,10,FL,12086
1921,33028,FLORIDA,BROWARD,5,FL,12011
1922,33029,FLORIDA,BROWARD,5,FL,12011
1923,33030,FLORIDA,MIAMI-DADE,10,FL,12086
1924,33031,FLORIDA,MIAMI-DADE,10,FL,12086
1925,33032,FLORIDA,MIAMI-DADE,10,FL,12086
1926,33033,FLORIDA,MIAMI-DADE,10,FL,12086
1927,33034,FLORIDA,MIAMI-DADE,10,FL,12086
1928,33035,FLORIDA,MIAMI-DADE,10,FL,12086
1929,33039,FLORIDA,MIAMI-DADE,10,FL,12086
1930,33054,FLORIDA,MIAMI-DADE,10,FL,12086
1931,33055,FLORIDA,MIAMI-DADE,10,FL,12086
1932,33056,FLORIDA,MIAMI-DADE,10,FL,12086
1933,33060,FLORIDA,BROWARD,5,FL,12011
1934,33061,FLORIDA,BROWARD,5,FL,12011
1935,33062,FLORIDA,BROWARD,5,FL,12011
1936,33063,FLORIDA,BROWARD,5,FL,12011
1937,33064,FLORIDA,BROWARD,5,FL,12011
1938,33065,FLORIDA,BROWARD,5,FL,12011
1939,33066,FLORIDA,BROWARD,5,FL,12011
1940,33067,FLORIDA,BROWARD,5,FL,12011
1941,33068,FLORIDA,BROWARD,5,FL,12011
1942,33069,FLORIDA,BROWARD,5,FL,12011
1943,33071,FLORIDA,BROWARD,5,FL,12011
1944,33073,FLORIDA,BROWARD,5,FL,12011
1945,33074,FLORIDA,BROWARD,5,FL,12011
1946,33075,FLORIDA,BROWARD,5,FL,12011
1947,33076,FLORIDA,BROWARD,5,FL,12011
1948,33077,FLORIDA,BROWARD,5,FL,12011
1949,33081,FLORIDA,BROWARD,5,FL,12011
1950,33082,FLORIDA,BROWARD,5,FL,12011
1951,33083,FLORIDA,BROWARD,5,FL,12011
1952,33084,FLORIDA,BROWARD,5,FL,12011
1953,33090,FLORIDA,MIAMI-DADE,10,FL,12086
1954,33092,FLORIDA,MIAMI-DADE,10,FL,12086
1955,33093,FLORIDA,BROWARD,5,FL,12011
1956,33097,FLORIDA,BROWARD,5,FL,12011
1957,33101,FLORIDA,MIAMI-DADE,10,FL,12086
1958,33106,FLORIDA,MIAMI-DADE,10,FL,12086
1959,33109,FLORIDA,MIAMI-DADE,10,FL,12086
1960,33112,FLORIDA,MIAMI-DADE,10,FL,12086
1961,33114,FLORIDA,MIAMI-DADE,10,FL,12086
1962,33116,FLORIDA,MIAMI-DADE,10,FL,12086
1963,33119,FLORIDA,MIAMI-DADE,10,FL,12086
1964,33122,FLORIDA,MIAMI-DADE,10,FL,12086
1965,33124,FLORIDA,MIAMI-DADE,10,FL,12086
1966,33125,FLORIDA,MIAMI-DADE,10,FL,12086
1967,33126,FLORIDA,MIAMI-DADE,10,FL,12086
1968,33127,FLORIDA,MIAMI-DADE,10,FL,12086
1969,33128,FLORIDA,MIAMI-DADE,10,FL,12086
1970,33129,FLORIDA,MIAMI-DADE,10,FL,12086
1971,33130,FLORIDA,MIAMI-DADE,10,FL,12086
1972,33131,FLORIDA,MIAMI-DADE,10,FL,12086
1973,33132,FLORIDA,MIAMI-DADE,10,FL,12086
1974,33133,FLORIDA,MIAMI-DADE,10,FL,12086
1975,33134,FLORIDA,MIAMI-DADE,10,FL,12086
1976,33135,FLORIDA,MIAMI-DADE,10,FL,12086
1977,33136,FLORIDA,MIAMI-DADE,10,FL,12086
1978,33137,FLORIDA,MIAMI-DADE,10,FL,12086
1979,33138,FLORIDA,MIAMI-DADE,10,FL,12086
1980,33139,FLORIDA,MIAMI-DADE,10,FL,12086
1981,33140,FLORIDA,MIAMI-DADE,10,FL,12086
1982,33141,FLORIDA,MIAMI-DADE,10,FL,12086
1983,33142,FLORIDA,MIAMI-DADE,10,FL,12086
1984,33143,FLORIDA,MIAMI-DADE,10,FL,12086
1985,33144,FLORIDA,MIAMI-DADE,10,FL,12086
1986,33145,FLORIDA,MIAMI-DADE,10,FL,12086
1987,33146,FLORIDA,MIAMI-DADE,10,FL,12086
1988,33147,FLORIDA,MIAMI-DADE,10,FL,12086
1989,33149,FLORIDA,MIAMI-DADE,10,FL,12086
1990,33150,FLORIDA,MIAMI-DADE,10,FL,12086
1991,33152,FLORIDA,MIAMI-DADE,10,FL,12086
1992,33153,FLORIDA,MIAMI-DADE,10,FL,12086
1993,33154,FLORIDA,MIAMI-DADE,10,FL,12086
1994,33155,FLORIDA,MIAMI-DADE,10,FL,12086
1995,33156,FLORIDA,MIAMI-DADE,10,FL,12086
1996,33157,FLORIDA,MIAMI-DADE,10,FL,12086
1997,33158,FLORIDA,MIAMI-DADE,10,FL,12086
1998,33160,FLORIDA,MIAMI-DADE,10,FL,12086
1999,33161,FLORIDA,MIAMI-DADE,10,FL,12086
2000,33162,FLORIDA,MIAMI-DADE,10,FL,12086
2001,33163,FLORIDA,MIAMI-DADE,10,FL,12086
2002,33164,FLORIDA,MIAMI-DADE,10,FL,12086
2003,33165,FLORIDA,MIAMI-DADE,10,FL,12086
2004,33166,FLORIDA,MIAMI-DADE,10,FL,12086
2005,33167,FLORIDA,MIAMI-DADE,10,FL,12086
2006,33168,FLORIDA,MIAMI-DADE,10,FL,12086
2007,33169,FLORIDA,MIAMI-DADE,10,FL,12086
2008,33170,FLORIDA,MIAMI-DADE,10,FL,12086
2009,33172,FLORIDA,MIAMI-DADE,10,FL,12086
2010,33173,FLORIDA,MIAMI-DADE,10,FL,12086
2011,33174,FLORIDA,MIAMI-DADE,10,FL,12086
2012,33175,FLORIDA,MIAMI-DADE,10,FL,12086
2013,33176,FLORIDA,MIAMI-DADE,10,FL,12086
2014,33177,FLORIDA,MIAMI-DADE,10,FL,12086
2015,33178,FLORIDA,MIAMI-DADE,10,FL,12086
2016,33179,FLORIDA,MIAMI-DADE,10,FL,12086
2017,33180,FLORIDA,MIAMI-DADE,10,FL,12086
2018,33181,FLORIDA,MIAMI-DADE,10,FL,12086
2019,33182,FLORIDA,MIAMI-DADE,10,FL,12086
2020,33183,FLORIDA,MIAMI-DADE,10,FL,12086
2021,33184,FLORIDA,MIAMI-DADE,10,FL,12086
2022,33185,FLORIDA,MIAMI-DADE,10,FL,12086
2023,33186,FLORIDA,MIAMI-DADE,10,FL,12086
2024,33187,FLORIDA,MIAMI-DADE,10,FL,12086
2025,33189,FLORIDA,MIAMI-DADE,10,FL,12086
2026,33190,FLORIDA,MIAMI-DADE,10,FL,12086
2027,33191,FLORIDA,MIAMI-DADE,10,FL,12086
2028,33192,FLORIDA,MIAMI-DADE,10,FL,12086
2029,33193,FLORIDA,MIAMI-DADE,10,FL,12086
2030,33194,FLORIDA,MIAMI-DADE,10,FL,12086
2031,33195,FLORIDA,MIAMI-DADE,10,FL,12086
2032,33196,FLORIDA,MIAMI-DADE,10,FL,12086
2033,33197,FLORIDA,MIAMI-DADE,10,FL,12086
2034,33198,FLORIDA,MIAMI-DADE,10,FL,12086
2035,33199,FLORIDA,MIAMI-DADE,10,FL,12086
2036,33206,FLORIDA,MIAMI-DADE,10,FL,12086
2037,33222,FLORIDA,MIAMI-DADE,10,FL,12086
2038,33231,FLORIDA,MIAMI-DADE,10,FL,12086
2039,33233,FLORIDA,MIAMI-DADE,10,FL,12086
2040,33234,FLORIDA,MIAMI-DADE,10,FL,12086
2041,33238,FLORIDA,MIAMI-DADE,10,FL,12086
2042,33239,FLORIDA,MIAMI-DADE,10,FL,12086
2043,33242,FLORIDA,MIAMI-DADE,10,FL,12086
2044,33243,FLORIDA,MIAMI-DADE,10,FL,12086
2045,33245,FLORIDA,MIAMI-DADE,10,FL,12086
2046,33247,FLORIDA,MIAMI-DADE,10,FL,12086
2047,33255,FLORIDA,MIAMI-DADE,10,FL,12086
2048,33256,FLORIDA,MIAMI-DADE,10,FL,12086
2049,33257,FLORIDA,MIAMI-DADE,10,FL,12086
2050,33261,FLORIDA,MIAMI-DADE,10,FL,12086
2051,33265,FLORIDA,MIAMI-DADE,10,FL,12086
2052,33266,FLORIDA,MIAMI-DADE,10,FL,12086
2053,33269,FLORIDA,MIAMI-DADE,10,FL,12086
2054,33280,FLORIDA,MIAMI-DADE,10,FL,12086
2055,33283,FLORIDA,MIAMI-DADE,10,FL,12086
2056,33296,FLORIDA,MIAMI-DADE,10,FL,12086
2057,33301,FLORIDA,BROWARD,5,FL,12011
2058,33302,FLORIDA,BROWARD,5,FL,12011
2059,33303,FLORIDA,BROWARD,5,FL,12011
2060,33304,FLORIDA,BROWARD,5,FL,12011
2061,33305,FLORIDA,BROWARD,5,FL,12011
2062,33306,FLORIDA,BROWARD,5,FL,12011
2063,33307,FLORIDA,BROWARD,5,FL,12011
2064,33308,FLORIDA,BROWARD,5,FL,12011
2065,33309,FLORIDA,BROWARD,5,FL,12011
2066,33310,FLORIDA,BROWARD,5,FL,12011
2067,33311,FLORIDA,BROWARD,5,FL,12011
2068,33312,FLORIDA,BROWARD,5,FL,12011
2069,33313,FLORIDA,BROWARD,5,FL,12011
2070,33314,FLORIDA,BROWARD,5,FL,12011
2071,33315,FLORIDA,BROWARD,5,FL,12011
2072,33316,FLORIDA,BROWARD,5,FL,12011
2073,33317,FLORIDA,BROWARD,5,FL,12011
2074,33318,FLORIDA,BROWARD,5,FL,12011
2075,33319,FLORIDA,BROWARD,5,FL,12011
2076,33320,FLORIDA,BROWARD,5,FL,12011
2077,33321,FLORIDA,BROWARD,5,FL,12011
2078,33322,FLORIDA,BROWARD,5,FL,12011
2079,33323,FLORIDA,BROWARD,5,FL,12011
2080,33324,FLORIDA,BROWARD,5,FL,12011
2081,33325,FLORIDA,BROWARD,5,FL,12011
2082,33326,FLORIDA,BROWARD,5,FL,12011
2083,33327,FLORIDA,BROWARD,5,FL,12011
2084,33328,FLORIDA,BROWARD,5,FL,12011
2085,33329,FLORIDA,BROWARD,5,FL,12011
2086,33330,FLORIDA,BROWARD,5,FL,12011
2087,33331,FLORIDA,BROWARD,5,FL,12011
2088,33332,FLORIDA,BROWARD,5,FL,12011
2089,33334,FLORIDA,BROWARD,5,FL,12011
2090,33335,FLORIDA,BROWARD,5,FL,12011
2091,33338,FLORIDA,BROWARD,5,FL,12011
2092,33339,FLORIDA,BROWARD,5,FL,12011
2093,33345,FLORIDA,BROWARD,5,FL,12011
2094,33346,FLORIDA,BROWARD,5,FL,12011
2095,33348,FLORIDA,BROWARD,5,FL,12011
2096,33351,FLORIDA,BROWARD,5,FL,12011
2097,33355,FLORIDA,BROWARD,5,FL,12011
2098,33359,FLORIDA,BROWARD,5,FL,12011
2099,33388,FLORIDA,BROWARD,5,FL,12011
2100,33394,FLORIDA,BROWARD,5,FL,12011
2101,33401,FLORIDA,PALM BEACH,5,FL,12099
2102,33402,FLORIDA,PALM BEACH,5,FL,12099
2103,33403,FLORIDA,PALM BEACH,5,FL,12099
2104,33404,FLORIDA,PALM BEACH,5,FL,12099
2105,33405,FLORIDA,PALM BEACH,5,FL,12099
2106,33406,FLORIDA,PALM BEACH,5,FL,12099
2107,33407,FLORIDA,PALM BEACH,5,FL,12099
2108,33408,FLORIDA,PALM BEACH,5,FL,12099
2109,33409,FLORIDA,PALM BEACH,5,FL,12099
2110,33410,FLORIDA,PALM BEACH,5,FL,12099
2111,33411,FLORIDA,PALM BEACH,5,FL,12099
2112,33412,FLORIDA,PALM BEACH,5,FL,12099
2113,33413,FLORIDA,PALM BEACH,5,FL,12099
2114,33414,FLORIDA,PALM BEACH,5,FL,12099
2115,33415,FLORIDA,PALM BEACH,5,FL,12099
2116,33416,FLORIDA,PALM BEACH,5,FL,12099
2117,33417,FLORIDA,PALM BEACH,5,FL,12099
2118,33418,FLORIDA,PALM BEACH,5,FL,12099
2119,33419,FLORIDA,PALM BEACH,5,FL,12099
2120,33420,FLORIDA,PALM BEACH,5,FL,12099
2121,33421,FLORIDA,PALM BEACH,5,FL,12099
2122,33422,FLORIDA,PALM BEACH,5,FL,12099
2123,33424,FLORIDA,PALM BEACH,5,FL,12099
2124,33425,FLORIDA,PALM BEACH,5,FL,12099
2125,33426,FLORIDA,PALM BEACH,5,FL,12099
2126,33427,FLORIDA,PALM BEACH,5,FL,12099
2127,33428,FLORIDA,PALM BEACH,5,FL,12099
2128,33429,FLORIDA,PALM BEACH,5,FL,12099
2129,33430,FLORIDA,PALM BEACH,5,FL,12099
2130,33431,FLORIDA,PALM BEACH,5,FL,12099
2131,33432,FLORIDA,PALM BEACH,5,FL,12099
2132,33433,FLORIDA,PALM BEACH,5,FL,12099
2133,33434,FLORIDA,PALM BEACH,5,FL,12099
2134,33435,FLORIDA,PALM BEACH,5,FL,12099
2135,33436,FLORIDA,PALM BEACH,5,FL,12099
2136,33437,FLORIDA,PALM BEACH,5,FL,12099
2137,33438,FLORIDA,PALM BEACH,5,FL,12099
2138,33440,FLORIDA,PALM BEACH,5,FL,12099
2139,33441,FLORIDA,BROWARD,5,FL,12011
2140,33442,FLORIDA,BROWARD,5,FL,12011
2141,33443,FLORIDA,BROWARD,5,FL,12011
2142,33444,FLORIDA,PALM BEACH,5,FL,12099
2143,33445,FLORIDA,PALM BEACH,5,FL,12099
2144,33446,FLORIDA,PALM BEACH,5,FL,12099
2145,33448,FLORIDA,PALM BEACH,5,FL,12099
2146,33449,FLORIDA,PALM BEACH,5,FL,12099
2147,33454,FLORIDA,PALM BEACH,5,FL,12099
2148,33458,FLORIDA,PALM BEACH,5,FL,12099
2149,33459,FLORIDA,PALM BEACH,5,FL,12099
2150,33460,FLORIDA,PALM BEACH,5,FL,12099
2151,33461,FLORIDA,PALM BEACH,5,FL,12099
2152,33462,FLORIDA,PALM BEACH,5,FL,12099
2153,33463,FLORIDA,PALM BEACH,5,FL,12099
2154,33464,FLORIDA,PALM BEACH,5,FL,12099
2155,33465,FLORIDA,PALM BEACH,5,FL,12099
2156,33466,FLORIDA,PALM BEACH,5,FL,12099
2157,33467,FLORIDA,PALM BEACH,5,FL,12099
2158,33468,FLORIDA,PALM BEACH,5,FL,12099
2159,33469,FLORIDA,PALM BEACH,5,FL,12099
2160,33470,FLORIDA,PALM BEACH,5,FL,12099
2161,33471,FLORIDA,CLAY,1,FL,12051
2162,33472,FLORIDA,PALM BEACH,5,FL,12099
2163,33473,FLORIDA,PALM BEACH,5,FL,12099
2164,33474,FLORIDA,PALM BEACH,5,FL,12099
2165,33476,FLORIDA,PALM BEACH,5,FL,12099
2166,33477,FLORIDA,PALM BEACH,5,FL,12099
2167,33478,FLORIDA,PALM BEACH,5,FL,12099
2168,33480,FLORIDA,PALM BEACH,5,FL,12099
2169,33481,FLORIDA,PALM BEACH,5,FL,12099
2170,33482,FLORIDA,PALM BEACH,5,FL,12099
2171,33483,FLORIDA,PALM BEACH,5,FL,12099
2172,33484,FLORIDA,PALM BEACH,5,FL,12099
2173,33486,FLORIDA,PALM BEACH,5,FL,12099
2174,33487,FLORIDA,PALM BEACH,5,FL,12099
2175,33488,FLORIDA,PALM BEACH,5,FL,12099
2176,33493,FLORIDA,PALM BEACH,5,FL,12099
2177,33496,FLORIDA,PALM BEACH,5,FL,12099
2178,33497,FLORIDA,PALM BEACH,5,FL,12099
2179,33498,FLORIDA,PALM BEACH,5,FL,12099
2180,33499,FLORIDA,PALM BEACH,5,FL,12099
2181,33930,FLORIDA,CLAY,1,FL,12051
2182,33935,FLORIDA,CLAY,1,FL,12051
2183,33936,FLORIDA,CLAY,1,FL,12051
2184,33975,FLORIDA,CLAY,1,FL,12051
2185,34142,FLORIDA,CLAY,1,FL,12051
2186,34223,FLORIDA,INDIAN RIVER,1,FL,12115
2187,34224,FLORIDA,INDIAN RIVER,1,FL,12115
2188,34228,FLORIDA,INDIAN RIVER,1,FL,12115
2189,34229,FLORIDA,INDIAN RIVER,1,FL,12115
2190,34230,FLORIDA,INDIAN RIVER,1,FL,12115
2191,34231,FLORIDA,INDIAN RIVER,1,FL,12115
2192,34232,FLORIDA,INDIAN RIVER,1,FL,12115
2193,34233,FLORIDA,INDIAN RIVER,1,FL,12115
2194,34234,FLORIDA,INDIAN RIVER,1,FL,12115
2195,34235,FLORIDA,INDIAN RIVER,1,FL,12115
2196,34236,FLORIDA,INDIAN RIVER,1,FL,12115
2197,34237,FLORIDA,INDIAN RIVER,1,FL,12115
2198,34238,FLORIDA,INDIAN RIVER,1,FL,12115
2199,34239,FLORIDA,INDIAN RIVER,1,FL,12115
2200,34240,FLORIDA,INDIAN RIVER,1,FL,12115
2201,34241,FLORIDA,INDIAN RIVER,1,FL,12115
2202,34242,FLORIDA,INDIAN RIVER,1,FL,12115
2203,34243,FLORIDA,INDIAN RIVER,1,FL,12115
2204,34249,FLORIDA,INDIAN RIVER,1,FL,12115
2205,34251,FLORIDA,INDIAN RIVER,1,FL,12115
2206,34266,FLORIDA,INDIAN RIVER,1,FL,12115
2207,34272,FLORIDA,INDIAN RIVER,1,FL,12115
2208,34274,FLORIDA,INDIAN RIVER,1,FL,12115
2209,34275,FLORIDA,INDIAN RIVER,1,FL,12115
2210,34276,FLORIDA,INDIAN RIVER,1,FL,12115
2211,34277,FLORIDA,INDIAN RIVER,1,FL,12115
2212,34284,FLORIDA,INDIAN RIVER,1,FL,12115
2213,34285,FLORIDA,INDIAN RIVER,1,FL,12115
2214,34286,FLORIDA,INDIAN RIVER,1,FL,12115
2215,34287,FLORIDA,INDIAN RIVER,1,FL,12115
2216,34288,FLORIDA,INDIAN RIVER,1,FL,12115
2217,34289,FLORIDA,INDIAN RIVER,1,FL,12115
2218,34290,FLORIDA,INDIAN RIVER,1,FL,12115
2219,34291,FLORIDA,INDIAN RIVER,1,FL,12115
2220,34292,FLORIDA,INDIAN RIVER,1,FL,12115
2221,34293,FLORIDA,INDIAN RIVER,1,FL,12115
2222,34295,FLORIDA,INDIAN RIVER,1,FL,12115
2223,34423,FLORIDA,BAY,3,FL,12017
2224,34428,FLORIDA,BAY,3,FL,12017
2225,34429,FLORIDA,BAY,3,FL,12017
2226,34433,FLORIDA,BAY,3,FL,12017
2227,34434,FLORIDA,BAY,3,FL,12017
2228,34436,FLORIDA,BAY,3,FL,12017
2229,34441,FLORIDA,BAY,3,FL,12017
2230,34442,FLORIDA,BAY,3,FL,12017
2231,34445,FLORIDA,BAY,3,FL,12017
2232,34446,FLORIDA,BAY,3,FL,12017
2233,34447,FLORIDA,BAY,3,FL,12017
2234,34448,FLORIDA,BAY,3,FL,12017
2235,34449,FLORIDA,BAY,3,FL,12017
2236,34450,FLORIDA,BAY,3,FL,12017
2237,34451,FLORIDA,BAY,3,FL,12017
2238,34452,FLORIDA,BAY,3,FL,12017
2239,34453,FLORIDA,BAY,3,FL,12017
2240,34460,FLORIDA,BAY,3,FL,12017
2241,34461,FLORIDA,BAY,3,FL,12017
2242,34464,FLORIDA,BAY,3,FL,12017
2243,34465,FLORIDA,BAY,3,FL,12017
2244,34487,FLORIDA,BAY,3,FL,12017
2245,34601,FLORIDA,BAY,3,FL,12017
2246,34705,FLORIDA,COLLIER,8,FL,12069
2247,34711,FLORIDA,COLLIER,8,FL,12069
2248,34712,FLORIDA,COLLIER,8,FL,12069
2249,34713,FLORIDA,COLLIER,8,FL,12069
2250,34714,FLORIDA,COLLIER,8,FL,12069
2251,34715,FLORIDA,COLLIER,8,FL,12069
2252,34729,FLORIDA,COLLIER,8,FL,12069
2253,34731,FLORIDA,COLLIER,8,FL,12069
2254,34736,FLORIDA,COLLIER,8,FL,12069
2255,34737,FLORIDA,COLLIER,8,FL,12069
2256,34748,FLORIDA,COLLIER,8,FL,12069
2257,34749,FLORIDA,COLLIER,8,FL,12069
2258,34753,FLORIDA,COLLIER,8,FL,12069
2259,34755,FLORIDA,COLLIER,8,FL,12069
2260,34756,FLORIDA,COLLIER,8,FL,12069
2261,34762,FLORIDA,COLLIER,8,FL,12069
2262,34787,FLORIDA,COLLIER,8,FL,12069
2263,34788,FLORIDA,COLLIER,8,FL,12069
2264,34789,FLORIDA,COLLIER,8,FL,12069
2265,34797,FLORIDA,COLLIER,8,FL,12069
2266,35443,ALABAMA,LOWER MOBILE,7,AL,1063
2267,35448,ALABAMA,LOWER MOBILE,7,AL,1063
2268,35462,ALABAMA,LOWER MOBILE,7,AL,1063
2269,35463,ALABAMA,LOWER MOBILE,7,AL,1063
2270,35464,ALABAMA,LOWER MOBILE,7,AL,1063
2271,35469,ALABAMA,LOWER MOBILE,7,AL,1063
2272,35480,ALABAMA,LOWER MOBILE,7,AL,1063
2273,35491,ALABAMA,LOWER MOBILE,7,AL,1063
2274,36480,ALABAMA,BALDWIN,4,AL,1003
2275,36502,ALABAMA,BALDWIN,4,AL,1003
2276,36505,ALABAMA,MOBILE,14,AL,1097
2277,36507,ALABAMA,BALDWIN,4,AL,1003
2278,36509,ALABAMA,MOBILE,14,AL,1097
2279,36511,ALABAMA,BALDWIN,4,AL,1003
2280,36512,ALABAMA,MOBILE,14,AL,1097
2281,36521,ALABAMA,MOBILE,14,AL,1097
2282,36522,ALABAMA,MOBILE,14,AL,1097
2283,36523,ALABAMA,MOBILE,14,AL,1097
2284,36525,ALABAMA,MOBILE,14,AL,1097
2285,36526,ALABAMA,BALDWIN,4,AL,1003
2286,36527,ALABAMA,BALDWIN,4,AL,1003
2287,36528,ALABAMA,MOBILE,14,AL,1097
2288,36530,ALABAMA,BALDWIN,4,AL,1003
2289,36532,ALABAMA,BALDWIN,4,AL,1003
2290,36533,ALABAMA,BALDWIN,4,AL,1003
2291,36535,ALABAMA,BALDWIN,4,AL,1003
2292,36536,ALABAMA,BALDWIN,4,AL,1003
2293,36541,ALABAMA,MOBILE,14,AL,1097
2294,36542,ALABAMA,BALDWIN,4,AL,1003
2295,36544,ALABAMA,MOBILE,14,AL,1097
2296,36547,ALABAMA,BALDWIN,4,AL,1003
2297,36549,ALABAMA,BALDWIN,4,AL,1003
2298,36550,ALABAMA,BALDWIN,4,AL,1003
2299,36551,ALABAMA,BALDWIN,4,AL,1003
2300,36555,ALABAMA,BALDWIN,4,AL,1003
2301,36559,ALABAMA,BALDWIN,4,AL,1003
2302,36560,ALABAMA,MOBILE,14,AL,1097
2303,36561,ALABAMA,BALDWIN,4,AL,1003
2304,36562,ALABAMA,BALDWIN,4,AL,1003
2305,36564,ALABAMA,BALDWIN,4,AL,1003
2306,36567,ALABAMA,BALDWIN,4,AL,1003
2307,36568,ALABAMA,MOBILE,14,AL,1097
2308,36571,ALABAMA,MOBILE,14,AL,1097
2309,36572,ALABAMA,MOBILE,14,AL,1097
2310,36574,ALABAMA,BALDWIN,4,AL,1003
2311,36575,ALABAMA,MOBILE,14,AL,1097
2312,36576,ALABAMA,BALDWIN,4,AL,1003
2313,36577,ALABAMA,BALDWIN,4,AL,1003
2314,36578,ALABAMA,BALDWIN,4,AL,1003
2315,36579,ALABAMA,BALDWIN,4,AL,1003
2316,36580,ALABAMA,BALDWIN,4,AL,1003
2317,36582,ALABAMA,MOBILE,14,AL,1097
2318,36587,ALABAMA,MOBILE,14,AL,1097
2319,36590,ALABAMA,MOBILE,14,AL,1097
2320,36601,ALABAMA,MOBILE,14,AL,1097
2321,36602,ALABAMA,MOBILE,14,AL,1097
2322,36603,ALABAMA,MOBILE,14,AL,1097
2323,36604,ALABAMA,MOBILE,14,AL,1097
2324,36605,ALABAMA,MOBILE,14,AL,1097
2325,36606,ALABAMA,MOBILE,14,AL,1097
2326,36607,ALABAMA,MOBILE,14,AL,1097
2327,36608,ALABAMA,MOBILE,14,AL,1097
2328,36609,ALABAMA,MOBILE,14,AL,1097
2329,36610,ALABAMA,MOBILE,14,AL,1097
2330,36611,ALABAMA,MOBILE,14,AL,1097
2331,36612,ALABAMA,MOBILE,14,AL,1097
2332,36613,ALABAMA,MOBILE,14,AL,1097
2333,36615,ALABAMA,MOBILE,14,AL,1097
2334,36616,ALABAMA,MOBILE,14,AL,1097
2335,36617,ALABAMA,MOBILE,14,AL,1097
2336,36618,ALABAMA,MOBILE,14,AL,1097
2337,36619,ALABAMA,MOBILE,14,AL,1097
2338,36633,ALABAMA,MOBILE,14,AL,1097
2339,36640,ALABAMA,MOBILE,14,AL,1097
2340,36644,ALABAMA,MOBILE,14,AL,1097
2341,36652,ALABAMA,MOBILE,14,AL,1097
2342,36660,ALABAMA,MOBILE,14,AL,1097
2343,36663,ALABAMA,MOBILE,14,AL,1097
2344,36670,ALABAMA,MOBILE,14,AL,1097
2345,36671,ALABAMA,MOBILE,14,AL,1097
2346,36675,ALABAMA,MOBILE,14,AL,1097
2347,36685,ALABAMA,MOBILE,14,AL,1097
2348,36688,ALABAMA,MOBILE,14,AL,1097
2349,36689,ALABAMA,MOBILE,14,AL,1097
2350,36691,ALABAMA,MOBILE,14,AL,1097
2351,36693,ALABAMA,MOBILE,14,AL,1097
2352,36695,ALABAMA,MOBILE,14,AL,1097
2353,36740,ALABAMA,LOWER MOBILE,7,AL,1063
2354,38721,MISSISSIPPI,HANCOCK,11,MS,28125
2355,38748,MISSISSIPPI,HANCOCK,11,MS,28125
2356,38765,MISSISSIPPI,HANCOCK,11,MS,28125
2357,38827,MISSISSIPPI,JACKSON,1,MS,28141
2358,38833,MISSISSIPPI,JACKSON,1,MS,28141
2359,38838,MISSISSIPPI,JACKSON,1,MS,28141
2360,38846,MISSISSIPPI,JACKSON,1,MS,28141
2361,38847,MISSISSIPPI,JACKSON,1,MS,28141
2362,38852,MISSISSIPPI,JACKSON,1,MS,28141
2363,38873,MISSISSIPPI,JACKSON,1,MS,28141
2364,39054,MISSISSIPPI,HANCOCK,11,MS,28125
2365,39061,MISSISSIPPI,HANCOCK,11,MS,28125
2366,39159,MISSISSIPPI,HANCOCK,11,MS,28125
2367,43001,OHIO,ASHTABULA,1,OH,39089
2368,43004,OHIO,ASHTABULA,1,OH,39089
2369,43008,OHIO,ASHTABULA,1,OH,39089
2370,43011,OHIO,ASHTABULA,1,OH,39089
2371,43013,OHIO,ASHTABULA,1,OH,39089
2372,43018,OHIO,ASHTABULA,1,OH,39089
2373,43023,OHIO,ASHTABULA,1,OH,39089
2374,43025,OHIO,ASHTABULA,1,OH,39089
2375,43026,OHIO,LAKE,1,OH,39097
2376,43027,OHIO,ASHTABULA,1,OH,39089
2377,43029,OHIO,LAKE,1,OH,39097
2378,43030,OHIO,ASHTABULA,1,OH,39089
2379,43031,OHIO,ASHTABULA,1,OH,39089
2380,43033,OHIO,ASHTABULA,1,OH,39089
2381,43044,OHIO,LAKE,1,OH,39097
2382,43046,OHIO,ASHTABULA,1,OH,39089
2383,43050,OHIO,ASHTABULA,1,OH,39089
2384,43054,OHIO,ASHTABULA,1,OH,39089
2385,43055,OHIO,ASHTABULA,1,OH,39089
2386,43056,OHIO,ASHTABULA,1,OH,39089
2387,43058,OHIO,ASHTABULA,1,OH,39089
2388,43062,OHIO,ASHTABULA,1,OH,39089
2389,43064,OHIO,LAKE,1,OH,39097
2390,43068,OHIO,ASHTABULA,1,OH,39089
2391,43071,OHIO,ASHTABULA,1,OH,39089
2392,43073,OHIO,ASHTABULA,1,OH,39089
2393,43074,OHIO,ASHTABULA,1,OH,39089
2394,43076,OHIO,ASHTABULA,1,OH,39089
2395,43080,OHIO,ASHTABULA,1,OH,39089
2396,43105,OHIO,ASHTABULA,1,OH,39089
2397,43119,OHIO,LAKE,1,OH,39097
2398,43123,OHIO,LAKE,1,OH,39097
2399,43140,OHIO,LAKE,1,OH,39097
2400,43143,OHIO,LAKE,1,OH,39097
2401,43146,OHIO,LAKE,1,OH,39097
2402,43147,OHIO,ASHTABULA,1,OH,39089
2403,43151,OHIO,LAKE,1,OH,39097
2404,43153,OHIO,LAKE,1,OH,39097
2405,43162,OHIO,LAKE,1,OH,39097
2406,43721,OHIO,ASHTABULA,1,OH,39089
2407,43739,OHIO,ASHTABULA,1,OH,39089
2408,43740,OHIO,ASHTABULA,1,OH,39089
2409,43746,OHIO,ASHTABULA,1,OH,39089
2410,43760,OHIO,ASHTABULA,1,OH,39089
2411,43822,OHIO,ASHTABULA,1,OH,39089
2412,43830,OHIO,ASHTABULA,1,OH,39089
2413,45369,OHIO,LAKE,1,OH,39097
2414,47612,INDIANA,PORTER,1,IN,18129
2415,47616,INDIANA,PORTER,1,IN,18129
2416,47620,INDIANA,PORTER,1,IN,18129
2417,47631,INDIANA,PORTER,1,IN,18129
2418,47633,INDIANA,PORTER,1,IN,18129
2419,47638,INDIANA,PORTER,1,IN,18129
2420,47712,INDIANA,PORTER,1,IN,18129
2421,47720,INDIANA,PORTER,1,IN,18129
2422,55785,MINNESOTA,SOUTHERN COOK,1,MN,27021
2423,56401,MINNESOTA,SOUTHERN COOK,1,MN,27021
2424,56433,MINNESOTA,SOUTHERN COOK,1,MN,27021
2425,56435,MINNESOTA,SOUTHERN COOK,1,MN,27021
2426,56448,MINNESOTA,SOUTHERN COOK,1,MN,27021
2427,56452,MINNESOTA,SOUTHERN COOK,1,MN,27021
2428,56461,MINNESOTA,SOUTHERN COOK,1,MN,27021
2429,56464,MINNESOTA,SOUTHERN COOK,1,MN,27021
2430,56466,MINNESOTA,SOUTHERN COOK,1,MN,27021
2431,56468,MINNESOTA,SOUTHERN COOK,1,MN,27021
2432,56472,MINNESOTA,SOUTHERN COOK,1,MN,27021
2433,56473,MINNESOTA,SOUTHERN COOK,1,MN,27021
2434,56474,MINNESOTA,SOUTHERN COOK,1,MN,27021
2435,56477,MINNESOTA,SOUTHERN COOK,1,MN,27021
2436,56479,MINNESOTA,SOUTHERN COOK,1,MN,27021
2437,56481,MINNESOTA,SOUTHERN COOK,1,MN,27021
2438,56484,MINNESOTA,SOUTHERN COOK,1,MN,27021
2439,56626,MINNESOTA,SOUTHERN COOK,1,MN,27021
2440,56633,MINNESOTA,SOUTHERN COOK,1,MN,27021
2441,56636,MINNESOTA,SOUTHERN COOK,1,MN,27021
2442,56641,MINNESOTA,SOUTHERN COOK,1,MN,27021
2443,56655,MINNESOTA,SOUTHERN COOK,1,MN,27021
2444,56662,MINNESOTA,SOUTHERN COOK,1,MN,27021
2445,56672,MINNESOTA,SOUTHERN COOK,1,MN,27021
2446,61810,ILLINOIS,COOK,2,IL,17045
2447,61850,ILLINOIS,COOK,2,IL,17045
2448,61870,ILLINOIS,COOK,2,IL,17045
2449,61876,ILLINOIS,COOK,2,IL,17045
2450,61917,ILLINOIS,COOK,2,IL,17045
2451,61924,ILLINOIS,COOK,2,IL,17045
2452,61932,ILLINOIS,COOK,2,IL,17045
2453,61933,ILLINOIS,COOK,2,IL,17045
2454,61940,ILLINOIS,COOK,2,IL,17045
2455,61942,ILLINOIS,COOK,2,IL,17045
2456,61943,ILLINOIS,COOK,2,IL,17045
2457,61944,ILLINOIS,COOK,2,IL,17045
2458,61949,ILLINOIS,COOK,2,IL,17045
2459,61955,ILLINOIS,COOK,2,IL,17045
2460,62423,ILLINOIS,COOK,2,IL,17045
2461,62441,ILLINOIS,COOK,2,IL,17045
2462,70510,LOUISIANA,LIVINGSTON,1,LA,22113
2463,70526,LOUISIANA,LIVINGSTON,1,LA,22113
2464,70528,LOUISIANA,LIVINGSTON,1,LA,22113
2465,70529,LOUISIANA,LIVINGSTON,1,LA,22113
2466,70533,LOUISIANA,LIVINGSTON,1,LA,22113
2467,70542,LOUISIANA,LIVINGSTON,1,LA,22113
2468,70548,LOUISIANA,LIVINGSTON,1,LA,22113
2469,70555,LOUISIANA,LIVINGSTON,1,LA,22113
2470,70560,LOUISIANA,LIVINGSTON,1,LA,22113
2471,70575,LOUISIANA,LIVINGSTON,1,LA,22113
2472,70578,LOUISIANA,LIVINGSTON,1,LA,22113
2473,70592,LOUISIANA,LIVINGSTON,1,LA,22113
2474,71001,LOUISIANA,JEFFERSON,1,LA,22061
2475,71002,LOUISIANA,LOWER PLAQUEMINES,1,LA,22069
2476,71003,LOUISIANA,JEFFERSON,1,LA,22061
2477,71016,LOUISIANA,LOWER PLAQUEMINES,1,LA,22069
2478,71019,LOUISIANA,LOWER PLAQUEMINES,1,LA,22069
2479,71031,LOUISIANA,LOWER PLAQUEMINES,1,LA,22069
2480,71063,LOUISIANA,LOWER PLAQUEMINES,1,LA,22069
2481,71065,LOUISIANA,LOWER PLAQUEMINES,1,LA,22069
2482,71066,LOUISIANA,LOWER PLAQUEMINES,1,LA,22069
2483,71070,LOUISIANA,LOWER PLAQUEMINES,1,LA,22069
2484,71201,LOUISIANA,EAST CAMERON,12,LA,22073
2485,71202,LOUISIANA,EAST CAMERON,12,LA,22073
2486,71203,LOUISIANA,EAST CAMERON,12,LA,22073
2487,71207,LOUISIANA,EAST CAMERON,12,LA,22073
2488,71209,LOUISIANA,EAST CAMERON,12,LA,22073
2489,71210,LOUISIANA,EAST CAMERON,12,LA,22073
2490,71211,LOUISIANA,EAST CAMERON,12,LA,22073
2491,71212,LOUISIANA,EAST CAMERON,12,LA,22073
2492,71213,LOUISIANA,EAST CAMERON,12,LA,22073
2493,71220,LOUISIANA,LAFOURCHE,3,LA,22067
2494,71223,LOUISIANA,LAFOURCHE,3,LA,22067
2495,71225,LOUISIANA,EAST CAMERON,12,LA,22073
2496,71227,LOUISIANA,EAST CAMERON,12,LA,22073
2497,71229,LOUISIANA,EAST CAMERON,12,LA,22073
2498,71232,LOUISIANA,UPPER TERREBONNE,1,LA,22065
2499,71233,LOUISIANA,UPPER TERREBONNE,1,LA,22065
2500,71234,LOUISIANA,EAST CAMERON,12,LA,22073
2501,71235,LOUISIANA,JEFFERSON,1,LA,22061
2502,71237,LOUISIANA,UPPER TERREBONNE,1,LA,22065
2503,71238,LOUISIANA,EAST CAMERON,12,LA,22073
2504,71240,LOUISIANA,EAST CAMERON,12,LA,22073
2505,71241,LOUISIANA,JEFFERSON,1,LA,22061
2506,71245,LOUISIANA,JEFFERSON,1,LA,22061
2507,71250,LOUISIANA,LAFOURCHE,3,LA,22067
2508,71261,LOUISIANA,LAFOURCHE,3,LA,22067
2509,71264,LOUISIANA,LAFOURCHE,3,LA,22067
2510,71269,LOUISIANA,LAFOURCHE,3,LA,22067
2511,71270,LOUISIANA,JEFFERSON,1,LA,22061
2512,71272,LOUISIANA,JEFFERSON,1,LA,22061
2513,71273,LOUISIANA,JEFFERSON,1,LA,22061
2514,71275,LOUISIANA,JEFFERSON,1,LA,22061
2515,71276,LOUISIANA,UPPER TERREBONNE,1,LA,22065
2516,71280,LOUISIANA,EAST CAMERON,12,LA,22073
2517,71281,LOUISIANA,EAST CAMERON,12,LA,22073
2518,71282,LOUISIANA,UPPER TERREBONNE,1,LA,22065
2519,71291,LOUISIANA,EAST CAMERON,12,LA,22073
2520,71292,LOUISIANA,EAST CAMERON,12,LA,22073
2521,71294,LOUISIANA,EAST CAMERON,12,LA,22073
2522,71411,LOUISIANA,LOWER PLAQUEMINES,1,LA,22069
2523,71414,LOUISIANA,LOWER PLAQUEMINES,1,LA,22069
2524,71416,LOUISIANA,LOWER PLAQUEMINES,1,LA,22069
2525,71418,LOUISIANA,EAST CAMERON,12,LA,22073
2526,71427,LOUISIANA,LOWER PLAQUEMINES,1,LA,22069
2527,71428,LOUISIANA,LOWER PLAQUEMINES,1,LA,22069
2528,71434,LOUISIANA,LOWER PLAQUEMINES,1,LA,22069
2529,71447,LOUISIANA,LOWER PLAQUEMINES,1,LA,22069
2530,71450,LOUISIANA,LOWER PLAQUEMINES,1,LA,22069
2531,71452,LOUISIANA,LOWER PLAQUEMINES,1,LA,22069
2532,71455,LOUISIANA,LOWER PLAQUEMINES,1,LA,22069
2533,71456,LOUISIANA,LOWER PLAQUEMINES,1,LA,22069
2534,71457,LOUISIANA,LOWER PLAQUEMINES,1,LA,22069
2535,71458,LOUISIANA,LOWER PLAQUEMINES,1,LA,22069
2536,71468,LOUISIANA,LOWER PLAQUEMINES,1,LA,22069
2537,71469,LOUISIANA,LOWER PLAQUEMINES,1,LA,22069
2538,71497,LOUISIANA,LOWER PLAQUEMINES,1,LA,22069
2539,75032,TEXAS,CAMERON,1,TX,48257
2540,75114,TEXAS,CAMERON,1,TX,48257
2541,75118,TEXAS,CAMERON,1,TX,48257
2542,75126,TEXAS,CAMERON,1,TX,48257
2543,75142,TEXAS,CAMERON,1,TX,48257
2544,75143,TEXAS,CAMERON,1,TX,48257
2545,75147,TEXAS,CAMERON,1,TX,48257
2546,75156,TEXAS,CAMERON,1,TX,48257
2547,75157,TEXAS,CAMERON,1,TX,48257
2548,75158,TEXAS,CAMERON,1,TX,48257
2549,75159,TEXAS,CAMERON,1,TX,48257
2550,75160,TEXAS,CAMERON,1,TX,48257
2551,75161,TEXAS,CAMERON,1,TX,48257
2552,75169,TEXAS,CAMERON,1,TX,48257
2553,75182,TEXAS,CAMERON,1,TX,48257
2554,75474,TEXAS,CAMERON,1,TX,48257
2555,75929,TEXAS,GALVESTON,13,TX,48405
2556,75930,TEXAS,GALVESTON,13,TX,48405
2557,75935,TEXAS,GALVESTON,13,TX,48405
2558,75961,TEXAS,GALVESTON,13,TX,48405
2559,75972,TEXAS,GALVESTON,13,TX,48405
2560,77964,TEXAS,CHAMBERS,4,TX,48285
2561,77975,TEXAS,CHAMBERS,4,TX,48285
2562,77984,TEXAS,CHAMBERS,4,TX,48285
2563,77986,TEXAS,CHAMBERS,4,TX,48285
2564,77987,TEXAS,CHAMBERS,4,TX,48285
2565,77995,TEXAS,CHAMBERS,4,TX,48285
2566,78941,TEXAS,CHAMBERS,4,TX,48285
2567,78956,TEXAS,CHAMBERS,4,TX,48285
2568,90001,CALIFORNIA,LOS ANGELES,1,CA,6037
2569,90002,CALIFORNIA,LOS ANGELES,1,CA,6037
2570,90003,CALIFORNIA,LOS ANGELES,1,CA,6037
2571,90004,CALIFORNIA,LOS ANGELES,1,CA,6037
2572,90005,CALIFORNIA,LOS ANGELES,1,CA,6037
2573,90006,CALIFORNIA,LOS ANGELES,1,CA,6037
2574,90007,CALIFORNIA,LOS ANGELES,1,CA,6037
2575,90008,CALIFORNIA,LOS ANGELES,1,CA,6037
2576,90009,CALIFORNIA,LOS ANGELES,1,CA,6037
2577,90010,CALIFORNIA,LOS ANGELES,1,CA,6037
2578,90011,CALIFORNIA,LOS ANGELES,1,CA,6037
2579,90012,CALIFORNIA,LOS ANGELES,1,CA,6037
2580,90013,CALIFORNIA,LOS ANGELES,1,CA,6037
2581,90014,CALIFORNIA,LOS ANGELES,1,CA,6037
2582,90015,CALIFORNIA,LOS ANGELES,1,CA,6037
2583,90016,CALIFORNIA,LOS ANGELES,1,CA,6037
2584,90017,CALIFORNIA,LOS ANGELES,1,CA,6037
2585,90018,CALIFORNIA,LOS ANGELES,1,CA,6037
2586,90019,CALIFORNIA,LOS ANGELES,1,CA,6037
2587,90020,CALIFORNIA,LOS ANGELES,1,CA,6037
2588,90021,CALIFORNIA,LOS ANGELES,1,CA,6037
2589,90022,CALIFORNIA,LOS ANGELES,1,CA,6037
2590,90023,CALIFORNIA,LOS ANGELES,1,CA,6037
2591,90024,CALIFORNIA,LOS ANGELES,1,CA,6037
2592,90025,CALIFORNIA,LOS ANGELES,1,CA,6037
2593,90026,CALIFORNIA,LOS ANGELES,1,CA,6037
2594,90027,CALIFORNIA,LOS ANGELES,1,CA,6037
2595,90028,CALIFORNIA,LOS ANGELES,1,CA,6037
2596,90029,CALIFORNIA,LOS ANGELES,1,CA,6037
2597,90030,CALIFORNIA,LOS ANGELES,1,CA,6037
2598,90031,CALIFORNIA,LOS ANGELES,1,CA,6037
2599,90032,CALIFORNIA,LOS ANGELES,1,CA,6037
2600,90033,CALIFORNIA,LOS ANGELES,1,CA,6037
2601,90034,CALIFORNIA,LOS ANGELES,1,CA,6037
2602,90035,CALIFORNIA,LOS ANGELES,1,CA,6037
2603,90036,CALIFORNIA,LOS ANGELES,1,CA,6037
2604,90037,CALIFORNIA,LOS ANGELES,1,CA,6037
2605,90038,CALIFORNIA,LOS ANGELES,1,CA,6037
2606,90039,CALIFORNIA,LOS ANGELES,1,CA,6037
2607,90040,CALIFORNIA,LOS ANGELES,1,CA,6037
2608,90041,CALIFORNIA,LOS ANGELES,1,CA,6037
2609,90042,CALIFORNIA,LOS ANGELES,1,CA,6037
2610,90043,CALIFORNIA,LOS ANGELES,1,CA,6037
2611,90044,CALIFORNIA,LOS ANGELES,1,CA,6037
2612,90045,CALIFORNIA,LOS ANGELES,1,CA,6037
2613,90046,CALIFORNIA,LOS ANGELES,1,CA,6037
2614,90047,CALIFORNIA,LOS ANGELES,1,CA,6037
2615,90048,CALIFORNIA,LOS ANGELES,1,CA,6037
2616,90049,CALIFORNIA,LOS ANGELES,1,CA,6037
2617,90050,CALIFORNIA,LOS ANGELES,1,CA,6037
2618,90051,CALIFORNIA,LOS ANGELES,1,CA,6037
2619,90052,CALIFORNIA,LOS ANGELES,1,CA,6037
2620,90053,CALIFORNIA,LOS ANGELES,1,CA,6037
2621,90054,CALIFORNIA,LOS ANGELES,1,CA,6037
2622,90055,CALIFORNIA,LOS ANGELES,1,CA,6037
2623,90056,CALIFORNIA,LOS ANGELES,1,CA,6037
2624,90057,CALIFORNIA,LOS ANGELES,1,CA,6037
2625,90058,CALIFORNIA,LOS ANGELES,1,CA,6037
2626,90059,CALIFORNIA,LOS ANGELES,1,CA,6037
2627,90060,CALIFORNIA,LOS ANGELES,1,CA,6037
2628,90061,CALIFORNIA,LOS ANGELES,1,CA,6037
2629,90062,CALIFORNIA,LOS ANGELES,1,CA,6037
2630,90063,CALIFORNIA,LOS ANGELES,1,CA,6037
2631,90064,CALIFORNIA,LOS ANGELES,1,CA,6037
2632,90065,CALIFORNIA,LOS ANGELES,1,CA,6037
2633,90066,CALIFORNIA,LOS ANGELES,1,CA,6037
2634,90067,CALIFORNIA,LOS ANGELES,1,CA,6037
2635,90068,CALIFORNIA,LOS ANGELES,1,CA,6037
2636,90069,CALIFORNIA,LOS ANGELES,1,CA,6037
2637,90070,CALIFORNIA,LOS ANGELES,1,CA,6037
2638,90071,CALIFORNIA,LOS ANGELES,1,CA,6037
2639,90072,CALIFORNIA,LOS ANGELES,1,CA,6037
2640,90073,CALIFORNIA,LOS ANGELES,1,CA,6037
2641,90074,CALIFORNIA,LOS ANGELES,1,CA,6037
2642,90075,CALIFORNIA,LOS ANGELES,1,CA,6037
2643,90076,CALIFORNIA,LOS ANGELES,1,CA,6037
2644,90077,CALIFORNIA,LOS ANGELES,1,CA,6037
2645,90078,CALIFORNIA,LOS ANGELES,1,CA,6037
2646,90079,CALIFORNIA,LOS ANGELES,1,CA,6037
2647,90081,CALIFORNIA,LOS ANGELES,1,CA,6037
2648,90082,CALIFORNIA,LOS ANGELES,1,CA,6037
2649,90083,CALIFORNIA,LOS ANGELES,1,CA,6037
2650,90084,CALIFORNIA,LOS ANGELES,1,CA,6037
2651,90086,CALIFORNIA,LOS ANGELES,1,CA,6037
2652,90087,CALIFORNIA,LOS ANGELES,1,CA,6037
2653,90089,CALIFORNIA,LOS ANGELES,1,CA,6037
2654,90090,CALIFORNIA,LOS ANGELES,1,CA,6037
2655,90091,CALIFORNIA,LOS ANGELES,1,CA,6037
2656,90093,CALIFORNIA,LOS ANGELES,1,CA,6037
2657,90094,CALIFORNIA,LOS ANGELES,1,CA,6037
2658,90095,CALIFORNIA,LOS ANGELES,1,CA,6037
2659,90099,CALIFORNIA,LOS ANGELES,1,CA,6037
2660,90201,CALIFORNIA,LOS ANGELES,1,CA,6037
2661,90202,CALIFORNIA,LOS ANGELES,1,CA,6037
2662,90209,CALIFORNIA,LOS ANGELES,1,CA,6037
2663,90210,CALIFORNIA,LOS ANGELES,1,CA,6037
2664,90211,CALIFORNIA,LOS ANGELES,1,CA,6037
2665,90212,CALIFORNIA,LOS ANGELES,1,CA,6037
2666,90213,CALIFORNIA,LOS ANGELES,1,CA,6037
2667,90220,CALIFORNIA,LOS ANGELES,1,CA,6037
2668,90221,CALIFORNIA,LOS ANGELES,1,CA,6037
2669,90222,CALIFORNIA,LOS ANGELES,1,CA,6037
2670,90223,CALIFORNIA,LOS ANGELES,1,CA,6037
2671,90224,CALIFORNIA,LOS ANGELES,1,CA,6037
2672,90230,CALIFORNIA,LOS ANGELES,1,CA,6037
2673,90231,CALIFORNIA,LOS ANGELES,1,CA,6037
2674,90232,CALIFORNIA,LOS ANGELES,1,CA,6037
2675,90239,CALIFORNIA,LOS ANGELES,1,CA,6037
2676,90240,CALIFORNIA,LOS ANGELES,1,CA,6037
2677,90241,CALIFORNIA,LOS ANGELES,1,CA,6037
2678,90242,CALIFORNIA,LOS ANGELES,1,CA,6037
2679,90245,CALIFORNIA,LOS ANGELES,1,CA,6037
2680,90247,CALIFORNIA,LOS ANGELES,1,CA,6037
2681,90248,CALIFORNIA,LOS ANGELES,1,CA,6037
2682,90249,CALIFORNIA,LOS ANGELES,1,CA,6037
2683,90250,CALIFORNIA,LOS ANGELES,1,CA,6037
2684,90251,CALIFORNIA,LOS ANGELES,1,CA,6037
2685,90254,CALIFORNIA,LOS ANGELES,1,CA,6037
2686,90255,CALIFORNIA,LOS ANGELES,1,CA,6037
2687,90260,CALIFORNIA,LOS ANGELES,1,CA,6037
2688,90261,CALIFORNIA,LOS ANGELES,1,CA,6037
2689,90262,CALIFORNIA,LOS ANGELES,1,CA,6037
2690,90263,CALIFORNIA,LOS ANGELES,1,CA,6037
2691,90264,CALIFORNIA,LOS ANGELES,1,CA,6037
2692,90265,CALIFORNIA,LOS ANGELES,1,CA,6037
2693,90266,CALIFORNIA,LOS ANGELES,1,CA,6037
2694,90267,CALIFORNIA,LOS ANGELES,1,CA,6037
2695,90270,CALIFORNIA,LOS ANGELES,1,CA,6037
2696,90272,CALIFORNIA,LOS ANGELES,1,CA,6037
2697,90274,CALIFORNIA,LOS ANGELES,1,CA,6037
2698,90275,CALIFORNIA,LOS ANGELES,1,CA,6037
2699,90277,CALIFORNIA,LOS ANGELES,1,CA,6037
2700,90278,CALIFORNIA,LOS ANGELES,1,CA,6037
2701,90280,CALIFORNIA,LOS ANGELES,1,CA,6037
2702,90290,CALIFORNIA,LOS ANGELES,1,CA,6037
2703,90291,CALIFORNIA,LOS ANGELES,1,CA,6037
2704,90292,CALIFORNIA,LOS ANGELES,1,CA,6037
2705,90293,CALIFORNIA,LOS ANGELES,1,CA,6037
2706,90294,CALIFORNIA,LOS ANGELES,1,CA,6037
2707,90295,CALIFORNIA,LOS ANGELES,1,CA,6037
2708,90296,CALIFORNIA,LOS ANGELES,1,CA,6037
2709,90301,CALIFORNIA,LOS ANGELES,1,CA,6037
2710,90302,CALIFORNIA,LOS ANGELES,1,CA,6037
2711,90303,CALIFORNIA,LOS ANGELES,1,CA,6037
2712,90304,CALIFORNIA,LOS ANGELES,1,CA,6037
2713,90305,CALIFORNIA,LOS ANGELES,1,CA,6037
2714,90306,CALIFORNIA,LOS ANGELES,1,CA,6037
2715,90307,CALIFORNIA,LOS ANGELES,1,CA,6037
2716,90308,CALIFORNIA,LOS ANGELES,1,CA,6037
2717,90309,CALIFORNIA,LOS ANGELES,1,CA,6037
2718,90310,CALIFORNIA,LOS ANGELES,1,CA,6037
2719,90401,CALIFORNIA,LOS ANGELES,1,CA,6037
2720,90402,CALIFORNIA,LOS ANGELES,1,CA,6037
2721,90403,CALIFORNIA,LOS ANGELES,1,CA,6037
2722,90404,CALIFORNIA,LOS ANGELES,1,CA,6037
2723,90405,CALIFORNIA,LOS ANGELES,1,CA,6037
2724,90406,CALIFORNIA,LOS ANGELES,1,CA,6037
2725,90408,CALIFORNIA,LOS ANGELES,1,CA,6037
2726,90409,CALIFORNIA,LOS ANGELES,1,CA,6037
2727,90501,CALIFORNIA,LOS ANGELES,1,CA,6037
2728,90502,CALIFORNIA,LOS ANGELES,1,CA,6037
2729,90503,CALIFORNIA,LOS ANGELES,1,CA,6037
2730,90504,CALIFORNIA,LOS ANGELES,1,CA,6037
2731,90505,CALIFORNIA,LOS ANGELES,1,CA,6037
2732,90506,CALIFORNIA,LOS ANGELES,1,CA,6037
2733,90507,CALIFORNIA,LOS ANGELES,1,CA,6037
2734,90508,CALIFORNIA,LOS ANGELES,1,CA,6037
2735,90509,CALIFORNIA,LOS ANGELES,1,CA,6037
2736,90510,CALIFORNIA,LOS ANGELES,1,CA,6037
2737,90601,CALIFORNIA,LOS ANGELES,1,CA,6037
2738,90602,CALIFORNIA,LOS ANGELES,1,CA,6037
2739,90603,CALIFORNIA,LOS ANGELES,1,CA,6037
2740,90604,CALIFORNIA,LOS ANGELES,1,CA,6037
2741,90605,CALIFORNIA,LOS ANGELES,1,CA,6037
2742,90606,CALIFORNIA,LOS ANGELES,1,CA,6037
2743,90607,CALIFORNIA,LOS ANGELES,1,CA,6037
2744,90608,CALIFORNIA,LOS ANGELES,1,CA,6037
2745,90609,CALIFORNIA,LOS ANGELES,1,CA,6037
2746,90610,CALIFORNIA,LOS ANGELES,1,CA,6037
2747,90623,CALIFORNIA,LOS ANGELES,1,CA,6037
2748,90630,CALIFORNIA,LOS ANGELES,1,CA,6037
2749,90631,CALIFORNIA,LOS ANGELES,1,CA,6037
2750,90637,CALIFORNIA,LOS ANGELES,1,CA,6037
2751,90638,CALIFORNIA,LOS ANGELES,1,CA,6037
2752,90639,CALIFORNIA,LOS ANGELES,1,CA,6037
2753,90640,CALIFORNIA,LOS ANGELES,1,CA,6037
2754,90650,CALIFORNIA,LOS ANGELES,1,CA,6037
2755,90651,CALIFORNIA,LOS ANGELES,1,CA,6037
2756,90652,CALIFORNIA,LOS ANGELES,1,CA,6037
2757,90660,CALIFORNIA,LOS ANGELES,1,CA,6037
2758,90661,CALIFORNIA,LOS ANGELES,1,CA,6037
2759,90662,CALIFORNIA,LOS ANGELES,1,CA,6037
2760,90670,CALIFORNIA,LOS ANGELES,1,CA,6037
2761,90671,CALIFORNIA,LOS ANGELES,1,CA,6037
2762,90701,CALIFORNIA,LOS ANGELES,1,CA,6037
2763,90702,CALIFORNIA,LOS ANGELES,1,CA,6037
2764,90703,CALIFORNIA,LOS ANGELES,1,CA,6037
2765,90704,CALIFORNIA,LOS ANGELES,1,CA,6037
2766,90706,CALIFORNIA,LOS ANGELES,1,CA,6037
2767,90707,CALIFORNIA,LOS ANGELES,1,CA,6037
2768,90710,CALIFORNIA,LOS ANGELES,1,CA,6037
2769,90711,CALIFORNIA,LOS ANGELES,1,CA,6037
2770,90712,CALIFORNIA,LOS ANGELES,1,CA,6037
2771,90713,CALIFORNIA,LOS ANGELES,1,CA,6037
2772,90714,CALIFORNIA,LOS ANGELES,1,CA,6037
2773,90715,CALIFORNIA,LOS ANGELES,1,CA,6037
2774,90716,CALIFORNIA,LOS ANGELES,1,CA,6037
2775,90717,CALIFORNIA,LOS ANGELES,1,CA,6037
2776,90723,CALIFORNIA,LOS ANGELES,1,CA,6037
2777,90731,CALIFORNIA,LOS ANGELES,1,CA,6037
2778,90732,CALIFORNIA,LOS ANGELES,1,CA,6037
2779,90733,CALIFORNIA,LOS ANGELES,1,CA,6037
2780,90734,CALIFORNIA,LOS ANGELES,1,CA,6037
2781,90744,CALIFORNIA,LOS ANGELES,1,CA,6037
2782,90745,CALIFORNIA,LOS ANGELES,1,CA,6037
2783,90746,CALIFORNIA,LOS ANGELES,1,CA,6037
2784,90747,CALIFORNIA,LOS ANGELES,1,CA,6037
2785,90748,CALIFORNIA,LOS ANGELES,1,CA,6037
2786,90749,CALIFORNIA,LOS ANGELES,1,CA,6037
2787,90755,CALIFORNIA,LOS ANGELES,1,CA,6037
2788,90801,CALIFORNIA,LOS ANGELES,1,CA,6037
2789,90802,CALIFORNIA,LOS ANGELES,1,CA,6037
2790,90803,CALIFORNIA,LOS ANGELES,1,CA,6037
2791,90804,CALIFORNIA,LOS ANGELES,1,CA,6037
2792,90805,CALIFORNIA,LOS ANGELES,1,CA,6037
2793,90806,CALIFORNIA,LOS ANGELES,1,CA,6037
2794,90807,CALIFORNIA,LOS ANGELES,1,CA,6037
2795,90808,CALIFORNIA,LOS ANGELES,1,CA,6037
2796,90809,CALIFORNIA,LOS ANGELES,1,CA,6037
2797,90810,CALIFORNIA,LOS ANGELES,1,CA,6037
2798,90813,CALIFORNIA,LOS ANGELES,1,CA,6037
2799,90814,CALIFORNIA,LOS ANGELES,1,CA,6037
2800,90815,CALIFORNIA,LOS ANGELES,1,CA,6037
2801,90822,CALIFORNIA,LOS ANGELES,1,CA,6037
2802,90831,CALIFORNIA,LOS ANGELES,1,CA,6037
2803,90832,CALIFORNIA,LOS ANGELES,1,CA,6037
2804,90833,CALIFORNIA,LOS ANGELES,1,CA,6037
2805,90840,CALIFORNIA,LOS ANGELES,1,CA,6037
2806,90844,CALIFORNIA,LOS ANGELES,1,CA,6037
2807,90846,CALIFORNIA,LOS ANGELES,1,CA,6037
2808,90853,CALIFORNIA,LOS ANGELES,1,CA,6037
2809,90895,CALIFORNIA,LOS ANGELES,1,CA,6037
2810,90899,CALIFORNIA,LOS ANGELES,1,CA,6037
2811,91001,CALIFORNIA,LOS ANGELES,1,CA,6037
2812,91003,CALIFORNIA,LOS ANGELES,1,CA,6037
2813,91006,CALIFORNIA,LOS ANGELES,1,CA,6037
2814,91007,CALIFORNIA,LOS ANGELES,1,CA,6037
2815,91008,CALIFORNIA,LOS ANGELES,1,CA,6037
2816,91009,CALIFORNIA,LOS ANGELES,1,CA,6037
2817,91010,CALIFORNIA,LOS ANGELES,1,CA,6037
2818,91011,CALIFORNIA,LOS ANGELES,1,CA,6037
2819,91012,CALIFORNIA,LOS ANGELES,1,CA,6037
2820,91016,CALIFORNIA,LOS ANGELES,1,CA,6037
2821,91017,CALIFORNIA,LOS ANGELES,1,CA,6037
2822,91020,CALIFORNIA,LOS ANGELES,1,CA,6037
2823,91021,CALIFORNIA,LOS ANGELES,1,CA,6037
2824,91023,CALIFORNIA,LOS ANGELES,1,CA,6037
2825,91024,CALIFORNIA,LOS ANGELES,1,CA,6037
2826,91025,CALIFORNIA,LOS ANGELES,1,CA,6037
2827,91030,CALIFORNIA,LOS ANGELES,1,CA,6037
2828,91031,CALIFORNIA,LOS ANGELES,1,CA,6037
2829,91040,CALIFORNIA,LOS ANGELES,1,CA,6037
2830,91041,CALIFORNIA,LOS ANGELES,1,CA,6037
2831,91042,CALIFORNIA,LOS ANGELES,1,CA,6037
2832,91043,CALIFORNIA,LOS ANGELES,1,CA,6037
2833,91046,CALIFORNIA,LOS ANGELES,1,CA,6037
2834,91066,CALIFORNIA,LOS ANGELES,1,CA,6037
2835,91077,CALIFORNIA,LOS ANGELES,1,CA,6037
2836,91101,CALIFORNIA,LOS ANGELES,1,CA,6037
2837,91102,CALIFORNIA,LOS ANGELES,1,CA,6037
2838,91103,CALIFORNIA,LOS ANGELES,1,CA,6037
2839,91104,CALIFORNIA,LOS ANGELES,1,CA,6037
2840,91105,CALIFORNIA,LOS ANGELES,1,CA,6037
2841,91106,CALIFORNIA,LOS ANGELES,1,CA,6037
2842,91107,CALIFORNIA,LOS ANGELES,1,CA,6037
2843,91108,CALIFORNIA,LOS ANGELES,1,CA,6037
2844,91109,CALIFORNIA,LOS ANGELES,1,CA,6037
2845,91114,CALIFORNIA,LOS ANGELES,1,CA,6037
2846,91115,CALIFORNIA,LOS ANGELES,1,CA,6037
2847,91116,CALIFORNIA,LOS ANGELES,1,CA,6037
2848,91117,CALIFORNIA,LOS ANGELES,1,CA,6037
2849,91118,CALIFORNIA,LOS ANGELES,1,CA,6037
2850,91121,CALIFORNIA,LOS ANGELES,1,CA,6037
2851,91123,CALIFORNIA,LOS ANGELES,1,CA,6037
2852,91124,CALIFORNIA,LOS ANGELES,1,CA,6037
2853,91125,CALIFORNIA,LOS ANGELES,1,CA,6037
2854,91126,CALIFORNIA,LOS ANGELES,1,CA,6037
2855,91129,CALIFORNIA,LOS ANGELES,1,CA,6037
2856,91182,CALIFORNIA,LOS ANGELES,1,CA,6037
2857,91184,CALIFORNIA,LOS ANGELES,1,CA,6037
2858,91185,CALIFORNIA,LOS ANGELES,1,CA,6037
2859,91188,CALIFORNIA,LOS ANGELES,1,CA,6037
2860,91189,CALIFORNIA,LOS ANGELES,1,CA,6037
2861,91199,CALIFORNIA,LOS ANGELES,1,CA,6037
2862,91201,CALIFORNIA,LOS ANGELES,1,CA,6037
2863,91202,CALIFORNIA,LOS ANGELES,1,CA,6037
2864,91203,CALIFORNIA,LOS ANGELES,1,CA,6037
2865,91204,CALIFORNIA,LOS ANGELES,1,CA,6037
2866,91205,CALIFORNIA,LOS ANGELES,1,CA,6037
2867,91206,CALIFORNIA,LOS ANGELES,1,CA,6037
2868,91207,CALIFORNIA,LOS ANGELES,1,CA,6037
2869,91208,CALIFORNIA,LOS ANGELES,1,CA,6037
2870,91209,CALIFORNIA,LOS ANGELES,1,CA,6037
2871,91210,CALIFORNIA,LOS ANGELES,1,CA,6037
2872,91214,CALIFORNIA,LOS ANGELES,1,CA,6037
2873,91221,CALIFORNIA,LOS ANGELES,1,CA,6037
2874,91222,CALIFORNIA,LOS ANGELES,1,CA,6037
2875,91224,CALIFORNIA,LOS ANGELES,1,CA,6037
2876,91225,CALIFORNIA,LOS ANGELES,1,CA,6037
2877,91226,CALIFORNIA,LOS ANGELES,1,CA,6037
2878,91301,CALIFORNIA,LOS ANGELES,1,CA,6037
2879,91302,CALIFORNIA,LOS ANGELES,1,CA,6037
2880,91303,CALIFORNIA,LOS ANGELES,1,CA,6037
2881,91304,CALIFORNIA,LOS ANGELES,1,CA,6037
2882,91305,CALIFORNIA,LOS ANGELES,1,CA,6037
2883,91306,CALIFORNIA,LOS ANGELES,1,CA,6037
2884,91307,CALIFORNIA,LOS ANGELES,1,CA,6037
2885,91308,CALIFORNIA,LOS ANGELES,1,CA,6037
2886,91309,CALIFORNIA,LOS ANGELES,1,CA,6037
2887,91310,CALIFORNIA,LOS ANGELES,1,CA,6037
2888,91311,CALIFORNIA,LOS ANGELES,1,CA,6037
2889,91313,CALIFORNIA,LOS ANGELES,1,CA,6037
2890,91316,CALIFORNIA,LOS ANGELES,1,CA,6037
2891,91320,CALIFORNIA,VENTURA,1,CA,6111
2892,91321,CALIFORNIA,LOS ANGELES,1,CA,6037
2893,91322,CALIFORNIA,LOS ANGELES,1,CA,6037
2894,91324,CALIFORNIA,LOS ANGELES,1,CA,6037
2895,91325,CALIFORNIA,LOS ANGELES,1,CA,6037
2896,91326,CALIFORNIA,LOS ANGELES,1,CA,6037
2897,91327,CALIFORNIA,LOS ANGELES,1,CA,6037
2898,91328,CALIFORNIA,LOS ANGELES,1,CA,6037
2899,91329,CALIFORNIA,LOS ANGELES,1,CA,6037
2900,91330,CALIFORNIA,LOS ANGELES,1,CA,6037
2901,91331,CALIFORNIA,LOS ANGELES,1,CA,6037
2902,91333,CALIFORNIA,LOS ANGELES,1,CA,6037
2903,91334,CALIFORNIA,LOS ANGELES,1,CA,6037
2904,91335,CALIFORNIA,LOS ANGELES,1,CA,6037
2905,91337,CALIFORNIA,LOS ANGELES,1,CA,6037
2906,91340,CALIFORNIA,LOS ANGELES,1,CA,6037
2907,91341,CALIFORNIA,LOS ANGELES,1,CA,6037
2908,91342,CALIFORNIA,LOS ANGELES,1,CA,6037
2909,91343,CALIFORNIA,LOS ANGELES,1,CA,6037
2910,91344,CALIFORNIA,LOS ANGELES,1,CA,6037
2911,91345,CALIFORNIA,LOS ANGELES,1,CA,6037
2912,91346,CALIFORNIA,LOS ANGELES,1,CA,6037
2913,91350,CALIFORNIA,LOS ANGELES,1,CA,6037
2914,91351,CALIFORNIA,LOS ANGELES,1,CA,6037
2915,91352,CALIFORNIA,LOS ANGELES,1,CA,6037
2916,91353,CALIFORNIA,LOS ANGELES,1,CA,6037
2917,91354,CALIFORNIA,LOS ANGELES,1,CA,6037
2918,91355,CALIFORNIA,LOS ANGELES,1,CA,6037
2919,91356,CALIFORNIA,LOS ANGELES,1,CA,6037
2920,91357,CALIFORNIA,LOS ANGELES,1,CA,6037
2921,91358,CALIFORNIA,VENTURA,1,CA,6111
2922,91359,CALIFORNIA,VENTURA,1,CA,6111
2923,91360,CALIFORNIA,VENTURA,1,CA,6111
2924,91361,CALIFORNIA,VENTURA,1,CA,6111
2925,91362,CALIFORNIA,VENTURA,1,CA,6111
2926,91364,CALIFORNIA,LOS ANGELES,1,CA,6037
2927,91365,CALIFORNIA,LOS ANGELES,1,CA,6037
2928,91367,CALIFORNIA,LOS ANGELES,1,CA,6037
2929,91371,CALIFORNIA,LOS ANGELES,1,CA,6037
2930,91372,CALIFORNIA,LOS ANGELES,1,CA,6037
2931,91376,CALIFORNIA,LOS ANGELES,1,CA,6037
2932,91377,CALIFORNIA,VENTURA,1,CA,6111
2933,91380,CALIFORNIA,LOS ANGELES,1,CA,6037
2934,91381,CALIFORNIA,LOS ANGELES,1,CA,6037
2935,91382,CALIFORNIA,LOS ANGELES,1,CA,6037
2936,91383,CALIFORNIA,LOS ANGELES,1,CA,6037
2937,91384,CALIFORNIA,LOS ANGELES,1,CA,6037
2938,91385,CALIFORNIA,LOS ANGELES,1,CA,6037
2939,91386,CALIFORNIA,LOS ANGELES,1,CA,6037
2940,91387,CALIFORNIA,LOS ANGELES,1,CA,6037
2941,91390,CALIFORNIA,LOS ANGELES,1,CA,6037
2942,91392,CALIFORNIA,LOS ANGELES,1,CA,6037
2943,91393,CALIFORNIA,LOS ANGELES,1,CA,6037
2944,91394,CALIFORNIA,LOS ANGELES,1,CA,6037
2945,91395,CALIFORNIA,LOS ANGELES,1,CA,6037
2946,91396,CALIFORNIA,LOS ANGELES,1,CA,6037
2947,91401,CALIFORNIA,LOS ANGELES,1,CA,6037
2948,91402,CALIFORNIA,LOS ANGELES,1,CA,6037
2949,91403,CALIFORNIA,LOS ANGELES,1,CA,6037
2950,91404,CALIFORNIA,LOS ANGELES,1,CA,6037
2951,91405,CALIFORNIA,LOS ANGELES,1,CA,6037
2952,91406,CALIFORNIA,LOS ANGELES,1,CA,6037
2953,91407,CALIFORNIA,LOS ANGELES,1,CA,6037
2954,91408,CALIFORNIA,LOS ANGELES,1,CA,6037
2955,91409,CALIFORNIA,LOS ANGELES,1,CA,6037
2956,91411,CALIFORNIA,LOS ANGELES,1,CA,6037
2957,91412,CALIFORNIA,LOS ANGELES,1,CA,6037
2958,91413,CALIFORNIA,LOS ANGELES,1,CA,6037
2959,91416,CALIFORNIA,LOS ANGELES,1,CA,6037
2960,91423,CALIFORNIA,LOS ANGELES,1,CA,6037
2961,91426,CALIFORNIA,LOS ANGELES,1,CA,6037
2962,91436,CALIFORNIA,LOS ANGELES,1,CA,6037
2963,91470,CALIFORNIA,LOS ANGELES,1,CA,6037
2964,91482,CALIFORNIA,LOS ANGELES,1,CA,6037
2965,91495,CALIFORNIA,LOS ANGELES,1,CA,6037
2966,91496,CALIFORNIA,LOS ANGELES,1,CA,6037
2967,91499,CALIFORNIA,LOS ANGELES,1,CA,6037
2968,91501,CALIFORNIA,LOS ANGELES,1,CA,6037
2969,91502,CALIFORNIA,LOS ANGELES,1,CA,6037
2970,91503,CALIFORNIA,LOS ANGELES,1,CA,6037
2971,91504,CALIFORNIA,LOS ANGELES,1,CA,6037
2972,91505,CALIFORNIA,LOS ANGELES,1,CA,6037
2973,91506,CALIFORNIA,LOS ANGELES,1,CA,6037
2974,91507,CALIFORNIA,LOS ANGELES,1,CA,6037
2975,91508,CALIFORNIA,LOS ANGELES,1,CA,6037
2976,91510,CALIFORNIA,LOS ANGELES,1,CA,6037
2977,91521,CALIFORNIA,LOS ANGELES,1,CA,6037
2978,91522,CALIFORNIA,LOS ANGELES,1,CA,6037
2979,91523,CALIFORNIA,LOS ANGELES,1,CA,6037
2980,91601,CALIFORNIA,LOS ANGELES,1,CA,6037
2981,91602,CALIFORNIA,LOS ANGELES,1,CA,6037
2982,91603,CALIFORNIA,LOS ANGELES,1,CA,6037
2983,91604,CALIFORNIA,LOS ANGELES,1,CA,6037
2984,91605,CALIFORNIA,LOS ANGELES,1,CA,6037
2985,91606,CALIFORNIA,LOS ANGELES,1,CA,6037
2986,91607,CALIFORNIA,LOS ANGELES,1,CA,6037
2987,91608,CALIFORNIA,LOS ANGELES,1,CA,6037
2988,91609,CALIFORNIA,LOS ANGELES,1,CA,6037
2989,91610,CALIFORNIA,LOS ANGELES,1,CA,6037
2990,91611,CALIFORNIA,LOS ANGELES,1,CA,6037
2991,91612,CALIFORNIA,LOS ANGELES,1,CA,6037
2992,91614,CALIFORNIA,LOS ANGELES,1,CA,6037
2993,91615,CALIFORNIA,LOS ANGELES,1,CA,6037
2994,91617,CALIFORNIA,LOS ANGELES,1,CA,6037
2995,91702,CALIFORNIA,LOS ANGELES,1,CA,6037
2996,91706,CALIFORNIA,LOS ANGELES,1,CA,6037
2997,91709,CALIFORNIA,LOS ANGELES,1,CA,6037
2998,91710,CALIFORNIA,LOS ANGELES,1,CA,6037
2999,91711,CALIFORNIA,LOS ANGELES,1,CA,6037
3000,91714,CALIFORNIA,LOS ANGELES,1,CA,6037
3001,91715,CALIFORNIA,LOS ANGELES,1,CA,6037
3002,91716,CALIFORNIA,LOS ANGELES,1,CA,6037
3003,91722,CALIFORNIA,LOS ANGELES,1,CA,6037
3004,91723,CALIFORNIA,LOS ANGELES,1,CA,6037
3005,91724,CALIFORNIA,LOS ANGELES,1,CA,6037
3006,91731,CALIFORNIA,LOS ANGELES,1,CA,6037
3007,91732,CALIFORNIA,LOS ANGELES,1,CA,6037
3008,91733,CALIFORNIA,LOS ANGELES,1,CA,6037
3009,91734,CALIFORNIA,LOS ANGELES,1,CA,6037
3010,91740,CALIFORNIA,LOS ANGELES,1,CA,6037
3011,91741,CALIFORNIA,LOS ANGELES,1,CA,6037
3012,91744,CALIFORNIA,LOS ANGELES,1,CA,6037
3013,91745,CALIFORNIA,LOS ANGELES,1,CA,6037
3014,91746,CALIFORNIA,LOS ANGELES,1,CA,6037
3015,91747,CALIFORNIA,LOS ANGELES,1,CA,6037
3016,91748,CALIFORNIA,LOS ANGELES,1,CA,6037
3017,91750,CALIFORNIA,LOS ANGELES,1,CA,6037
3018,91754,CALIFORNIA,LOS ANGELES,1,CA,6037
3019,91755,CALIFORNIA,LOS ANGELES,1,CA,6037
3020,91756,CALIFORNIA,LOS ANGELES,1,CA,6037
3021,91765,CALIFORNIA,LOS ANGELES,1,CA,6037
3022,91766,CALIFORNIA,LOS ANGELES,1,CA,6037
3023,91767,CALIFORNIA,LOS ANGELES,1,CA,6037
3024,91768,CALIFORNIA,LOS ANGELES,1,CA,6037
3025,91769,CALIFORNIA,LOS ANGELES,1,CA,6037
3026,91770,CALIFORNIA,LOS ANGELES,1,CA,6037
3027,91771,CALIFORNIA,LOS ANGELES,1,CA,6037
3028,91772,CALIFORNIA,LOS ANGELES,1,CA,6037
3029,91773,CALIFORNIA,LOS ANGELES,1,CA,6037
3030,91775,CALIFORNIA,LOS ANGELES,1,CA,6037
3031,91776,CALIFORNIA,LOS ANGELES,1,CA,6037
3032,91778,CALIFORNIA,LOS ANGELES,1,CA,6037
3033,91780,CALIFORNIA,LOS ANGELES,1,CA,6037
3034,91786,CALIFORNIA,LOS ANGELES,1,CA,6037
3035,91788,CALIFORNIA,LOS ANGELES,1,CA,6037
3036,91789,CALIFORNIA,LOS ANGELES,1,CA,6037
3037,91790,CALIFORNIA,LOS ANGELES,1,CA,6037
3038,91791,CALIFORNIA,LOS ANGELES,1,CA,6037
3039,91792,CALIFORNIA,LOS ANGELES,1,CA,6037
3040,91793,CALIFORNIA,LOS ANGELES,1,CA,6037
3041,91801,CALIFORNIA,LOS ANGELES,1,CA,6037
3042,91802,CALIFORNIA,LOS ANGELES,1,CA,6037
3043,91803,CALIFORNIA,LOS ANGELES,1,CA,6037
3044,91804,CALIFORNIA,LOS ANGELES,1,CA,6037
3045,91896,CALIFORNIA,LOS ANGELES,1,CA,6037
3046,91899,CALIFORNIA,LOS ANGELES,1,CA,6037
3047,91901,CALIFORNIA,SAN DIEGO,1,CA,6073
3048,91902,CALIFORNIA,SAN DIEGO,1,CA,6073
3049,91903,CALIFORNIA,SAN DIEGO,1,CA,6073
3050,91905,CALIFORNIA,SAN DIEGO,1,CA,6073
3051,91906,CALIFORNIA,SAN DIEGO,1,CA,6073
3052,91908,CALIFORNIA,SAN DIEGO,1,CA,6073
3053,91910,CALIFORNIA,SAN DIEGO,1,CA,6073
3054,91911,CALIFORNIA,SAN DIEGO,1,CA,6073
3055,91912,CALIFORNIA,SAN DIEGO,1,CA,6073
3056,91913,CALIFORNIA,SAN DIEGO,1,CA,6073
3057,91914,CALIFORNIA,SAN DIEGO,1,CA,6073
3058,91915,CALIFORNIA,SAN DIEGO,1,CA,6073
3059,91916,CALIFORNIA,SAN DIEGO,1,CA,6073
3060,91917,CALIFORNIA,SAN DIEGO,1,CA,6073
3061,91921,CALIFORNIA,SAN DIEGO,1,CA,6073
3062,91931,CALIFORNIA,SAN DIEGO,1,CA,6073
3063,91932,CALIFORNIA,SAN DIEGO,1,CA,6073
3064,91933,CALIFORNIA,SAN DIEGO,1,CA,6073
3065,91934,CALIFORNIA,SAN DIEGO,1,CA,6073
3066,91935,CALIFORNIA,SAN DIEGO,1,CA,6073
3067,91941,CALIFORNIA,SAN DIEGO,1,CA,6073
3068,91942,CALIFORNIA,SAN DIEGO,1,CA,6073
3069,91943,CALIFORNIA,SAN DIEGO,1,CA,6073
3070,91944,CALIFORNIA,SAN DIEGO,1,CA,6073
3071,91945,CALIFORNIA,SAN DIEGO,1,CA,6073
3072,91946,CALIFORNIA,SAN DIEGO,1,CA,6073
3073,91948,CALIFORNIA,SAN DIEGO,1,CA,6073
3074,91950,CALIFORNIA,SAN DIEGO,1,CA,6073
3075,91951,CALIFORNIA,SAN DIEGO,1,CA,6073
3076,91962,CALIFORNIA,SAN DIEGO,1,CA,6073
3077,91963,CALIFORNIA,SAN DIEGO,1,CA,6073
3078,91976,CALIFORNIA,SAN DIEGO,1,CA,6073
3079,91977,CALIFORNIA,SAN DIEGO,1,CA,6073
3080,91978,CALIFORNIA,SAN DIEGO,1,CA,6073
3081,91979,CALIFORNIA,SAN DIEGO,1,CA,6073
3082,91980,CALIFORNIA,SAN DIEGO,1,CA,6073
3083,92003,CALIFORNIA,SAN DIEGO,1,CA,6073
3084,92004,CALIFORNIA,SAN DIEGO,1,CA,6073
3085,92007,CALIFORNIA,SAN DIEGO,1,CA,6073
3086,92008,CALIFORNIA,SAN DIEGO,1,CA,6073
3087,92009,CALIFORNIA,SAN DIEGO,1,CA,6073
3088,92010,CALIFORNIA,SAN DIEGO,1,CA,6073
3089,92011,CALIFORNIA,SAN DIEGO,1,CA,6073
3090,92013,CALIFORNIA,SAN DIEGO,1,CA,6073
3091,92014,CALIFORNIA,SAN DIEGO,1,CA,6073
3092,92018,CALIFORNIA,SAN DIEGO,1,CA,6073
3093,92019,CALIFORNIA,SAN DIEGO,1,CA,6073
3094,92020,CALIFORNIA,SAN DIEGO,1,CA,6073
3095,92021,CALIFORNIA,SAN DIEGO,1,CA,6073
3096,92022,CALIFORNIA,SAN DIEGO,1,CA,6073
3097,92023,CALIFORNIA,SAN DIEGO,1,CA,6073
3098,92024,CALIFORNIA,SAN DIEGO,1,CA,6073
3099,92025,CALIFORNIA,SAN DIEGO,1,CA,6073
3100,92026,CALIFORNIA,SAN DIEGO,1,CA,6073
3101,92027,CALIFORNIA,SAN DIEGO,1,CA,6073
3102,92028,CALIFORNIA,SAN DIEGO,1,CA,6073
3103,92029,CALIFORNIA,SAN DIEGO,1,CA,6073
3104,92030,CALIFORNIA,SAN DIEGO,1,CA,6073
3105,92033,CALIFORNIA,SAN DIEGO,1,CA,6073
3106,92036,CALIFORNIA,SAN DIEGO,1,CA,6073
3107,92037,CALIFORNIA,SAN DIEGO,1,CA,6073
3108,92038,CALIFORNIA,SAN DIEGO,1,CA,6073
3109,92039,CALIFORNIA,SAN DIEGO,1,CA,6073
3110,92040,CALIFORNIA,SAN DIEGO,1,CA,6073
3111,92046,CALIFORNIA,SAN DIEGO,1,CA,6073
3112,92049,CALIFORNIA,SAN DIEGO,1,CA,6073
3113,92051,CALIFORNIA,SAN DIEGO,1,CA,6073
3114,92052,CALIFORNIA,SAN DIEGO,1,CA,6073
3115,92054,CALIFORNIA,SAN DIEGO,1,CA,6073
3116,92055,CALIFORNIA,SAN DIEGO,1,CA,6073
3117,92056,CALIFORNIA,SAN DIEGO,1,CA,6073
3118,92057,CALIFORNIA,SAN DIEGO,1,CA,6073
3119,92058,CALIFORNIA,SAN DIEGO,1,CA,6073
3120,92059,CALIFORNIA,SAN DIEGO,1,CA,6073
3121,92060,CALIFORNIA,SAN DIEGO,1,CA,6073
3122,92061,CALIFORNIA,SAN DIEGO,1,CA,6073
3123,92064,CALIFORNIA,SAN DIEGO,1,CA,6073
3124,92065,CALIFORNIA,SAN DIEGO,1,CA,6073
3125,92066,CALIFORNIA,SAN DIEGO,1,CA,6073
3126,92067,CALIFORNIA,SAN DIEGO,1,CA,6073
3127,92068,CALIFORNIA,SAN DIEGO,1,CA,6073
3128,92069,CALIFORNIA,SAN DIEGO,1,CA,6073
3129,92070,CALIFORNIA,SAN DIEGO,1,CA,6073
3130,92071,CALIFORNIA,SAN DIEGO,1,CA,6073
3131,92072,CALIFORNIA,SAN DIEGO,1,CA,6073
3132,92074,CALIFORNIA,SAN DIEGO,1,CA,6073
3133,92075,CALIFORNIA,SAN DIEGO,1,CA,6073
3134,92078,CALIFORNIA,SAN DIEGO,1,CA,6073
3135,92079,CALIFORNIA,SAN DIEGO,1,CA,6073
3136,92081,CALIFORNIA,SAN DIEGO,1,CA,6073
3137,92082,CALIFORNIA,SAN DIEGO,1,CA,6073
3138,92083,CALIFORNIA,SAN DIEGO,1,CA,6073
3139,92084,CALIFORNIA,SAN DIEGO,1,CA,6073
3140,92085,CALIFORNIA,SAN DIEGO,1,CA,6073
3141,92086,CALIFORNIA,SAN DIEGO,1,CA,6073
3142,92088,CALIFORNIA,SAN DIEGO,1,CA,6073
3143,92091,CALIFORNIA,SAN DIEGO,1,CA,6073
3144,92092,CALIFORNIA,SAN DIEGO,1,CA,6073
3145,92093,CALIFORNIA,SAN DIEGO,1,CA,6073
3146,92096,CALIFORNIA,SAN DIEGO,1,CA,6073
3147,92101,CALIFORNIA,SAN DIEGO,1,CA,6073
3148,92102,CALIFORNIA,SAN DIEGO,1,CA,6073
3149,92103,CALIFORNIA,SAN DIEGO,1,CA,6073
3150,92104,CALIFORNIA,SAN DIEGO,1,CA,6073
3151,92105,CALIFORNIA,SAN DIEGO,1,CA,6073
3152,92106,CALIFORNIA,SAN DIEGO,1,CA,6073
3153,92107,CALIFORNIA,SAN DIEGO,1,CA,6073
3154,92108,CALIFORNIA,SAN DIEGO,1,CA,6073
3155,92109,CALIFORNIA,SAN DIEGO,1,CA,6073
3156,92110,CALIFORNIA,SAN DIEGO,1,CA,6073
3157,92111,CALIFORNIA,SAN DIEGO,1,CA,6073
3158,92112,CALIFORNIA,SAN DIEGO,1,CA,6073
3159,92113,CALIFORNIA,SAN DIEGO,1,CA,6073
3160,92114,CALIFORNIA,SAN DIEGO,1,CA,6073
3161,92115,CALIFORNIA,SAN DIEGO,1,CA,6073
3162,92116,CALIFORNIA,SAN DIEGO,1,CA,6073
3163,92117,CALIFORNIA,SAN DIEGO,1,CA,6073
3164,92118,CALIFORNIA,SAN DIEGO,1,CA,6073
3165,92119,CALIFORNIA,SAN DIEGO,1,CA,6073
3166,92120,CALIFORNIA,SAN DIEGO,1,CA,6073
3167,92121,CALIFORNIA,SAN DIEGO,1,CA,6073
3168,92122,CALIFORNIA,SAN DIEGO,1,CA,6073
3169,92123,CALIFORNIA,SAN DIEGO,1,CA,6073
3170,92124,CALIFORNIA,SAN DIEGO,1,CA,6073
3171,92126,CALIFORNIA,SAN DIEGO,1,CA,6073
3172,92127,CALIFORNIA,SAN DIEGO,1,CA,6073
3173,92128,CALIFORNIA,SAN DIEGO,1,CA,6073
3174,92129,CALIFORNIA,SAN DIEGO,1,CA,6073
3175,92130,CALIFORNIA,SAN DIEGO,1,CA,6073
3176,92131,CALIFORNIA,SAN DIEGO,1,CA,6073
3177,92132,CALIFORNIA,SAN DIEGO,1,CA,6073
3178,92134,CALIFORNIA,SAN DIEGO,1,CA,6073
3179,92135,CALIFORNIA,SAN DIEGO,1,CA,6073
3180,92136,CALIFORNIA,SAN DIEGO,1,CA,6073
3181,92137,CALIFORNIA,SAN DIEGO,1,CA,6073
3182,92138,CALIFORNIA,SAN DIEGO,1,CA,6073
3183,92139,CALIFORNIA,SAN DIEGO,1,CA,6073
3184,92140,CALIFORNIA,SAN DIEGO,1,CA,6073
3185,92142,CALIFORNIA,SAN DIEGO,1,CA,6073
3186,92143,CALIFORNIA,SAN DIEGO,1,CA,6073
3187,92145,CALIFORNIA,SAN DIEGO,1,CA,6073
3188,92147,CALIFORNIA,SAN DIEGO,1,CA,6073
3189,92149,CALIFORNIA,SAN DIEGO,1,CA,6073
3190,92150,CALIFORNIA,SAN DIEGO,1,CA,6073
3191,92152,CALIFORNIA,SAN DIEGO,1,CA,6073
3192,92153,CALIFORNIA,SAN DIEGO,1,CA,6073
3193,92154,CALIFORNIA,SAN DIEGO,1,CA,6073
3194,92155,CALIFORNIA,SAN DIEGO,1,CA,6073
3195,92158,CALIFORNIA,SAN DIEGO,1,CA,6073
3196,92159,CALIFORNIA,SAN DIEGO,1,CA,6073
3197,92160,CALIFORNIA,SAN DIEGO,1,CA,6073
3198,92161,CALIFORNIA,SAN DIEGO,1,CA,6073
3199,92163,CALIFORNIA,SAN DIEGO,1,CA,6073
3200,92165,CALIFORNIA,SAN DIEGO,1,CA,6073
3201,92166,CALIFORNIA,SAN DIEGO,1,CA,6073
3202,92167,CALIFORNIA,SAN DIEGO,1,CA,6073
3203,92168,CALIFORNIA,SAN DIEGO,1,CA,6073
3204,92169,CALIFORNIA,SAN DIEGO,1,CA,6073
3205,92170,CALIFORNIA,SAN DIEGO,1,CA,6073
3206,92171,CALIFORNIA,SAN DIEGO,1,CA,6073
3207,92172,CALIFORNIA,SAN DIEGO,1,CA,6073
3208,92173,CALIFORNIA,SAN DIEGO,1,CA,6073
3209,92174,CALIFORNIA,SAN DIEGO,1,CA,6073
3210,92175,CALIFORNIA,SAN DIEGO,1,CA,6073
3211,92176,CALIFORNIA,SAN DIEGO,1,CA,6073
3212,92177,CALIFORNIA,SAN DIEGO,1,CA,6073
3213,92178,CALIFORNIA,SAN DIEGO,1,CA,6073
3214,92179,CALIFORNIA,SAN DIEGO,1,CA,6073
3215,92182,CALIFORNIA,SAN DIEGO,1,CA,6073
3216,92191,CALIFORNIA,SAN DIEGO,1,CA,6073
3217,92192,CALIFORNIA,SAN DIEGO,1,CA,6073
3218,92193,CALIFORNIA,SAN DIEGO,1,CA,6073
3219,92195,CALIFORNIA,SAN DIEGO,1,CA,6073
3220,92196,CALIFORNIA,SAN DIEGO,1,CA,6073
3221,92197,CALIFORNIA,SAN DIEGO,1,CA,6073
3222,92198,CALIFORNIA,SAN DIEGO,1,CA,6073
3223,92199,CALIFORNIA,SAN DIEGO,1,CA,6073
3224,92397,CALIFORNIA,LOS ANGELES,1,CA,6037
3225,92536,CALIFORNIA,SAN DIEGO,1,CA,6073
3226,92672,CALIFORNIA,SAN DIEGO,1,CA,6073
3227,93001,CALIFORNIA,VENTURA,1,CA,6111
3228,93002,CALIFORNIA,VENTURA,1,CA,6111
3229,93003,CALIFORNIA,VENTURA,1,CA,6111
3230,93004,CALIFORNIA,VENTURA,1,CA,6111
3231,93005,CALIFORNIA,VENTURA,1,CA,6111
3232,93006,CALIFORNIA,VENTURA,1,CA,6111
3233,93007,CALIFORNIA,VENTURA,1,CA,6111
3234,93009,CALIFORNIA,VENTURA,1,CA,6111
3235,93010,CALIFORNIA,VENTURA,1,CA,6111
3236,93011,CALIFORNIA,VENTURA,1,CA,6111
3237,93012,CALIFORNIA,VENTURA,1,CA,6111
3238,93013,CALIFORNIA,SANTA BARBARA,1,CA,6083
3239,93014,CALIFORNIA,SANTA BARBARA,1,CA,6083
3240,93015,CALIFORNIA,VENTURA,1,CA,6111
3241,93016,CALIFORNIA,VENTURA,1,CA,6111
3242,93020,CALIFORNIA,VENTURA,1,CA,6111
3243,93021,CALIFORNIA,VENTURA,1,CA,6111
3244,93022,CALIFORNIA,VENTURA,1,CA,6111
3245,93023,CALIFORNIA,VENTURA,1,CA,6111
3246,93024,CALIFORNIA,VENTURA,1,CA,6111
3247,93030,CALIFORNIA,VENTURA,1,CA,6111
3248,93031,CALIFORNIA,VENTURA,1,CA,6111
3249,93032,CALIFORNIA,VENTURA,1,CA,6111
3250,93033,CALIFORNIA,VENTURA,1,CA,6111
3251,93034,CALIFORNIA,VENTURA,1,CA,6111
3252,93035,CALIFORNIA,VENTURA,1,CA,6111
3253,93036,CALIFORNIA,VENTURA,1,CA,6111
3254,93040,CALIFORNIA,VENTURA,1,CA,6111
3255,93041,CALIFORNIA,VENTURA,1,CA,6111
3256,93042,CALIFORNIA,VENTURA,1,CA,6111
3257,93043,CALIFORNIA,VENTURA,1,CA,6111
3258,93044,CALIFORNIA,VENTURA,1,CA,6111
3259,93060,CALIFORNIA,VENTURA,1,CA,6111
3260,93061,CALIFORNIA,VENTURA,1,CA,6111
3261,93062,CALIFORNIA,VENTURA,1,CA,6111
3262,93063,CALIFORNIA,VENTURA,1,CA,6111
3263,93064,CALIFORNIA,VENTURA,1,CA,6111
3264,93065,CALIFORNIA,VENTURA,1,CA,6111
3265,93066,CALIFORNIA,VENTURA,1,CA,6111
3266,93067,CALIFORNIA,SANTA BARBARA,1,CA,6083
3267,93094,CALIFORNIA,VENTURA,1,CA,6111
3268,93099,CALIFORNIA,VENTURA,1,CA,6111
3269,93101,CALIFORNIA,SANTA BARBARA,1,CA,6083
3270,93102,CALIFORNIA,SANTA BARBARA,1,CA,6083
3271,93103,CALIFORNIA,SANTA BARBARA,1,CA,6083
3272,93105,CALIFORNIA,SANTA BARBARA,1,CA,6083
3273,93106,CALIFORNIA,SANTA BARBARA,1,CA,6083
3274,93108,CALIFORNIA,SANTA BARBARA,1,CA,6083
3275,93109,CALIFORNIA,SANTA BARBARA,1,CA,6083
3276,93110,CALIFORNIA,SANTA BARBARA,1,CA,6083
3277,93111,CALIFORNIA,SANTA BARBARA,1,CA,6083
3278,93116,CALIFORNIA,SANTA BARBARA,1,CA,6083
3279,93117,CALIFORNIA,SANTA BARBARA,1,CA,6083
3280,93118,CALIFORNIA,SANTA BARBARA,1,CA,6083
3281,93120,CALIFORNIA,SANTA BARBARA,1,CA,6083
3282,93121,CALIFORNIA,SANTA BARBARA,1,CA,6083
3283,93130,CALIFORNIA,SANTA BARBARA,1,CA,6083
3284,93140,CALIFORNIA,SANTA BARBARA,1,CA,6083
3285,93150,CALIFORNIA,SANTA BARBARA,1,CA,6083
3286,93160,CALIFORNIA,SANTA BARBARA,1,CA,6083
3287,93190,CALIFORNIA,SANTA BARBARA,1,CA,6083
3288,93199,CALIFORNIA,SANTA BARBARA,1,CA,6083
3289,93225,CALIFORNIA,VENTURA,1,CA,6111
3290,93243,CALIFORNIA,LOS ANGELES,1,CA,6037
3291,93252,CALIFORNIA,SANTA BARBARA,1,CA,6083
3292,93254,CALIFORNIA,SANTA BARBARA,1,CA,6083
3293,93427,CALIFORNIA,SANTA BARBARA,1,CA,6083
3294,93429,CALIFORNIA,SANTA BARBARA,1,CA,6083
3295,93434,CALIFORNIA,SANTA BARBARA,1,CA,6083
3296,93436,CALIFORNIA,SANTA BARBARA,1,CA,6083
3297,93437,CALIFORNIA,SANTA BARBARA,1,CA,6083
3298,93438,CALIFORNIA,SANTA BARBARA,1,CA,6083
3299,93440,CALIFORNIA,SANTA BARBARA,1,CA,6083
3300,93441,CALIFORNIA,SANTA BARBARA,1,CA,6083
3301,93454,CALIFORNIA,SANTA BARBARA,1,CA,6083
3302,93455,CALIFORNIA,SANTA BARBARA,1,CA,6083
3303,93456,CALIFORNIA,SANTA BARBARA,1,CA,6083
3304,93457,CALIFORNIA,SANTA BARBARA,1,CA,6083
3305,93458,CALIFORNIA,SANTA BARBARA,1,CA,6083
3306,93460,CALIFORNIA,SANTA BARBARA,1,CA,6083
3307,93463,CALIFORNIA,SANTA BARBARA,1,CA,6083
3308,93464,CALIFORNIA,SANTA BARBARA,1,CA,6083
3309,93510,CALIFORNIA,LOS ANGELES,1,CA,6037
3310,93532,CALIFORNIA,LOS ANGELES,1,CA,6037
3311,93534,CALIFORNIA,LOS ANGELES,1,CA,6037
3312,93535,CALIFORNIA,LOS ANGELES,1,CA,6037
3313,93536,CALIFORNIA,LOS ANGELES,1,CA,6037
3314,93539,CALIFORNIA,LOS ANGELES,1,CA,6037
3315,93543,CALIFORNIA,LOS ANGELES,1,CA,6037
3316,93544,CALIFORNIA,LOS ANGELES,1,CA,6037
3317,93550,CALIFORNIA,LOS ANGELES,1,CA,6037
3318,93551,CALIFORNIA,LOS ANGELES,1,CA,6037
3319,93552,CALIFORNIA,LOS ANGELES,1,CA,6037
3320,93553,CALIFORNIA,LOS ANGELES,1,CA,6037
3321,93560,CALIFORNIA,LOS ANGELES,1,CA,6037
3322,93563,CALIFORNIA,LOS ANGELES,1,CA,6037
3323,93584,CALIFORNIA,LOS ANGELES,1,CA,6037
3324,93586,CALIFORNIA,LOS ANGELES,1,CA,6037
3325,93590,CALIFORNIA,LOS ANGELES,1,CA,6037
3326,93591,CALIFORNIA,LOS ANGELES,1,CA,6037
3327,93599,CALIFORNIA,LOS ANGELES,1,CA,6037
3328,93601,CALIFORNIA,SAN DIEGO COUNTY COASTAL AREAS,18,CA,6043
3329,93623,CALIFORNIA,SAN DIEGO COUNTY COASTAL AREAS,18,CA,6043
3330,93653,CALIFORNIA,SAN DIEGO COUNTY COASTAL AREAS,18,CA,6043
3331,94002,CALIFORNIA,SAN FRANCISCO,6,CA,6081
3332,94005,CALIFORNIA,SAN FRANCISCO,6,CA,6081
3333,94010,CALIFORNIA,SAN FRANCISCO,6,CA,6081
3334,94011,CALIFORNIA,SAN FRANCISCO,6,CA,6081
3335,94014,CALIFORNIA,SAN FRANCISCO,6,CA,6081
3336,94015,CALIFORNIA,SAN FRANCISCO,6,CA,6081
3337,94017,CALIFORNIA,SAN FRANCISCO,6,CA,6081
3338,94018,CALIFORNIA,SAN FRANCISCO,6,CA,6081
3339,94019,CALIFORNIA,SAN FRANCISCO,6,CA,6081
3340,94020,CALIFORNIA,SAN FRANCISCO,6,CA,6081
3341,94021,CALIFORNIA,SAN FRANCISCO,6,CA,6081
3342,94025,CALIFORNIA,SAN FRANCISCO,6,CA,6081
3343,94026,CALIFORNIA,SAN FRANCISCO,6,CA,6081
3344,94027,CALIFORNIA,SAN FRANCISCO,6,CA,6081
3345,94028,CALIFORNIA,SAN FRANCISCO,6,CA,6081
3346,94030,CALIFORNIA,SAN FRANCISCO,6,CA,6081
3347,94037,CALIFORNIA,SAN FRANCISCO,6,CA,6081
3348,94038,CALIFORNIA,SAN FRANCISCO,6,CA,6081
3349,94044,CALIFORNIA,SAN FRANCISCO,6,CA,6081
3350,94060,CALIFORNIA,SAN FRANCISCO,6,CA,6081
3351,94061,CALIFORNIA,SAN FRANCISCO,6,CA,6081
3352,94062,CALIFORNIA,SAN FRANCISCO,6,CA,6081
3353,94063,CALIFORNIA,SAN FRANCISCO,6,CA,6081
3354,94064,CALIFORNIA,SAN FRANCISCO,6,CA,6081
3355,94065,CALIFORNIA,SAN FRANCISCO,6,CA,6081
3356,94066,CALIFORNIA,SAN FRANCISCO,6,CA,6081
3357,94070,CALIFORNIA,SAN FRANCISCO,6,CA,6081
3358,94074,CALIFORNIA,SAN FRANCISCO,6,CA,6081
3359,94080,CALIFORNIA,SAN FRANCISCO,6,CA,6081
3360,94083,CALIFORNIA,SAN FRANCISCO,6,CA,6081
3361,94112,CALIFORNIA,SAN FRANCISCO,6,CA,6081
3362,94125,CALIFORNIA,SAN FRANCISCO,6,CA,6081
3363,94128,CALIFORNIA,SAN FRANCISCO,6,CA,6081
3364,94134,CALIFORNIA,SAN FRANCISCO,6,CA,6081
3365,94303,CALIFORNIA,SAN FRANCISCO,6,CA,6081
3366,94401,CALIFORNIA,SAN FRANCISCO,6,CA,6081
3367,94402,CALIFORNIA,SAN FRANCISCO,6,CA,6081
3368,94403,CALIFORNIA,SAN FRANCISCO,6,CA,6081
3369,94404,CALIFORNIA,SAN FRANCISCO,6,CA,6081
3370,94497,CALIFORNIA,SAN FRANCISCO,6,CA,6081
3371,94501,CALIFORNIA,REDWOOD COAST,1,CA,6001
3372,94502,CALIFORNIA,REDWOOD COAST,1,CA,6001
3373,94505,CALIFORNIA,REDWOOD COAST,1,CA,6001
3374,94514,CALIFORNIA,REDWOOD COAST,1,CA,6001
3375,94536,CALIFORNIA,REDWOOD COAST,1,CA,6001
3376,94537,CALIFORNIA,REDWOOD COAST,1,CA,6001
3377,94538,CALIFORNIA,REDWOOD COAST,1,CA,6001
3378,94539,CALIFORNIA,REDWOOD COAST,1,CA,6001
3379,94540,CALIFORNIA,REDWOOD COAST,1,CA,6001
3380,94541,CALIFORNIA,REDWOOD COAST,1,CA,6001
3381,94542,CALIFORNIA,REDWOOD COAST,1,CA,6001
3382,94543,CALIFORNIA,REDWOOD COAST,1,CA,6001
3383,94544,CALIFORNIA,REDWOOD COAST,1,CA,6001
3384,94545,CALIFORNIA,REDWOOD COAST,1,CA,6001
3385,94546,CALIFORNIA,REDWOOD COAST,1,CA,6001
3386,94550,CALIFORNIA,REDWOOD COAST,1,CA,6001
3387,94551,CALIFORNIA,REDWOOD COAST,1,CA,6001
3388,94552,CALIFORNIA,REDWOOD COAST,1,CA,6001
3389,94555,CALIFORNIA,REDWOOD COAST,1,CA,6001
3390,94557,CALIFORNIA,REDWOOD COAST,1,CA,6001
3391,94560,CALIFORNIA,REDWOOD COAST,1,CA,6001
3392,94566,CALIFORNIA,REDWOOD COAST,1,CA,6001
3393,94568,CALIFORNIA,REDWOOD COAST,1,CA,6001
3394,94577,CALIFORNIA,REDWOOD COAST,1,CA,6001
3395,94578,CALIFORNIA,REDWOOD COAST,1,CA,6001
3396,94579,CALIFORNIA,REDWOOD COAST,1,CA,6001
3397,94580,CALIFORNIA,REDWOOD COAST,1,CA,6001
3398,94586,CALIFORNIA,REDWOOD COAST,1,CA,6001
3399,94587,CALIFORNIA,REDWOOD COAST,1,CA,6001
3400,94588,CALIFORNIA,REDWOOD COAST,1,CA,6001
3401,94601,CALIFORNIA,REDWOOD COAST,1,CA,6001
3402,94602,CALIFORNIA,REDWOOD COAST,1,CA,6001
3403,94603,CALIFORNIA,REDWOOD COAST,1,CA,6001
3404,94604,CALIFORNIA,REDWOOD COAST,1,CA,6001
3405,94605,CALIFORNIA,REDWOOD COAST,1,CA,6001
3406,94606,CALIFORNIA,REDWOOD COAST,1,CA,6001
3407,94607,CALIFORNIA,REDWOOD COAST,1,CA,6001
3408,94608,CALIFORNIA,REDWOOD COAST,1,CA,6001
3409,94609,CALIFORNIA,REDWOOD COAST,1,CA,6001
3410,94610,CALIFORNIA,REDWOOD COAST,1,CA,6001
3411,94611,CALIFORNIA,REDWOOD COAST,1,CA,6001
3412,94612,CALIFORNIA,REDWOOD COAST,1,CA,6001
3413,94613,CALIFORNIA,REDWOOD COAST,1,CA,6001
3414,94614,CALIFORNIA,REDWOOD COAST,1,CA,6001
3415,94615,CALIFORNIA,REDWOOD COAST,1,CA,6001
3416,94618,CALIFORNIA,REDWOOD COAST,1,CA,6001
3417,94619,CALIFORNIA,REDWOOD COAST,1,CA,6001
3418,94620,CALIFORNIA,REDWOOD COAST,1,CA,6001
3419,94621,CALIFORNIA,REDWOOD COAST,1,CA,6001
3420,94623,CALIFORNIA,REDWOOD COAST,1,CA,6001
3421,94624,CALIFORNIA,REDWOOD COAST,1,CA,6001
3422,94661,CALIFORNIA,REDWOOD COAST,1,CA,6001
3423,94662,CALIFORNIA,REDWOOD COAST,1,CA,6001
3424,94666,CALIFORNIA,REDWOOD COAST,1,CA,6001
3425,94701,CALIFORNIA,REDWOOD COAST,1,CA,6001
3426,94702,CALIFORNIA,REDWOOD COAST,1,CA,6001
3427,94703,CALIFORNIA,REDWOOD COAST,1,CA,6001
3428,94704,CALIFORNIA,REDWOOD COAST,1,CA,6001
3429,94705,CALIFORNIA,REDWOOD COAST,1,CA,6001
3430,94706,CALIFORNIA,REDWOOD COAST,1,CA,6001
3431,94707,CALIFORNIA,REDWOOD COAST,1,CA,6001
3432,94708,CALIFORNIA,REDWOOD COAST,1,CA,6001
3433,94709,CALIFORNIA,REDWOOD COAST,1,CA,6001
3434,94710,CALIFORNIA,REDWOOD COAST,1,CA,6001
3435,94712,CALIFORNIA,REDWOOD COAST,1,CA,6001
3436,94720,CALIFORNIA,REDWOOD COAST,1,CA,6001
3437,95035,CALIFORNIA,REDWOOD COAST,1,CA,6001
3438,95306,CALIFORNIA,SAN DIEGO COUNTY COASTAL AREAS,18,CA,6043
3439,95311,CALIFORNIA,SAN DIEGO COUNTY COASTAL AREAS,18,CA,6043
3440,95318,CALIFORNIA,SAN DIEGO COUNTY COASTAL AREAS,18,CA,6043
3441,95321,CALIFORNIA,SAN DIEGO COUNTY COASTAL AREAS,18,CA,6043
3442,95325,CALIFORNIA,SAN DIEGO COUNTY COASTAL AREAS,18,CA,6043
3443,95329,CALIFORNIA,SAN DIEGO COUNTY COASTAL AREAS,18,CA,6043
3444,95338,CALIFORNIA,SAN DIEGO COUNTY COASTAL AREAS,18,CA,6043
3445,95345,CALIFORNIA,SAN DIEGO COUNTY COASTAL AREAS,18,CA,6043
3446,95369,CALIFORNIA,SAN DIEGO COUNTY COASTAL AREAS,18,CA,6043
3447,95377,CALIFORNIA,REDWOOD COAST,1,CA,6001
3448,95389,CALIFORNIA,SAN DIEGO COUNTY COASTAL AREAS,18,CA,6043
3449,95391,CALIFORNIA,REDWOOD COAST,1,CA,6001
3450,95501,CALIFORNIA,HUMBOLDT,2,CA,6023
3451,95502,CALIFORNIA,HUMBOLDT,2,CA,6023
3452,95503,CALIFORNIA,HUMBOLDT,2,CA,6023
3453,95511,CALIFORNIA,HUMBOLDT,2,CA,6023
3454,95514,CALIFORNIA,HUMBOLDT,2,CA,6023
3455,95518,CALIFORNIA,HUMBOLDT,2,CA,6023
3456,95519,CALIFORNIA,HUMBOLDT,2,CA,6023
3457,95521,CALIFORNIA,HUMBOLDT,2,CA,6023
3458,95524,CALIFORNIA,HUMBOLDT,2,CA,6023
3459,95525,CALIFORNIA,HUMBOLDT,2,CA,6023
3460,95526,CALIFORNIA,HUMBOLDT,2,CA,6023
3461,95528,CALIFORNIA,HUMBOLDT,2,CA,6023
3462,95534,CALIFORNIA,HUMBOLDT,2,CA,6023
3463,95536,CALIFORNIA,HUMBOLDT,2,CA,6023
3464,95537,CALIFORNIA,HUMBOLDT,2,CA,6023
3465,95540,CALIFORNIA,HUMBOLDT,2,CA,6023
3466,95542,CALIFORNIA,HUMBOLDT,2,CA,6023
3467,95545,CALIFORNIA,HUMBOLDT,2,CA,6023
3468,95546,CALIFORNIA,HUMBOLDT,2,CA,6023
3469,95547,CALIFORNIA,HUMBOLDT,2,CA,6023
3470,95549,CALIFORNIA,HUMBOLDT,2,CA,6023
3471,95550,CALIFORNIA,HUMBOLDT,2,CA,6023
3472,95551,CALIFORNIA,HUMBOLDT,2,CA,6023
3473,95553,CALIFORNIA,HUMBOLDT,2,CA,6023
3474,95554,CALIFORNIA,HUMBOLDT,2,CA,6023
3475,95555,CALIFORNIA,HUMBOLDT,2,CA,6023
3476,95556,CALIFORNIA,HUMBOLDT,2,CA,6023
3477,95558,CALIFORNIA,HUMBOLDT,2,CA,6023
3478,95559,CALIFORNIA,HUMBOLDT,2,CA,6023
3479,95560,CALIFORNIA,HUMBOLDT,2,CA,6023
3480,95562,CALIFORNIA,HUMBOLDT,2,CA,6023
3481,95564,CALIFORNIA,HUMBOLDT,2,CA,6023
3482,95565,CALIFORNIA,HUMBOLDT,2,CA,6023
3483,95568,CALIFORNIA,HUMBOLDT,2,CA,6023
3484,95569,CALIFORNIA,HUMBOLDT,2,CA,6023
3485,95570,CALIFORNIA,HUMBOLDT,2,CA,6023
3486,95571,CALIFORNIA,HUMBOLDT,2,CA,6023
3487,95573,CALIFORNIA,HUMBOLDT,2,CA,6023
3488,95587,CALIFORNIA,HUMBOLDT,2,CA,6023
3489,95589,CALIFORNIA,HUMBOLDT,2,CA,6023
3490,96742,HAWAII,OAHU SOUTH SHORE,1,HI,15005
3491,97812,OREGON,SOUTH CENTRAL OREGON COAST,1,OR,41021
3492,97814,OREGON,NORTHERN OREGON COAST,7,OR,41001
3493,97819,OREGON,NORTHERN OREGON COAST,7,OR,41001
3494,97823,OREGON,SOUTH CENTRAL OREGON COAST,1,OR,41021
3495,97830,OREGON,SOUTH CENTRAL OREGON COAST,1,OR,41021
3496,97833,OREGON,NORTHERN OREGON COAST,7,OR,41001
3497,97834,OREGON,NORTHERN OREGON COAST,7,OR,41001
3498,97837,OREGON,NORTHERN OREGON COAST,7,OR,41001
3499,97840,OREGON,NORTHERN OREGON COAST,7,OR,41001
3500,97867,OREGON,NORTHERN OREGON COAST,7,OR,41001
3501,97870,OREGON,NORTHERN OREGON COAST,7,OR,41001
3502,97877,OREGON,NORTHERN OREGON COAST,7,OR,41001
3503,97883,OREGON,NORTHERN OREGON COAST,7,OR,41001
3504,97884,OREGON,NORTHERN OREGON COAST,7,OR,41001
3505,97905,OREGON,NORTHERN OREGON COAST,7,OR,41001
3506,97907,OREGON,NORTHERN OREGON COAST,7,OR,41001
3507,98520,WASHINGTON,GRAYS HARBOR,1,WA,53027
3508,98526,WASHINGTON,GRAYS HARBOR,1,WA,53027
3509,98527,WASHINGTON,PACIFIC,1,WA,53049
3510,98535,WASHINGTON,GRAYS HARBOR,1,WA,53027
3511,98536,WASHINGTON,GRAYS HARBOR,1,WA,53027
3512,98537,WASHINGTON,GRAYS HARBOR,1,WA,53027
3513,98541,WASHINGTON,GRAYS HARBOR,1,WA,53027
3514,98547,WASHINGTON,GRAYS HARBOR,1,WA,53027
3515,98550,WASHINGTON,GRAYS HARBOR,1,WA,53027
3516,98552,WASHINGTON,GRAYS HARBOR,1,WA,53027
3517,98554,WASHINGTON,PACIFIC,1,WA,53049
3518,98557,WASHINGTON,GRAYS HARBOR,1,WA,53027
3519,98559,WASHINGTON,GRAYS HARBOR,1,WA,53027
3520,98561,WASHINGTON,PACIFIC,1,WA,53049
3521,98562,WASHINGTON,GRAYS HARBOR,1,WA,53027
3522,98563,WASHINGTON,GRAYS HARBOR,1,WA,53027
3523,98566,WASHINGTON,GRAYS HARBOR,1,WA,53027
3524,98568,WASHINGTON,GRAYS HARBOR,1,WA,53027
3525,98569,WASHINGTON,GRAYS HARBOR,1,WA,53027
3526,98571,WASHINGTON,GRAYS HARBOR,1,WA,53027
3527,98572,WASHINGTON,PACIFIC,1,WA,53049
3528,98575,WASHINGTON,GRAYS HARBOR,1,WA,53027
3529,98577,WASHINGTON,PACIFIC,1,WA,53049
3530,98579,WASHINGTON,GRAYS HARBOR,1,WA,53027
3531,98583,WASHINGTON,GRAYS HARBOR,1,WA,53027
3532,98586,WASHINGTON,PACIFIC,1,WA,53049
3533,98587,WASHINGTON,GRAYS HARBOR,1,WA,53027
3534,98590,WASHINGTON,PACIFIC,1,WA,53049
3535,98595,WASHINGTON,GRAYS HARBOR,1,WA,53027
3536,98614,WASHINGTON,PACIFIC,1,WA,53049
3537,98624,WASHINGTON,PACIFIC,1,WA,53049
3538,98631,WASHINGTON,PACIFIC,1,WA,53049
3539,98637,WASHINGTON,PACIFIC,1,WA,53049
3540,98638,WASHINGTON,PACIFIC,1,WA,53049
3541,98640,WASHINGTON,PACIFIC,1,WA,53049
3542,98641,WASHINGTON,PACIFIC,1,WA,53049
3543,98644,WASHINGTON,PACIFIC,1,WA,53049
3544,99301,WASHINGTON,SOUTH COAST,4,WA,53021
3545,99302,WASHINGTON,SOUTH COAST,4,WA,53021
3546,99326,WASHINGTON,SOUTH COAST,4,WA,53021
3547,99330,WASHINGTON,SOUTH COAST,4,WA,53021
3548,99335,WASHINGTON,SOUTH COAST,4,WA,53021
3549,99343,WASHINGTON,SOUTH COAST,4,WA,53021
3550,99344,WASHINGTON,SOUTH COAST,4,WA,53021
3551,99371,WASHINGTON,SOUTH COAST,4,WA,53021
